{"type":"Topology","arcs":[[[13460,18307],[35,3],[14,37],[39,3],[-3,-59],[25,-32],[25,-73],[42,8],[-11,48],[75,23],[26,30],[30,-15],[106,11],[-4,-31],[74,-38],[43,15],[121,-28],[-17,-69],[33,-42],[-4,-130],[31,-79],[46,31],[31,-18],[0,59],[50,-15],[44,13],[87,-29],[133,-112],[78,-99],[-6,-39],[27,-62],[49,-68],[21,-89],[-43,-79],[8,-54],[55,-82],[5,-38],[-48,6],[5,-88],[-47,-9],[-31,-33],[13,-88],[32,-54],[118,-17],[3,-42],[56,-109],[-17,-104],[72,-14],[7,19],[68,6],[65,-24],[4,54],[60,-16],[32,41],[49,0],[33,52],[47,-32],[-9,-76],[-21,-29],[26,-65],[97,-34],[5,-34],[51,-58],[10,-34],[73,9],[79,-73],[47,-24],[30,27],[65,-21],[28,-36],[99,-69],[109,29],[29,-23],[41,-64],[70,-23],[65,30],[58,-9],[59,-28],[17,31],[32,-41],[37,14],[28,54],[39,-8],[19,37],[19,-24],[-687,-631],[-47,-25],[-62,15],[-3,-109],[-12,-23],[-46,2],[-85,41],[-50,-48],[-60,-12],[-10,-34],[5,-79],[-71,-120],[-106,1],[-46,35],[-44,11],[-81,-76],[-67,-6],[-40,-52],[-114,-69],[-35,4],[-35,34],[-48,-2],[-43,-55],[-58,-7],[-13,-27],[-74,-43],[-48,-55],[-42,-25],[-153,34],[-83,-4],[-108,16],[-43,18],[-86,67],[4,39],[-120,32],[-120,-29],[-121,59],[-57,-10],[-159,32],[-32,45],[-56,51],[-72,7],[-31,21],[-96,17],[-28,-17],[-43,9],[-31,-48],[-65,-35],[-53,-57],[-104,-11],[-28,31],[-51,-18],[-32,-70],[20,-100],[-51,-36],[4,-70],[-43,-31],[-76,-78],[-13,-78],[43,-4],[33,-25],[56,29],[75,-130],[0,-73],[-70,-123],[-21,-100],[15,-23],[99,-4],[6,-10],[78,21],[27,22],[45,-21],[52,0],[33,-34],[14,-54],[-2,-68],[-40,-80],[-48,-37],[-78,-19],[-40,-24],[-20,-45],[-60,-49],[33,-160],[27,-67],[58,-2],[88,-126],[6,-135],[-14,-51],[-65,-104],[-77,-11],[-9,-88],[66,-24],[91,-102],[28,-87],[48,7],[81,-31],[13,-18],[-5,-65],[-28,-63],[93,-22],[16,-81],[35,-87],[63,-56],[81,23],[26,47],[1,43],[53,23],[3,-17],[-49,-150],[25,-71],[-32,-76],[10,-70],[27,-30],[17,-73],[98,-1],[56,11],[41,-36],[86,-23],[41,58],[51,-16],[63,-91],[31,16],[50,-36],[96,-93],[10,-59],[31,-21],[2,-67],[-50,-32],[-13,-64],[-68,-93],[-33,39],[-32,-67],[-44,11],[-74,-46],[-51,-17],[-64,44],[-97,-83],[-24,-69],[-69,-18],[-26,29],[-6,-45],[-126,-140],[-29,-1],[2,-89],[-28,4],[1,-52],[59,-137],[22,-76],[10,-85],[29,-57],[-16,-56],[-29,-36],[-43,-141],[1,-57],[-18,-81],[12,-83],[35,-36],[22,16],[65,-26],[15,-48],[-37,-53],[-30,1],[-45,55],[-17,-7],[-5,-96],[-45,-38],[-31,1],[-48,-55],[-5,-27],[-49,-28],[7,-45],[-51,-13],[-31,-97],[-22,0],[17,-52],[-49,-21],[-34,-66],[-45,-53],[-45,-28],[-7,-67],[-30,-60],[-25,24],[-50,-45],[-25,-65],[-27,7],[-7,-57],[-24,-6],[-31,-66],[48,-47],[35,-78],[8,-119],[-119,-118],[-37,-48],[-219,-83],[-165,-85],[-12,-12],[-52,-242],[-66,-284],[-173,-413],[-88,-136],[-59,-168],[-208,-115],[-250,-199],[-59,-27],[-79,-113],[-27,-53],[-91,-364],[-23,-58],[-59,-74],[-128,-138],[-68,-123],[-22,-206],[-218,-108],[-87,-12],[-225,-14],[-128,-33],[-280,-167],[-46,-21],[-124,16],[-76,167],[-7,104],[-106,145],[-81,19],[-109,-35],[-62,-85],[-92,-84],[-49,-70],[-48,-93],[-89,-289],[-77,-74],[-72,-137],[-48,-59],[-143,-149],[-77,-101],[-71,-221],[-12,-160],[-16,-129],[37,-97],[194,-113],[48,-55],[81,-42],[61,0],[104,22],[79,-13],[59,-53],[16,-88],[-8,-73],[2,-115],[-11,-59],[6,-85],[-27,-108],[-49,-95],[-14,-54],[11,-128],[15,-56],[37,-76],[78,-105],[49,-111],[96,-41],[147,10],[76,41],[34,-5],[32,-74],[-8,-152],[6,-68],[-5,-144],[70,-97],[14,-74],[125,-173],[36,-219],[43,-136],[69,-139],[23,-76],[28,-51],[-20,-43],[-43,-24],[-31,-57],[-1,-73],[12,-139],[19,-22],[85,0],[4,-47],[-30,-10],[-30,-40],[-35,-14],[-32,15],[-105,-80],[-7,-28],[37,-27],[-95,-58],[-146,3],[-60,21],[-20,34],[14,62],[-25,66],[20,14],[11,60],[-18,12],[-112,-46],[-86,-46],[-72,-19],[-58,-31],[-84,-23],[-39,-21],[-32,-96],[-51,-63],[-109,-7],[-182,15],[-42,41],[-88,112],[-83,-33],[-71,15],[-68,-10],[-50,14],[-107,-57],[-111,46],[-69,-54],[-42,11],[-31,74],[-40,-20],[-29,-97],[-19,3],[-21,138],[-60,-33],[-5,-342],[-10,-101],[-353,3],[-11,26],[-38,-24],[-5,-56],[-42,18],[-71,-67],[-27,-4],[4,-50],[-52,27],[6,-41],[-64,-9],[-22,28],[2,68],[-25,0],[-2,-46],[15,-109],[-45,-5],[-121,99],[1,97],[29,49],[-38,-26],[-17,-51],[-12,-123],[-42,-4],[-83,54],[40,-77],[-59,8],[-32,-15],[-25,24],[6,30],[-47,6],[-11,43],[-38,7],[-39,35],[-23,54],[16,48],[-57,-42],[7,54],[-25,70],[28,41],[-19,33],[-16,-57],[-23,26],[-15,92],[-25,66],[5,75],[68,-7],[-60,33],[-24,-12],[-27,85],[52,49],[58,-43],[26,15],[-66,35],[-1,52],[46,22],[-67,-5],[57,48],[28,13],[-38,-3],[-34,28],[46,32],[-4,31],[-29,-47],[-31,-18],[27,98],[-12,16],[25,48],[-58,-39],[-8,36],[34,44],[15,-2],[15,40],[32,20],[31,-8],[-25,40],[12,35],[-38,9],[-43,57],[5,31],[-77,30],[-26,-9],[-37,38],[-26,-40],[-28,15],[-24,-19],[-20,24],[-15,-55],[-65,66],[-45,6],[-26,71],[-40,-12],[44,-36],[21,-47],[-106,86],[-46,-25],[-64,10],[-62,-28],[-40,8],[42,73],[-19,57],[25,36],[-7,60],[18,52],[-8,70],[34,82],[-2,75],[-57,102],[-57,67],[-54,42],[14,84],[16,19],[-34,38],[-1,108],[-41,44],[26,70],[-13,35],[-26,-86],[-56,27],[-45,-19],[-34,45],[-52,-8],[-10,18],[-74,-44],[-13,15],[-76,-88],[-9,-88],[98,34],[64,61],[52,11],[20,-39],[24,4],[37,-59],[40,22],[48,-9],[-18,-83],[29,-22],[-22,-15],[-86,51],[-93,34],[-85,-2],[-105,-20],[-84,-33],[-82,-19],[-93,10],[-41,-9],[-38,-39],[-132,-48],[-109,30],[-153,25],[-27,-13],[-72,6],[-20,-16],[-21,-77],[-68,-16],[-110,13],[-46,13],[-90,1],[-45,-10],[-104,4],[-75,-41],[-36,-90],[23,-43],[34,-2],[-31,-45],[-75,-1],[19,41],[1,56],[-60,55],[-44,-1],[-39,-39],[-56,-2],[-23,29],[-148,79],[-58,14],[-70,-2],[-8,89],[80,74],[-40,-9],[-7,21],[-68,-32],[-18,46],[-22,-80],[34,-7],[30,-57],[-8,-43],[-45,13],[-69,-3],[-76,18],[-107,41],[-80,5],[-67,-16],[-68,-34],[-37,-40],[-16,-45],[-28,7],[50,-86],[-22,-39],[-112,34],[-83,8],[-137,40],[-38,-7],[-34,-33],[-56,-25],[-171,49],[-168,21],[-61,1],[-97,-13],[-34,-32],[17,-19],[-45,-7],[-73,-56],[-16,-42],[7,-45],[42,-2],[-48,-21],[-64,11],[45,31],[-6,66],[-25,35],[-69,29],[-49,-5],[-80,-32],[-18,-46],[31,-80],[-110,18],[-107,-9],[-29,-82],[-78,-14],[-39,29],[33,67],[-6,44],[21,-12],[8,88],[-28,-30],[-53,49],[-43,-23],[-42,11],[44,140],[14,171],[-3,125],[13,195],[23,25],[-14,62],[-1,111],[78,4],[62,507],[14,79],[22,25],[85,30],[100,65],[58,1],[7,88],[16,12],[54,-27],[80,-15],[8,39],[-25,35],[-8,46],[25,2],[25,40],[-11,24],[17,48],[80,13],[36,41],[169,23],[51,43],[59,5],[55,44],[137,-8],[80,8],[48,-20],[114,13],[30,125],[-8,145],[81,29],[-18,88],[-1,212],[60,76],[-18,56],[-111,86],[-122,-12],[-79,-52],[-67,6],[-29,24],[-55,-6],[-39,53],[49,74],[-24,48],[47,172],[-4,106],[-21,265],[-39,333],[-21,75],[28,242],[-10,100],[-189,-36],[-49,75],[-37,30],[-62,104],[-139,77],[-54,3],[-68,30],[-53,-3],[-70,31],[-49,45],[-34,11],[-149,126],[-26,54],[-94,125],[-104,197],[-10,39],[-57,89],[-1,68],[-43,90],[-42,18],[13,80],[-44,38],[-25,84],[14,91],[-59,66],[-115,145],[-65,97],[-240,397],[298,-128],[453,-197],[474,-197],[305,-128],[514,71],[368,49],[219,20],[52,-15],[376,-85],[71,-55],[25,19],[21,80],[54,61],[57,41],[100,34],[40,-5],[74,36],[140,13],[314,-38],[43,-22],[65,-1],[363,137],[330,120],[247,94],[203,81],[72,85],[38,84],[-113,111],[-4,40],[45,103],[3,39],[28,76],[16,102],[0,77],[21,74],[-14,72],[-41,41],[-16,83],[50,235],[52,265],[14,15],[157,46],[117,133],[3,55],[43,134],[69,9],[32,62],[65,44],[65,23],[73,-13],[4,-39],[-23,-19],[31,-42],[107,17],[16,-25],[86,-26],[71,19],[44,-4],[97,35],[47,29],[79,18],[94,64],[55,13],[15,33],[-18,59],[-29,21],[-78,-24],[-26,5],[-38,46],[4,34],[-28,104],[126,-21],[41,19],[98,114],[25,17],[79,6],[36,21],[74,70],[51,81],[51,104],[8,-27],[80,-18],[-8,-22],[34,-39],[133,-2],[65,-21],[63,-36],[26,50],[-115,-3],[-30,21],[133,88],[61,-68],[67,-11],[15,-101],[55,-49],[30,-70],[36,-15],[57,3],[47,61],[36,-24],[37,19],[91,84],[37,111],[40,88],[63,53],[59,79],[-22,66],[-27,218],[-3,166],[11,116],[-30,79],[-9,65],[43,99],[97,46],[64,133],[-10,88],[-46,46],[2,28],[76,96],[55,14],[-37,112],[14,118],[71,94],[138,-6],[62,47],[87,-43],[40,11],[28,34],[75,20],[43,97],[86,10],[75,65],[56,82],[31,4],[-8,89],[-26,50],[-29,1],[-18,55],[-24,9],[-40,62],[23,150],[-47,27],[-12,84],[-127,26],[-35,40],[-14,74],[-38,50],[-12,51],[-37,50],[11,57],[23,23],[-3,59],[16,14],[128,-2],[53,-39],[52,0],[82,-48],[39,10],[46,-24],[97,-4],[40,-23],[69,3],[54,26],[55,-14],[113,1],[55,37],[59,-7],[32,45],[97,37],[57,36],[-4,59],[52,78],[9,86],[-13,58],[48,98],[-2,34],[-80,35],[-78,99],[-11,42],[0,87],[22,25],[67,24],[23,54],[-15,63],[19,48],[21,-2],[57,52],[23,1],[26,59],[33,20],[29,101],[43,45],[30,7],[111,65],[18,55],[33,21],[-21,73],[22,49],[62,43],[56,78],[-3,31],[-35,11],[-63,65],[-14,53],[90,192],[-54,62],[18,104],[-83,43],[-26,30],[38,85],[8,44],[-60,46],[5,68],[-59,108],[-47,27],[-4,75],[-56,12],[-63,44],[-51,53],[6,49],[34,29],[3,42],[99,68],[11,36],[58,40],[22,57],[42,37],[35,5],[3,29],[43,12],[-12,54],[56,55],[9,60],[32,35],[66,-41],[70,-66],[59,-1],[4,41],[-41,17],[13,87],[74,0],[26,76],[75,10],[45,38],[46,14],[-4,59],[109,21],[-17,41],[43,82],[59,-12],[85,23],[20,21],[82,1],[69,75],[87,24],[61,-11],[159,-1],[45,11],[23,32],[72,-16],[43,39],[71,7],[43,-15],[82,7],[32,-21],[94,36],[100,-6],[21,-13],[67,31],[105,7],[27,-17],[110,-3],[86,-43],[27,-41],[87,-12],[72,27],[24,85],[109,-8],[87,83],[72,45],[87,2],[39,-53],[13,101],[42,14],[15,32],[74,24],[11,-48],[35,-33]],[[7089,192],[5,-69],[-42,-86],[2,-36],[-41,-1],[-71,32],[30,49],[8,53],[42,50],[27,-19],[40,27]],[[6293,1005],[-25,-49],[-31,-4],[2,51],[54,2]],[[6298,1040],[-11,-18],[-52,-13],[-4,24],[67,7]],[[6222,1130],[20,-28],[-10,-40],[-48,22],[14,44],[24,2]],[[6289,1141],[-11,-36],[-41,57],[52,-21]],[[6215,1213],[17,-45],[-29,-32],[-53,38],[9,34],[56,5]],[[6263,1257],[-21,-36],[-1,66],[22,-30]],[[6301,1280],[-11,-19],[-35,20],[28,20],[18,-21]],[[6168,1326],[45,-49],[-26,-42],[-41,57],[-31,-19],[-10,57],[30,18],[33,-22]],[[6341,1342],[-27,-33],[-45,48],[78,18],[-6,-33]],[[6177,1336],[-56,29],[23,35],[33,-64]],[[6254,1415],[20,10],[44,-53],[-41,-4],[-19,-21],[-41,18],[5,-30],[-43,10],[-22,63],[17,-21],[11,-2],[47,43],[22,-13]],[[6071,1453],[15,-28],[-8,-58],[-20,15],[-10,49],[23,22]],[[6125,1384],[-18,29],[55,47],[18,-22],[-49,-28],[-6,-26]],[[6246,1468],[24,-15],[-16,-28],[-37,9],[-24,-29],[-18,-12],[-10,23],[67,62],[14,-10]],[[6216,1490],[-21,-43],[-27,39],[48,4]],[[6147,1505],[11,-24],[-43,-34],[-19,30],[51,28]],[[5379,2511],[-27,36],[24,0],[3,-36]]],"transform":{"scale":[0.0010308468922665339,0.0007280341123015014],"translate":[60.878597404000175,23.697706223000182]},"objects":{"pak_admin0":{"type":"GeometryCollection","geometries":[{"arcs":[[[0]],[[1]],[[2]],[[3]],[[4]],[[5]],[[6]],[[7]],[[8]],[[9]],[[10]],[[11]],[[12]],[[13]],[[14]],[[15]],[[16]],[[17]],[[18]]],"type":"MultiPolygon","properties":{"id":"PK","name":"Pakistan","parent_id":null,"parent_name":null,"area_sqkm":876141.21767902,"center_lat":30.43837536,"center_lon":70.14005798},"id":"PK"}]}}}