{"type":"Topology","arcs":[[[17983,18136],[-37,-4],[-139,18],[-73,20],[-41,54],[-76,61],[-94,9],[-42,24],[-127,22],[-38,-22],[-55,12],[-43,-58],[-86,-43],[-69,-68],[-138,-13],[-37,37],[-68,-22],[-42,-83],[27,-121],[-68,-43],[-11,-53],[15,-31],[-56,-37],[-100,-95],[-18,-93],[57,-5],[44,-30],[74,35],[26,-29],[27,-67],[46,-61],[0,-87],[-93,-148],[0,-42],[-24,-36],[-3,-42],[19,-28],[131,-4],[8,-13],[104,25],[36,27],[60,-25],[68,0],[44,-41],[18,-66],[-2,-81],[-53,-95],[-64,-46],[-52,-20],[-51,-2],[-53,-29],[-26,-54],[-37,-39],[-43,-20],[-13,-33],[25,-44],[31,-116],[37,-80],[33,-16],[44,13],[45,-49],[70,-102],[12,-43],[-10,-50],[7,-69],[-19,-62],[-86,-125],[-31,-17],[-70,4],[-15,-21],[2,-85],[15,-16],[73,-13],[37,-27],[83,-95],[37,-105],[64,9],[107,-38],[18,-21],[-7,-78],[-33,-40],[-4,-36],[38,-19],[86,-7],[19,-40],[1,-58],[41,-87]],[[17465,15018],[-64,-29],[-52,-5],[-27,18],[-23,55],[-23,5],[-305,180],[-65,22],[-52,34],[-57,100],[-66,25],[-109,-47],[-41,24],[-31,49],[-157,69],[5,68],[47,36],[-2,95],[-33,1],[-23,46],[-10,79],[-58,133],[33,75],[1,36],[33,19],[-18,68],[30,57],[-6,70],[-37,63],[-38,28],[6,67],[24,24],[9,70],[-42,111],[21,120],[1,55],[-58,93],[-34,110]],[[16244,17042],[-14,113],[-17,65],[0,98],[-30,149],[-65,68],[-21,93],[12,86],[32,90],[14,125],[28,28],[70,1],[80,25],[56,-39],[38,38],[26,97],[-17,64],[61,79],[15,58],[51,53],[50,7],[39,36],[89,-1],[113,75],[31,71],[53,70],[5,67],[43,46],[-35,60],[-1,33],[27,42],[43,28]],[[17020,18867],[58,-70],[71,11],[0,-33],[28,-2],[14,-44],[33,4],[32,43],[98,-11],[38,61],[31,20],[13,40],[35,-39],[56,-19],[35,-55],[-11,-49],[33,-38],[26,9],[-15,-102],[14,-88],[38,26],[65,-30],[30,-35],[59,-31],[4,-30],[49,-50],[23,-81],[57,-61],[49,-77]],[[12098,12332],[9,-116],[-32,-91],[-8,-190],[-14,-70],[19,-62],[-52,-3],[-14,-88],[-58,-23],[-23,-66],[-53,5],[-30,-69],[8,-92],[-12,-80],[-60,-161],[-53,-83],[-5,-106],[-42,-97],[-2,-41],[31,8],[-14,-81],[51,39],[61,-3],[21,-21],[-31,-54],[-36,-13],[-11,-53],[-24,-18],[-14,-65],[-8,-104],[-50,-67],[-24,-57],[-38,-143],[-73,-88],[-60,-153],[-46,-39],[-27,-44],[-99,-45],[-34,-38],[-13,-47],[-35,-23],[15,-48],[-11,-142],[-40,-87],[-1,-72],[11,-18],[44,33],[46,-35],[34,-66],[-37,-72],[42,-23],[14,-66],[21,-9],[48,50],[39,13],[3,-22],[-32,-80],[8,-103],[-48,-96],[-8,-43],[-72,-39],[-73,-118],[-25,-67],[-24,-4],[-18,-38],[-67,-61],[-4,-83],[45,-18],[21,-48],[-6,-47],[-63,-117],[-81,-172],[-124,-71],[50,-180]],[[10910,7841],[-114,1],[-190,-10],[-79,-9],[-175,-9],[-49,4],[-173,-4],[-373,3],[-84,-81],[-55,-151],[-11,-13],[-182,-67],[-239,-241],[-62,-35],[-41,-52],[-38,-82],[-57,8],[-96,-38],[-7,-40],[-269,-54],[-39,-29],[-21,9],[-138,-23],[-40,28],[-12,-74],[-39,-114],[3,-46],[-25,-71],[-87,-88],[-27,-40],[-17,-88],[-20,-52],[-48,-51],[-10,-140],[-18,-153],[-31,-45],[-13,-95],[22,-119],[21,-218],[-28,-135],[10,-46],[-17,-26],[1,-103],[16,-181],[-26,-50],[9,-124],[-12,-17],[35,-176],[34,-123],[34,-43],[79,-163],[93,-230],[28,-95],[36,-23],[50,-105],[-27,-182],[-5,-156],[17,-66],[-15,-59],[-72,-113],[-17,-44],[-29,-143],[-25,-46],[-45,-28],[-16,-70],[-56,-39],[-48,-78],[-2,-94],[-29,-63],[-6,-67],[-32,-82],[-26,-43],[-70,-59],[-34,-71],[-1,-102],[-90,-118],[-28,-26],[-76,-18],[-86,-56],[-87,-91],[-25,-35]],[[7489,1973],[-21,0],[-14,51],[32,43],[-9,72],[24,64],[-11,84],[45,98],[-2,90],[-76,123],[-75,80],[-73,51],[-10,69],[24,-39],[6,71],[20,22],[-44,47],[-2,130],[-38,17],[-17,35],[35,84],[-16,43],[-35,-104],[-42,19],[-14,41],[-18,-27],[-60,-23],[-45,54],[-69,-10],[-13,22],[-98,-52],[-17,17],[-39,-31],[-62,-74],[3,-44],[-24,-42],[8,-20],[131,41],[49,32],[36,41],[31,-10],[37,23],[27,-47],[31,5],[21,-49],[28,-22],[54,26],[63,-11],[-27,-55],[3,-44],[38,-27],[-28,-17],[-114,61],[-123,41],[-113,-2],[-140,-25],[-111,-40],[-108,-22],[-123,11],[-56,-10],[-49,-47],[-102,-38],[-74,-20],[-38,4],[-106,32],[19,79],[-30,-55],[-40,-19],[-106,12],[-46,13],[-35,-16],[-96,8],[-26,-19],[-29,-94],[-90,-18],[-145,15],[-62,17],[-37,-8],[-81,9],[-60,-13],[-82,9],[-55,-4],[-62,-22],[-39,-28],[-36,-53],[-11,-54],[30,-52],[46,-2],[-1,-32],[-40,-23],[-59,-9],[-41,8],[-2,36],[28,13],[1,67],[-80,67],[-58,-1],[-52,-47],[-74,-3],[-30,35],[-142,69],[-34,8],[14,33],[-35,-15],[-77,18],[-92,-4],[-12,10],[14,57],[29,1],[-42,40],[51,34],[24,-2],[-5,34],[36,23],[-13,16],[-41,-27],[-9,25],[-68,-15],[-22,-23],[-24,55],[-4,-39],[-41,-19],[34,-11],[-18,-27],[-27,11],[30,-45],[12,35],[31,-9],[40,-70],[-11,-51],[-59,16],[-93,-4],[-100,22],[-142,49],[-106,6],[-89,-19],[-91,-42],[-48,-47],[-22,-54],[-37,8],[29,-38],[14,-49],[24,-17],[-8,-43],[-21,-3],[-149,40],[-110,11],[-181,47],[-51,-8],[-44,-40],[-75,-30],[-227,59],[-97,7],[-126,18],[-80,2],[-129,-16],[-45,-38],[22,-23],[-59,-9],[-58,-29],[-38,-38],[-22,-51],[9,-54],[56,-2],[-64,-26],[-85,14],[-4,14],[64,24],[-7,79],[-34,42],[-92,35],[-64,-7],[-106,-38],[-24,-55],[26,-34],[15,-63],[-67,16],[-79,7],[-141,-12],[-38,-98],[-104,-17],[-52,35],[17,52],[27,28],[-9,53],[29,-15],[15,51],[-5,56],[-38,-36],[-39,17],[-30,42],[-57,-28],[-26,25],[-30,-12],[58,169],[11,59],[7,146],[-3,150],[17,234],[31,30],[1,52],[-20,23],[-1,134],[103,5],[14,27],[0,87],[68,495],[19,95],[30,30],[112,36],[133,78],[77,2],[9,105],[21,15],[71,-33],[106,-18],[11,47],[-34,42],[-10,55],[33,3],[34,48],[-15,29],[23,57],[59,18],[46,-2],[49,49],[223,28],[68,52],[77,6],[20,30],[54,23],[181,-10],[35,11],[71,-1],[64,-24],[49,11],[102,5],[39,150],[5,50],[-14,124],[107,35],[7,16],[-31,90],[-1,254],[79,92],[-24,67],[-147,103],[-162,-14],[-105,-63],[-88,7],[-39,30],[-73,-8],[-49,36],[-2,28],[53,58],[12,31],[-32,58],[62,206],[-5,128],[-28,318],[-28,193],[-23,209],[-28,89],[36,292],[-12,119],[-251,-43],[-65,91],[-50,35],[-39,74],[-42,51],[-86,51],[-98,42],[-73,4],[-89,36],[-70,-4],[-93,37],[-65,55],[-46,13],[-112,80],[-85,71],[-34,65],[-73,97],[-51,53],[-79,141],[-59,96],[-14,47],[-75,107],[-2,81],[-31,40],[-1,37],[-25,32],[-55,22],[16,96],[-58,46],[-33,101],[20,56],[-1,53],[-79,79],[-152,175],[-86,116],[-318,477],[394,-153],[601,-237],[629,-237],[404,-154],[682,86],[486,59],[291,23],[70,-18],[342,-68],[156,-34],[46,-43],[48,-24],[33,24],[27,95],[72,74],[38,14],[38,35],[62,11],[70,30],[54,-6],[97,44],[186,16],[416,-46],[57,-26],[86,-2],[390,131],[92,34],[437,144],[327,113],[270,98],[94,101],[51,102],[-150,133],[-4,48],[27,75],[32,49],[3,47],[38,91],[21,123],[0,93],[27,89],[-19,32],[1,54],[-54,49],[-22,99],[67,283],[69,320],[19,17],[208,55],[154,160],[4,67],[30,75],[11,70],[17,16],[58,-5],[33,16],[43,74],[86,53],[86,27],[97,-15],[4,-47],[-29,-23],[8,-35],[32,-15],[142,21],[22,-31],[113,-31],[95,23],[58,-6],[129,43],[62,35],[105,21],[125,78],[72,15],[20,40],[-23,71],[-39,25],[-104,-29],[-34,5],[-51,56],[6,42],[-30,75],[-27,28],[19,21],[86,-11],[16,-16],[66,1],[54,24],[130,137],[33,20],[46,-5],[58,13],[49,25],[98,84],[4,26],[64,72],[67,124],[11,-32],[105,-22],[-11,-26],[46,-47],[176,-3],[28,-21],[58,-4],[60,-43],[24,0],[34,60],[-56,7],[-96,-11],[-40,25],[43,18],[134,89],[80,-82],[89,-14],[20,-121],[72,-59],[41,-84],[47,-18],[76,4],[35,20],[27,53],[47,-29],[45,-2],[4,25],[121,101],[49,133],[24,27],[29,80],[84,63],[19,41],[52,27],[4,40]],[[10855,13631],[88,18],[118,5],[54,16],[33,-32],[103,84],[20,59],[45,50],[74,8],[47,21],[102,16],[-46,-105],[-21,-24],[33,-31],[70,-36],[-35,-94],[3,-54],[55,-6],[52,75],[31,5],[-8,-109],[-22,-29],[4,-73],[18,-38],[-13,-38],[6,-61],[-15,-298],[40,-52],[61,-10],[33,-109],[11,-77],[21,-13],[36,47],[-2,54],[46,-33],[51,25],[28,42],[68,65],[20,-2],[22,-182],[-16,-137],[5,-118],[-9,-69],[32,-59]],[[7130,3018],[-37,44],[32,0],[5,-44]],[[6834,3062],[-13,-36],[-21,30],[49,41],[-15,-35]],[[17020,18867],[-53,46],[-60,-8],[-42,51],[-51,11],[-32,33],[-51,14],[-53,-7],[-58,47],[-30,7],[-65,-34],[-12,16],[-30,136],[2,119],[29,72],[58,42],[46,83],[-29,32],[-138,17],[-131,37],[-47,-3],[-54,25],[-101,8],[-86,43],[-66,13],[-84,61],[-41,43],[-53,33],[-52,79],[-7,54],[16,112],[-63,43],[-127,-51],[-109,13],[-103,26],[-60,-30],[-121,-34],[-129,50],[-27,53],[-45,49],[68,160],[-10,43],[-48,64],[1,57],[28,80],[-6,78],[35,76],[60,31],[64,-13],[59,72],[65,32],[117,88],[31,128],[41,23],[62,4],[11,48],[92,64],[48,112],[-32,109],[16,32],[59,10],[46,37],[36,4],[78,-20],[56,13],[125,53],[46,4],[65,-34],[85,-13],[58,7],[22,-33],[95,-8],[61,30],[38,-13],[57,13],[64,-25],[31,13],[8,73],[-27,55],[-55,20],[-16,37],[-114,35],[-43,68],[-30,25]],[[16408,21807],[84,16],[37,-20],[73,1],[12,-19],[60,15],[48,-32],[66,-20],[36,-49],[115,-15],[34,26],[62,6],[32,102],[144,-9],[60,42],[56,58],[94,54],[116,2],[24,-56],[28,-8],[17,122],[56,17],[19,38],[98,29],[39,-93],[69,-1],[18,44],[52,5],[-4,-72],[33,-38],[33,-87],[56,9],[-15,57],[71,30],[30,-2],[34,36],[39,-18],[88,9],[22,24],[30,-20],[-4,-36],[98,-47],[56,18],[115,-31],[46,-2],[-22,-83],[43,-51],[6,-66],[-12,-90],[42,-95],[60,37],[42,-22],[0,71],[66,-17],[59,15],[115,-35],[71,-49],[105,-85],[103,-119],[-7,-47],[36,-75],[65,-82],[-4,-32],[31,-75],[-56,-94],[10,-66],[72,-98],[7,-46],[-63,7],[6,-105],[-62,-11],[9,-17],[-49,-23],[16,-30],[1,-76],[42,-64],[58,-24],[21,16],[77,-13],[4,-50],[59,-89],[15,-43],[-6,-74],[-17,-50],[33,-19],[63,2],[9,23],[90,7],[87,-29],[5,65],[79,-19],[43,49],[65,-1],[32,26],[11,38],[35,2],[28,-41],[-23,-48],[10,-43],[-27,-35],[35,-78],[36,-19],[92,-22],[7,-42],[68,-69],[12,-40],[98,10],[34,-19],[70,-69],[63,-28],[40,32],[85,-26],[37,-43],[48,-23],[84,-60],[144,35],[39,-27],[22,-49],[31,-29],[93,-27],[86,36],[77,-10],[16,-26],[63,-9],[23,37],[42,-48],[48,16],[39,65],[51,-10],[24,45],[26,-29],[-910,-758],[-64,-30],[-81,17],[-4,-130],[-17,-28],[-60,3],[-86,48],[-26,1],[-67,-58],[-80,-15],[-13,-41],[7,-94],[-49,-72],[-25,-63],[-20,-9],[-141,1],[-61,42],[-58,13],[-41,-45],[-66,-47],[-90,-7],[-52,-63],[-151,-83],[-46,6],[-47,41],[-63,-2],[-58,-67],[-76,-9],[-18,-32],[-98,-51],[-63,-66],[-57,-30],[-73,9],[-129,31],[-110,-5],[-143,19],[-57,22],[-114,81],[5,47],[-76,11],[-83,27],[-159,-35],[-160,71],[-38,-7]],[[15802,16690],[127,-47],[50,-57],[40,-22],[20,-35],[47,-6],[-50,-69],[-34,8],[-28,-19],[-4,-105],[-128,-168],[-145,87],[87,60],[-85,141],[-224,-151],[-129,213],[42,23],[90,23]],[[15478,16566],[52,3],[76,72],[84,31],[52,-10],[40,39],[20,-11]],[[16244,17042],[-52,-10],[-71,-91],[-18,32],[-23,-48],[-49,-46],[-24,-77],[-36,-44],[-69,-7],[-13,-29],[-87,-32]],[[15478,16566],[10,27],[-46,9],[0,25],[-76,-5],[-10,25],[26,40],[18,-9],[21,47],[-64,3],[18,29],[-5,70],[-49,-1],[-31,47],[24,8],[-34,55],[-74,-79],[5,-38],[-83,-41],[-13,37],[-32,-8],[-1,27],[57,65],[-24,22],[-97,25],[-32,67],[-57,2],[-52,-16],[-60,22],[0,-45],[-82,-55],[-20,6],[-115,-80],[8,-55],[-7,-132],[14,-35],[-39,14],[-28,-19],[-125,38],[-21,-28],[-55,-27],[-44,-72],[-6,-52],[-21,-29],[-4,-119],[-34,-27],[19,-56],[-25,-49],[-53,-37],[-50,-66],[0,-55],[-45,-4],[-124,-72],[-27,-44],[18,-47],[-30,-42],[14,-72],[46,-51],[12,-41],[-20,-72],[-44,-66],[9,-70],[-78,23],[-27,20],[-44,79],[0,84],[-60,71],[-53,-20],[-80,7],[-10,35],[-37,-25],[-12,-52],[38,-22],[-4,-36],[25,-47],[-38,-61],[8,-23],[60,-52],[-28,-52],[-28,-21],[-73,3],[-24,-24],[-51,18],[1,24],[-103,-32],[-24,-27],[-69,-34],[-26,-52],[-1,-67],[-14,-128],[-36,-2],[20,-95],[22,-31],[-6,-63],[30,-33],[-12,-26],[25,-67],[-4,-33],[109,-90],[-22,-53],[32,-34],[86,70],[19,-53],[19,-6],[-33,-155],[16,-50],[-14,-16],[-56,3],[-86,-97],[-18,-45],[-41,-47],[5,-82],[-39,-69],[-44,1],[-12,-46],[14,-42],[-32,-113],[-33,-15],[12,-52],[-2,-80],[-13,-113],[-32,-23],[-24,-100],[-26,-50],[-20,-6],[-58,-94],[7,-51],[-44,-6],[-32,-73],[1,-42],[21,-36],[-39,-72],[42,-41],[-41,-13],[29,-44],[-11,-65],[11,-18],[-65,-21],[-9,-71],[-63,-52],[-15,-73],[-38,18],[-6,27],[-46,8],[-30,-32],[-60,-2],[-98,37],[-49,-58],[-90,-18],[-58,-134],[-1,-21],[-150,-57]],[[10855,13631],[-26,66],[-19,131],[5,35],[-22,97],[4,70],[-7,129],[12,34],[1,106],[-39,95],[-12,78],[57,118],[53,16],[76,40],[85,159],[-19,38],[6,69],[-62,55],[3,34],[58,54],[43,61],[34,-5],[39,21],[-50,135],[19,142],[94,114],[182,-8],[20,28],[64,29],[54,-38],[60,-14],[53,13],[38,41],[99,24],[57,116],[34,-8],[79,21],[100,78],[75,98],[41,5],[-15,72],[5,35],[-36,60],[-37,2],[-24,66],[-33,11],[-53,75],[31,179],[-62,33],[1,69],[-17,32],[-57,3],[-112,28],[-46,48],[-18,89],[-50,61],[-16,61],[-49,60],[14,69],[30,27],[-4,71],[21,17],[95,4],[18,14],[58,-21],[69,-47],[70,1],[108,-58],[52,11],[61,-28],[128,-5],[54,-28],[91,4],[71,31],[74,-16],[32,9],[95,1],[23,-10],[72,45],[78,-9],[42,55],[129,44],[75,43],[-4,71],[68,94],[-2,68],[14,36],[-17,69],[63,119],[-2,40],[-106,42],[-43,64],[-60,55],[-16,51],[1,104],[29,30],[89,29],[30,65],[-19,75],[24,58],[29,-1],[76,62],[30,1],[35,71],[42,23],[39,122],[58,54],[39,9],[147,77],[24,67],[44,25],[-28,88],[28,59],[84,52],[74,94],[-4,37],[-47,13],[-84,78],[-18,64],[86,159],[23,19],[10,52],[-71,75],[24,125],[-110,52],[-35,36],[13,52],[38,50],[10,53],[-79,55],[6,82],[-78,129],[-62,33],[-6,90],[-73,15],[-45,40],[-40,13],[-67,64],[9,58],[44,36],[4,49],[131,83],[15,43],[77,48],[29,69],[56,43],[45,7],[5,34],[57,15],[-16,65],[74,66],[13,73],[42,41],[87,-49],[92,-79],[79,-2],[6,50],[-55,21],[17,104],[99,0],[34,92],[99,11],[60,46],[60,17],[-4,71],[144,25],[-23,49],[57,99],[79,-14],[44,23],[68,5],[27,24],[109,2],[64,74],[27,16],[115,29],[81,-13],[40,14],[41,-10],[130,-5],[60,12],[31,39],[94,-19],[58,47],[93,8],[58,-18],[34,11],[74,-2],[43,-26],[65,13],[59,30],[48,-10],[85,3],[27,-15],[90,36],[54,-7]],[[17465,15018],[6,-18],[84,-67],[46,24],[61,4],[34,57],[1,51],[71,28],[4,-21],[-42,-100],[-23,-80],[5,-42],[28,-44],[-43,-91],[13,-84],[36,-36],[-1,-38],[24,-50],[129,-2],[26,20],[49,-5],[55,-44],[44,2],[19,-22],[51,-7],[54,69],[67,-19],[84,-110],[41,20],[27,-38],[40,-6],[28,-31],[99,-80],[12,-71],[42,-25],[3,-81],[-67,-38],[-17,-78],[-34,-20],[-14,-49],[-42,-42],[-22,42],[-22,5],[-14,-57],[-29,-25],[-58,14],[-51,-32],[-17,13],[-29,-36],[-68,-21],[-49,44],[-36,9],[-105,-90],[-24,-10],[-31,-83],[-30,-17],[-62,-4],[-35,35],[-7,-55],[-108,-104],[-38,-22],[-22,-42],[-37,-1],[-8,-60],[10,-47],[-37,5],[0,-62],[79,-165],[29,-91],[14,-102],[38,-69],[-21,-68],[-39,-43],[-57,-170],[2,-68],[-24,-98],[15,-100],[47,-42],[29,19],[60,-12],[27,-20],[20,-58],[-32,-14],[-17,-49],[-40,1],[-60,66],[-23,-8],[-12,-78],[6,-37],[-60,-46],[-41,2],[-64,-67],[-6,-32],[-65,-34],[9,-54],[-68,-16],[-2,-26],[-39,-91],[-29,1],[23,-64],[-65,-24],[-46,-79],[-59,-65],[-60,-33],[-9,-81],[-39,-72],[-34,29],[-66,-54],[-34,-78],[-35,9],[-9,-70],[-32,-6],[-41,-80],[64,-57],[46,-93],[15,-126],[-4,-17],[-158,-142],[-50,-58],[-43,-20],[-247,-79],[-218,-103],[-16,-14],[-69,-291],[-87,-342],[-78,-171],[-106,-221],[-45,-104],[-117,-163],[-79,-203],[-38,-23],[-237,-115],[-241,-177],[-90,-62],[-79,-32],[-105,-136],[-36,-64],[-120,-438],[-31,-69],[-78,-89],[-135,-127],[-34,-39],[-90,-148],[-29,-247],[-289,-130],[-115,-15],[-300,-17],[-169,-39],[-173,-96],[-198,-105],[-60,-25],[-165,19],[-25,41],[-77,160],[-8,124],[-14,27],[-126,147],[-42,21],[-66,2],[-145,-42],[-81,-102],[-123,-101],[-35,-50]],[[11960,6865],[-73,45],[-70,22],[-44,52],[-44,17],[-42,72],[-58,74],[-57,90],[-44,92],[-9,51],[26,50],[-33,73],[6,46],[-23,6],[-11,49],[12,66],[-32,62],[-42,8],[-38,57],[-65,18],[-45,-3],[-54,20],[25,45],[-132,28],[-109,-16],[-30,-44],[-64,-4]],[[11155,7309],[-27,6],[-8,60],[-39,53],[-39,26],[18,52],[-7,36],[50,-38],[29,-54],[53,-13],[-30,-128]],[[11211,7679],[43,9],[50,-37],[34,-52],[29,-10],[50,30],[-14,-103],[-18,-24],[-46,39],[-35,-20],[-10,-42],[-74,0],[-13,98],[-80,170],[34,20],[32,-69],[18,-9]],[[11960,6865],[-30,-34],[-63,-111],[-107,-326],[-11,-23],[-103,-89],[-95,-164],[-64,-71],[-188,-178],[-102,-122],[-28,-65],[-67,-201],[-16,-192],[-22,-156],[31,-95],[19,-21],[257,-135],[64,-67],[56,-35],[51,-15],[81,-1],[137,27],[53,1],[53,-17],[55,-35],[23,-29],[21,-105],[-11,-89],[3,-137],[-14,-71],[7,-102],[-35,-131],[-66,-113],[-17,-65],[14,-154],[19,-67],[50,-92],[103,-126],[64,-134],[128,-49],[141,13],[54,-1],[101,49],[45,-5],[37,-48],[5,-41],[-11,-184],[8,-81],[-6,-174],[92,-116],[20,-89],[165,-207],[47,-264],[58,-164],[90,-166],[31,-92],[38,-62],[-27,-51],[-57,-28],[-41,-70],[-1,-87],[13,-66],[3,-102],[25,-25],[112,0],[21,-21],[-16,-36],[-39,-13],[-40,-48],[-46,-16],[-43,18],[-32,-31],[-107,-65],[-9,-34],[50,-32],[-65,-29],[-62,-41],[-103,-3],[-90,7],[-80,25],[-27,41],[20,33],[-1,41],[-33,80],[26,16],[15,72],[-24,14],[-148,-55],[-115,-55],[-94,-22],[-77,-38],[-111,-27],[-52,-26],[-42,-115],[-37,-53],[-32,-23],[-144,-9],[-241,18],[-56,50],[-117,135],[-110,-39],[-94,17],[-89,-12],[-67,17],[-45,-13],[-97,-55],[-147,54],[-92,-65],[-55,14],[-41,89],[-54,-24],[-38,-116],[-25,3],[-28,165],[-69,-23],[-11,-16],[-6,-411],[-13,-121],[-468,3],[-14,31],[-51,-29],[-6,-67],[-56,22],[-50,-52],[-44,-29],[-36,-5],[5,-59],[-68,32],[7,-50],[-44,11],[-41,-21],[-29,34],[3,81],[-33,0],[-3,-56],[19,-64],[1,-66],[-60,-6],[-34,41],[-23,1],[-41,65],[5,-36],[-67,48],[-9,55],[10,62],[38,58],[-11,17],[-39,-48],[-23,-61],[-15,-148],[-56,-5],[-110,65],[56,-76],[-2,-17],[-79,9],[-43,-17],[-33,29],[8,36],[-40,25],[-21,-18],[-16,52],[-50,8],[-51,42],[-31,65],[40,50],[-19,7],[-75,-50],[-9,29],[18,36],[-33,84],[37,49],[-25,41],[-22,-69],[-30,32],[-20,110],[-33,79],[23,4],[-26,43],[10,44],[90,-10],[-19,21],[-61,20],[17,52],[-48,-67],[-34,67],[-3,36],[42,44],[13,-42],[25,-12],[-27,51],[16,18],[77,-53],[40,8],[9,27],[54,-17],[-44,33],[-24,-32],[-53,14],[-35,27],[-1,63],[60,26],[-88,-5],[34,13],[42,44],[36,16],[-49,-3],[-46,33],[61,39],[-5,37],[-38,-57],[-41,-22],[-21,35],[34,-1],[23,84],[35,-9],[5,31],[-56,-3],[33,59],[-40,-37],[-37,-10],[-31,46],[20,-3],[45,53],[20,-2],[20,48],[43,24],[41,-10],[-34,48],[16,42],[-51,11],[-56,68],[7,37],[-103,36],[-34,-10],[-16,33],[-33,12],[-35,-47],[-36,18],[-33,-23],[-26,29],[-20,-67],[-47,31],[-39,49],[-42,18],[-18,-11],[-14,68],[-20,17],[-53,-15],[14,-25],[45,-18],[27,-56],[-76,64],[-64,40],[-46,-9],[-16,-22],[-85,13],[-81,-34],[-53,10],[10,35],[56,69]],[[9395,231],[8,-83],[-56,-103],[2,-43],[-32,-1],[-27,47],[5,-48],[-93,39],[40,58],[10,64],[56,60],[35,-22],[52,32]],[[8331,1089],[-26,16],[23,28],[3,-44]],[[8340,1208],[-27,-20],[-5,-39],[-41,-5],[1,42],[40,3],[-38,17],[55,14],[15,-12]],[[8347,1250],[-14,-21],[-69,-16],[-5,29],[88,8]],[[8309,1308],[-34,30],[6,19],[28,-49]],[[8247,1359],[26,-34],[-13,-48],[-35,-6],[-28,32],[18,53],[32,3]],[[8336,1372],[-14,-43],[-46,40],[-9,29],[51,-2],[18,-24]],[[8238,1459],[22,-55],[-38,-38],[-71,45],[12,41],[75,7]],[[8301,1511],[-27,-43],[-11,42],[-15,-42],[-4,45],[28,35],[29,-37]],[[8352,1539],[-15,-23],[-46,24],[37,24],[24,-25]],[[8255,1599],[11,-36],[-36,0],[25,36]],[[8314,1593],[-20,-35],[-21,10],[28,49],[13,-24]],[[8176,1595],[25,-4],[34,-56],[-35,-50],[-39,31],[-14,38],[-42,-24],[-13,70],[40,21],[17,-26],[27,0]],[[8405,1613],[1,-29],[-38,-10],[-59,58],[103,21],[-7,-40]],[[8187,1606],[-30,-4],[-43,39],[30,42],[10,-43],[33,-34]],[[8289,1702],[27,12],[50,-41],[8,-23],[-54,-5],[-25,-26],[-55,23],[7,-36],[-57,11],[-32,37],[3,39],[22,-25],[15,-2],[62,51],[29,-15]],[[8047,1747],[20,-33],[-11,-70],[-27,17],[-13,60],[31,26]],[[8119,1664],[-25,35],[16,23],[57,33],[25,-26],[-65,-34],[-8,-31]],[[8279,1765],[31,-18],[-20,-34],[-49,11],[-32,-35],[-24,-15],[-14,28],[44,27],[45,48],[19,-12]],[[8238,1791],[-27,-51],[-36,47],[63,4]],[[8147,1809],[16,-28],[-58,-41],[-25,36],[37,3],[30,30]]],"transform":{"scale":[0.000777733575707534,0.0006055589296150545],"translate":[60.878597404000175,23.697706223000182]},"objects":{"pak_admin1":{"type":"GeometryCollection","geometries":[{"arcs":[[0,1,2,3]],"type":"Polygon","properties":{"id":"PK1","name":"Azad Kashmir","parent_id":"PK","parent_name":"Pakistan","area_sqkm":11421.97948865,"center_lat":33.95324505,"center_lon":73.90063879},"id":"PK1"},{"arcs":[[[4,5,6,7]],[[8]],[[9]]],"type":"MultiPolygon","properties":{"id":"PK2","name":"Balochistan","parent_id":"PK","parent_name":"Pakistan","area_sqkm":346723.56140254,"center_lat":28.49738407,"center_lon":65.70961117},"id":"PK2"},{"arcs":[[-4,10,11]],"type":"Polygon","properties":{"id":"PK3","name":"Gilgit Baltistan","parent_id":"PK","parent_name":"Pakistan","area_sqkm":69767.33303181,"center_lat":35.80287376,"center_lon":74.84463558},"id":"PK3"},{"arcs":[[12,13]],"type":"Polygon","properties":{"id":"PK4","name":"Islamabad","parent_id":"PK","parent_name":"Pakistan","area_sqkm":901.53277708,"center_lat":33.65087509,"center_lon":72.95796258},"id":"PK4"},{"arcs":[[-3,14,-14,15,-8,16,-11]],"type":"Polygon","properties":{"id":"PK5","name":"Khyber Pakhtunkhwa","parent_id":"PK","parent_name":"Pakistan","area_sqkm":100897.09378361,"center_lat":34.03646716,"center_lon":72.26255184},"id":"PK5"},{"arcs":[[[-2,17,18,-5,-16,-13,-15]],[[19]],[[20]]],"type":"MultiPolygon","properties":{"id":"PK6","name":"Punjab","parent_id":"PK","parent_name":"Pakistan","area_sqkm":205401.42693871,"center_lat":30.86162475,"center_lon":72.32024937},"id":"PK6"},{"arcs":[[[21,-6,-19],[-21],[-20]],[[22]],[[23]],[[24]],[[25]],[[26]],[[27]],[[28]],[[29]],[[30]],[[31]],[[32]],[[33]],[[34]],[[35]],[[36]],[[37]],[[38]],[[39]],[[40]],[[41]],[[42]]],"type":"MultiPolygon","properties":{"id":"PK7","name":"Sindh","parent_id":"PK","parent_name":"Pakistan","area_sqkm":141028.29025662,"center_lat":26.13399506,"center_lon":68.75576081},"id":"PK7"}]}}}