{
"type": "FeatureCollection",
"name": "schools",
"crs": { "type": "name", "properties": { "name": "urn:ogc:def:crs:OGC:1.3:CRS84" } },
"features": [
{ "type": "Feature", "properties": { "name": "CBC Primary School", "amenity": "school", "addr_city": null, "osm_id": 3993292039, "osm_type": "nodes" }, "geometry": { "type": "Point", "coordinates": [ 72.5082243, 36.4938597 ] } },
{ "type": "Feature", "properties": { "name": null, "amenity": "school", "addr_city": null, "osm_id": 4025183462, "osm_type": "nodes" }, "geometry": { "type": "Point", "coordinates": [ 72.5222148, 36.2873806 ] } },
{ "type": "Feature", "properties": { "name": null, "amenity": "school", "addr_city": null, "osm_id": 4027240695, "osm_type": "nodes" }, "geometry": { "type": "Point", "coordinates": [ 72.4647635, 36.0487347 ] } },
{ "type": "Feature", "properties": { "name": "Aziz Bhatti Shaheed Army Public School & College", "amenity": "school", "addr_city": null, "osm_id": 5468179921, "osm_type": "nodes" }, "geometry": { "type": "Point", "coordinates": [ 72.0389401, 34.2066932 ] } },
{ "type": "Feature", "properties": { "name": "F.G School", "amenity": "school", "addr_city": null, "osm_id": 6341638797, "osm_type": "nodes" }, "geometry": { "type": "Point", "coordinates": [ 72.0381013, 34.2077446 ] } },
{ "type": "Feature", "properties": { "name": "Govt High and Secondary School No.2 Mardan", "amenity": "school", "addr_city": null, "osm_id": 4251864789, "osm_type": "nodes" }, "geometry": { "type": "Point", "coordinates": [ 72.0536456, 34.1984989 ] } },
{ "type": "Feature", "properties": { "name": "Government Girls Primary School", "amenity": "school", "addr_city": null, "osm_id": 8280575118, "osm_type": "nodes" }, "geometry": { "type": "Point", "coordinates": [ 72.0484692, 34.1927089 ] } },
{ "type": "Feature", "properties": { "name": "Govt Centtenial Model High School No.3 Mardan", "amenity": "school", "addr_city": null, "osm_id": 4251840798, "osm_type": "nodes" }, "geometry": { "type": "Point", "coordinates": [ 72.0532475, 34.198805 ] } },
{ "type": "Feature", "properties": { "name": "Govt Girls College", "amenity": "college", "addr_city": null, "osm_id": 6906971886, "osm_type": "nodes" }, "geometry": { "type": "Point", "coordinates": [ 73.4426264, 32.3817831 ] } },
{ "type": "Feature", "properties": { "name": "Govt. Boys Primary School Chhanawan Sialkot", "amenity": "school", "addr_city": null, "osm_id": 4606919889, "osm_type": "nodes" }, "geometry": { "type": "Point", "coordinates": [ 74.583303, 32.4025483 ] } },
{ "type": "Feature", "properties": { "name": "Govt. Girls Primary School Chhanawan Sialkot", "amenity": "school", "addr_city": null, "osm_id": 4606835390, "osm_type": "nodes" }, "geometry": { "type": "Point", "coordinates": [ 74.5839434, 32.4024688 ] } },
{ "type": "Feature", "properties": { "name": "Rachna College of Engineering and Technology", "amenity": "college", "addr_city": null, "osm_id": 6662540842, "osm_type": "nodes" }, "geometry": { "type": "Point", "coordinates": [ 74.2088511, 32.3625909 ] } },
{ "type": "Feature", "properties": { "name": "sufi foundation school kot ishaq", "amenity": "school", "addr_city": null, "osm_id": 5829703592, "osm_type": "nodes" }, "geometry": { "type": "Point", "coordinates": [ 73.4782389, 32.1438163 ] } },
{ "type": "Feature", "properties": { "name": "??????? ???? ??????? ???? ????? ?????", "amenity": "school", "addr_city": null, "osm_id": 11750160427, "osm_type": "nodes" }, "geometry": { "type": "Point", "coordinates": [ 73.5005858, 32.0565733 ] } },
{ "type": "Feature", "properties": { "name": "??????? ????? ??????? ???? ????? ?????", "amenity": "school", "addr_city": null, "osm_id": 11750159939, "osm_type": "nodes" }, "geometry": { "type": "Point", "coordinates": [ 73.5014432, 32.061206 ] } },
{ "type": "Feature", "properties": { "name": "??????? ????? ??????? ???? ???????????", "amenity": "school", "addr_city": null, "osm_id": 11746709263, "osm_type": "nodes" }, "geometry": { "type": "Point", "coordinates": [ 73.504956, 32.0794195 ] } },
{ "type": "Feature", "properties": { "name": "??????? ???? ??????? ???? ???????????", "amenity": "school", "addr_city": null, "osm_id": 11746702316, "osm_type": "nodes" }, "geometry": { "type": "Point", "coordinates": [ 73.5049669, 32.0797249 ] } },
{ "type": "Feature", "properties": { "name": "??????? ???? ??????? ???? ??? ???", "amenity": "school", "addr_city": null, "osm_id": 11746720003, "osm_type": "nodes" }, "geometry": { "type": "Point", "coordinates": [ 73.50115, 32.067623 ] } },
{ "type": "Feature", "properties": { "name": "??????? ???? ?????", "amenity": "school", "addr_city": null, "osm_id": 9520739626, "osm_type": "nodes" }, "geometry": { "type": "Point", "coordinates": [ 73.8721507, 31.8036116 ] } },
{ "type": "Feature", "properties": { "name": "The Country School", "amenity": "school", "addr_city": null, "osm_id": 7358322886, "osm_type": "nodes" }, "geometry": { "type": "Point", "coordinates": [ 73.4824391, 31.5783138 ] } },
{ "type": "Feature", "properties": { "name": "The Educators Al Rauf Campus", "amenity": "school", "addr_city": null, "osm_id": 6180693685, "osm_type": "nodes" }, "geometry": { "type": "Point", "coordinates": [ 74.303295, 31.5313314 ] } },
{ "type": "Feature", "properties": { "name": "Government Central Model High School Samanabad Lahore", "amenity": "school", "addr_city": null, "osm_id": 4699069324, "osm_type": "nodes" }, "geometry": { "type": "Point", "coordinates": [ 74.302075, 31.533414 ] } },
{ "type": "Feature", "properties": { "name": "Allama Iqbal Open University Faisalabad campus", "amenity": "university", "addr_city": "???? ????", "osm_id": 5271956153, "osm_type": "nodes" }, "geometry": { "type": "Point", "coordinates": [ 73.1054673, 31.4929918 ] } },
{ "type": "Feature", "properties": { "name": "Gov't Primary School Ahmedabad", "amenity": "school", "addr_city": null, "osm_id": 8398484969, "osm_type": "nodes" }, "geometry": { "type": "Point", "coordinates": [ 74.2399246, 31.4831179 ] } },
{ "type": "Feature", "properties": { "name": "Punjab University College of Information Technology (PUCIT)", "amenity": "school", "addr_city": null, "osm_id": 4772160621, "osm_type": "nodes" }, "geometry": { "type": "Point", "coordinates": [ 74.2651695, 31.4785966 ] } },
{ "type": "Feature", "properties": { "name": "Leads School System", "amenity": "school", "addr_city": "Lahore", "osm_id": 4916641150, "osm_type": "nodes" }, "geometry": { "type": "Point", "coordinates": [ 74.2991286, 31.4836013 ] } },
{ "type": "Feature", "properties": { "name": "Information Technology University (ITU)", "amenity": "university", "addr_city": "Lahore", "osm_id": 4920146650, "osm_type": "nodes" }, "geometry": { "type": "Point", "coordinates": [ 74.3427526, 31.4760299 ] } },
{ "type": "Feature", "properties": { "name": "Learning Alliance - Lahore Preschool Faisalabad", "amenity": "school", "addr_city": "???? ????", "osm_id": 5279569530, "osm_type": "nodes" }, "geometry": { "type": "Point", "coordinates": [ 73.1810884, 31.4613147 ] } },
{ "type": "Feature", "properties": { "name": "DHA Boy's", "amenity": "college", "addr_city": null, "osm_id": 305600989, "osm_type": "nodes" }, "geometry": { "type": "Point", "coordinates": [ 74.3954689, 31.4659118 ] } },
{ "type": "Feature", "properties": { "name": "Girls Collage", "amenity": "school", "addr_city": null, "osm_id": 271696527, "osm_type": "nodes" }, "geometry": { "type": "Point", "coordinates": [ 74.3900677, 31.4629183 ] } },
{ "type": "Feature", "properties": { "name": "TNS Beaconhouse Defence", "amenity": "school", "addr_city": null, "osm_id": 9673745117, "osm_type": "nodes" }, "geometry": { "type": "Point", "coordinates": [ 74.3938025, 31.4639941 ] } },
{ "type": "Feature", "properties": { "name": "AQ Academy", "amenity": "school", "addr_city": null, "osm_id": 4684720689, "osm_type": "nodes" }, "geometry": { "type": "Point", "coordinates": [ 73.095102, 31.4658823 ] } },
{ "type": "Feature", "properties": { "name": "Govt. Crescent Model High School Faisalabad", "amenity": "school", "addr_city": "???? ????", "osm_id": 5255258620, "osm_type": "nodes" }, "geometry": { "type": "Point", "coordinates": [ 73.0910216, 31.4501236 ] } },
{ "type": "Feature", "properties": { "name": "College of Physicians & Surgeons Pakistan", "amenity": "school", "addr_city": "???? ????", "osm_id": 5259596745, "osm_type": "nodes" }, "geometry": { "type": "Point", "coordinates": [ 73.0836697, 31.4504993 ] } },
{ "type": "Feature", "properties": { "name": "Punjab Medical College Faisalabad", "amenity": "college", "addr_city": "???? ????", "osm_id": 5169634824, "osm_type": "nodes" }, "geometry": { "type": "Point", "coordinates": [ 73.0846903, 31.4514147 ] } },
{ "type": "Feature", "properties": { "name": "Baba Guru Nanak University", "amenity": "university", "addr_city": "Nankana Sahib", "osm_id": 12484976816, "osm_type": "nodes" }, "geometry": { "type": "Point", "coordinates": [ 73.6928125, 31.4506416 ] } },
{ "type": "Feature", "properties": { "name": "Riphah International University", "amenity": "school", "addr_city": null, "osm_id": 4471094389, "osm_type": "nodes" }, "geometry": { "type": "Point", "coordinates": [ 74.3155643, 31.4485959 ] } },
{ "type": "Feature", "properties": { "name": "Govt. Girls High school", "amenity": "school", "addr_city": null, "osm_id": 4218537296, "osm_type": "nodes" }, "geometry": { "type": "Point", "coordinates": [ 73.024768, 31.437175 ] } },
{ "type": "Feature", "properties": { "name": "Governament Girls School", "amenity": "school", "addr_city": null, "osm_id": 4218537295, "osm_type": "nodes" }, "geometry": { "type": "Point", "coordinates": [ 73.0275356, 31.4378591 ] } },
{ "type": "Feature", "properties": { "name": "Umar Public School", "amenity": "school", "addr_city": null, "osm_id": 5354039722, "osm_type": "nodes" }, "geometry": { "type": "Point", "coordinates": [ 73.1217408, 31.4253264 ] } },
{ "type": "Feature", "properties": { "name": "Government MC Girls High School", "amenity": "school", "addr_city": "???? ????", "osm_id": 5171403621, "osm_type": "nodes" }, "geometry": { "type": "Point", "coordinates": [ 73.1193451, 31.4236385 ] } },
{ "type": "Feature", "properties": { "name": "Faisalabad Grammar School", "amenity": "school", "addr_city": "???? ????", "osm_id": 5194298321, "osm_type": "nodes" }, "geometry": { "type": "Point", "coordinates": [ 73.1226585, 31.4268374 ] } },
{ "type": "Feature", "properties": { "name": "The Millennium Universal College TMUC", "amenity": "university", "addr_city": null, "osm_id": 11962263369, "osm_type": "nodes" }, "geometry": { "type": "Point", "coordinates": [ 73.1221989, 31.4322445 ] } },
{ "type": "Feature", "properties": { "name": null, "amenity": "school", "addr_city": null, "osm_id": 10279641409, "osm_type": "nodes" }, "geometry": { "type": "Point", "coordinates": [ 74.3863215, 31.4267435 ] } },
{ "type": "Feature", "properties": { "name": "Govt College University Faisalabad", "amenity": "college", "addr_city": null, "osm_id": 360170600, "osm_type": "nodes" }, "geometry": { "type": "Point", "coordinates": [ 73.0701464, 31.4172466 ] } },
{ "type": "Feature", "properties": { "name": "Govt M.C Higher Secondary School", "amenity": "school", "addr_city": "???? ????", "osm_id": 5255259235, "osm_type": "nodes" }, "geometry": { "type": "Point", "coordinates": [ 73.0773822, 31.4221928 ] } },
{ "type": "Feature", "properties": { "name": "Govt MC Girls High School", "amenity": "school", "addr_city": "???? ????", "osm_id": 5259239771, "osm_type": "nodes" }, "geometry": { "type": "Point", "coordinates": [ 73.0691197, 31.4191974 ] } },
{ "type": "Feature", "properties": { "name": "The Summit College", "amenity": "college", "addr_city": "???? ????", "osm_id": 5259239768, "osm_type": "nodes" }, "geometry": { "type": "Point", "coordinates": [ 73.0701643, 31.4194996 ] } },
{ "type": "Feature", "properties": { "name": "Kaplan", "amenity": "school", "addr_city": null, "osm_id": 5208500531, "osm_type": "nodes" }, "geometry": { "type": "Point", "coordinates": [ 73.1046872, 31.4128736 ] } },
{ "type": "Feature", "properties": { "name": "MC Girls School", "amenity": "school", "addr_city": "???? ????", "osm_id": 2912530857, "osm_type": "nodes" }, "geometry": { "type": "Point", "coordinates": [ 73.1009012, 31.4090912 ] } },
{ "type": "Feature", "properties": { "name": "The City School Peoples Colony Branch", "amenity": "school", "addr_city": "???? ????", "osm_id": 5255390607, "osm_type": "nodes" }, "geometry": { "type": "Point", "coordinates": [ 73.1032951, 31.4110131 ] } },
{ "type": "Feature", "properties": { "name": "Junior Cadet School", "amenity": "school", "addr_city": null, "osm_id": 540757181, "osm_type": "nodes" }, "geometry": { "type": "Point", "coordinates": [ 74.2950525, 31.4295345 ] } },
{ "type": "Feature", "properties": { "name": "LCM School", "amenity": null, "addr_city": null, "osm_id": 2912522553, "osm_type": "nodes" }, "geometry": { "type": "Point", "coordinates": [ 73.0861582, 31.4035974 ] } },
{ "type": "Feature", "properties": { "name": "Jamis mosque toheedia", "amenity": "school", "addr_city": null, "osm_id": 10706737805, "osm_type": "nodes" }, "geometry": { "type": "Point", "coordinates": [ 72.305289, 31.2745536 ] } },
{ "type": "Feature", "properties": { "name": "Madrisah Khadija-tul-Qubra", "amenity": "school", "addr_city": null, "osm_id": 2917441112, "osm_type": "nodes" }, "geometry": { "type": "Point", "coordinates": [ 72.4619125, 30.7480284 ] } },
{ "type": "Feature", "properties": { "name": "Government Model Primary School (Sub Campus)", "amenity": "school", "addr_city": null, "osm_id": 2917400726, "osm_type": "nodes" }, "geometry": { "type": "Point", "coordinates": [ 72.4640532, 30.7483119 ] } },
{ "type": "Feature", "properties": { "name": "Government Model Primary School (Main Campus)", "amenity": "school", "addr_city": null, "osm_id": 2917399653, "osm_type": "nodes" }, "geometry": { "type": "Point", "coordinates": [ 72.4636667, 30.7498564 ] } },
{ "type": "Feature", "properties": { "name": "Al Madni Public School", "amenity": "school", "addr_city": null, "osm_id": 2917414023, "osm_type": "nodes" }, "geometry": { "type": "Point", "coordinates": [ 72.4619555, 30.747542 ] } },
{ "type": "Feature", "properties": { "name": "Department of Biomedical Engineering, UET New Campus", "amenity": "university", "addr_city": null, "osm_id": 7979890303, "osm_type": "nodes" }, "geometry": { "type": "Point", "coordinates": [ 74.2486913, 31.6945881 ] } },
{ "type": "Feature", "properties": { "name": "Administration Office, UET New Campus", "amenity": "university", "addr_city": null, "osm_id": 7979890304, "osm_type": "nodes" }, "geometry": { "type": "Point", "coordinates": [ 74.248299, 31.693861 ] } },
{ "type": "Feature", "properties": { "name": "Department of Mechanical Engineering, UET New Campus", "amenity": "university", "addr_city": null, "osm_id": 7979890307, "osm_type": "nodes" }, "geometry": { "type": "Point", "coordinates": [ 74.2455951, 31.6957802 ] } },
{ "type": "Feature", "properties": { "name": "Department of Basic Sciences & Humanities, UET New Campus", "amenity": "university", "addr_city": null, "osm_id": 7979890308, "osm_type": "nodes" }, "geometry": { "type": "Point", "coordinates": [ 74.2476219, 31.6957603 ] } },
{ "type": "Feature", "properties": { "name": "Department of Computer Science, UET New Campus", "amenity": "university", "addr_city": null, "osm_id": 7979807419, "osm_type": "nodes" }, "geometry": { "type": "Point", "coordinates": [ 74.2445, 31.6946178 ] } },
{ "type": "Feature", "properties": { "name": "Al Karam High School", "amenity": "school", "addr_city": "Lahore", "osm_id": 4912575642, "osm_type": "nodes" }, "geometry": { "type": "Point", "coordinates": [ 74.3170424, 31.5989929 ] } },
{ "type": "Feature", "properties": { "name": "Department of Chemical Engineering, UET New Campus", "amenity": "university", "addr_city": null, "osm_id": 7979890305, "osm_type": "nodes" }, "geometry": { "type": "Point", "coordinates": [ 74.2475565, 31.6948782 ] } },
{ "type": "Feature", "properties": { "name": "Department of Electrical Engineering, UET New Campus", "amenity": "university", "addr_city": null, "osm_id": 7979890306, "osm_type": "nodes" }, "geometry": { "type": "Point", "coordinates": [ 74.2456745, 31.6949139 ] } },
{ "type": "Feature", "properties": { "name": "Government Boys High School", "amenity": null, "addr_city": "sayedwala purana", "osm_id": 2848282160, "osm_type": "nodes" }, "geometry": { "type": "Point", "coordinates": [ 73.5023399, 31.1259374 ] } },
{ "type": "Feature", "properties": { "name": "Ideal Acadmy", "amenity": "school", "addr_city": null, "osm_id": 6852145085, "osm_type": "nodes" }, "geometry": { "type": "Point", "coordinates": [ 71.6535789, 30.0882879 ] } },
{ "type": "Feature", "properties": { "name": "Lohar wala", "amenity": "school", "addr_city": null, "osm_id": 5535886325, "osm_type": "nodes" }, "geometry": { "type": "Point", "coordinates": [ 70.599833, 29.9583694 ] } },
{ "type": "Feature", "properties": { "name": "The Best Public School Dinan Bashnoian Wala", "amenity": "school", "addr_city": "Dinan Bashnoian Wala", "osm_id": 4137600290, "osm_type": "nodes" }, "geometry": { "type": "Point", "coordinates": [ 73.262466, 29.7632 ] } },
{ "type": "Feature", "properties": { "name": "Govt. Boys Elementry School", "amenity": "school", "addr_city": "Dinan Bashnoian Wala", "osm_id": 4137572093, "osm_type": "nodes" }, "geometry": { "type": "Point", "coordinates": [ 73.2652571, 29.7683212 ] } },
{ "type": "Feature", "properties": { "name": "Govt. Girls Elementry School", "amenity": "school", "addr_city": "Dinan Bashnoian Wala", "osm_id": 4137600689, "osm_type": "nodes" }, "geometry": { "type": "Point", "coordinates": [ 73.263671, 29.766107 ] } },
{ "type": "Feature", "properties": { "name": "Umair Raza Public School", "amenity": "school", "addr_city": "Dinan Bashnoian Wala", "osm_id": 4137600291, "osm_type": "nodes" }, "geometry": { "type": "Point", "coordinates": [ 73.267381, 29.76704 ] } },
{ "type": "Feature", "properties": { "name": "Jamia Abi Bakar jampur", "amenity": "school", "addr_city": null, "osm_id": 4642196397, "osm_type": "nodes" }, "geometry": { "type": "Point", "coordinates": [ 70.5781157, 29.6185638 ] } },
{ "type": "Feature", "properties": { "name": "Misali Public Middle School", "amenity": "school", "addr_city": null, "osm_id": 4395757988, "osm_type": "nodes" }, "geometry": { "type": "Point", "coordinates": [ 71.1844825, 30.0203322 ] } },
{ "type": "Feature", "properties": { "name": "Main Sindhi Primary School Ghotki", "amenity": "school", "addr_city": null, "osm_id": 5911308786, "osm_type": "nodes" }, "geometry": { "type": "Point", "coordinates": [ 69.3299374, 28.0132536 ] } },
{ "type": "Feature", "properties": { "name": "Bahria Foundation Collage Mehrabpur", "amenity": "college", "addr_city": "Mehrabpur", "osm_id": 10123522139, "osm_type": "nodes" }, "geometry": { "type": "Point", "coordinates": [ 68.4163185, 27.0942921 ] } },
{ "type": "Feature", "properties": { "name": "Talib Hussain Government Boys' Primary School", "amenity": "school", "addr_city": "Deh 25A Jamrao", "osm_id": 7238439277, "osm_type": "nodes" }, "geometry": { "type": "Point", "coordinates": [ 68.7762268, 26.1301911 ] } },
{ "type": "Feature", "properties": { "name": "Government High School Deh 25 Jamrao", "amenity": "school", "addr_city": "Deh 25/A Jamrao", "osm_id": 7238462452, "osm_type": "nodes" }, "geometry": { "type": "Point", "coordinates": [ 68.7768853, 26.1252781 ] } },
{ "type": "Feature", "properties": { "name": "Government Girls' Primary School", "amenity": "school", "addr_city": "Deh 25A Jamrao", "osm_id": 7238416968, "osm_type": "nodes" }, "geometry": { "type": "Point", "coordinates": [ 68.7780301, 26.1286772 ] } },
{ "type": "Feature", "properties": { "name": "Hira Public School", "amenity": "school", "addr_city": "Tando Adam", "osm_id": 4883270409, "osm_type": "nodes" }, "geometry": { "type": "Point", "coordinates": [ 68.6482594, 25.7549933 ] } },
{ "type": "Feature", "properties": { "name": "Daud Memorial Secondary School", "amenity": "school", "addr_city": "Tando Allahyar", "osm_id": 4883101857, "osm_type": "nodes" }, "geometry": { "type": "Point", "coordinates": [ 68.7189892, 25.4790791 ] } },
{ "type": "Feature", "properties": { "name": "Bahira College Tando Allahyarr", "amenity": "college", "addr_city": "Tando Allahyar", "osm_id": 4883192328, "osm_type": "nodes" }, "geometry": { "type": "Point", "coordinates": [ 68.7197947, 25.4770378 ] } },
{ "type": "Feature", "properties": { "name": "Govt Girls Model Community School", "amenity": "school", "addr_city": "Tando Allahyar", "osm_id": 4883162492, "osm_type": "nodes" }, "geometry": { "type": "Point", "coordinates": [ 68.6783032, 25.3869407 ] } },
{ "type": "Feature", "properties": { "name": "Naqqash Villas", "amenity": "school", "addr_city": "????????", "osm_id": 4875728823, "osm_type": "nodes" }, "geometry": { "type": "Point", "coordinates": [ 68.3325924, 25.4048114 ] } },
{ "type": "Feature", "properties": { "name": "The Educators School System", "amenity": "school", "addr_city": "????????", "osm_id": 5252214983, "osm_type": "nodes" }, "geometry": { "type": "Point", "coordinates": [ 68.3432094, 25.4083415 ] } },
{ "type": "Feature", "properties": { "name": "Khan Muhammad High School", "amenity": "school", "addr_city": "????????", "osm_id": 5252214987, "osm_type": "nodes" }, "geometry": { "type": "Point", "coordinates": [ 68.3410301, 25.4143127 ] } },
{ "type": "Feature", "properties": { "name": "Bright Future High School", "amenity": "school", "addr_city": "????????", "osm_id": 5285951850, "osm_type": "nodes" }, "geometry": { "type": "Point", "coordinates": [ 68.3409996, 25.42096 ] } },
{ "type": "Feature", "properties": { "name": "LEADERSHIP SCHOOL HYD SHAHBAZ BRANCH", "amenity": "school", "addr_city": "????????", "osm_id": 5285951851, "osm_type": "nodes" }, "geometry": { "type": "Point", "coordinates": [ 68.3409104, 25.4214729 ] } },
{ "type": "Feature", "properties": { "name": "Agha Taj Muhammad High School", "amenity": "school", "addr_city": "????????", "osm_id": 5321931889, "osm_type": "nodes" }, "geometry": { "type": "Point", "coordinates": [ 68.3390261, 25.4046269 ] } },
{ "type": "Feature", "properties": { "name": "Government Model School G.O.R Colony Hyderabad.", "amenity": "school", "addr_city": "Karachi", "osm_id": 4828714182, "osm_type": "nodes" }, "geometry": { "type": "Point", "coordinates": [ 68.3447231, 25.3782422 ] } },
{ "type": "Feature", "properties": { "name": "Hayats Girls College & School", "amenity": "college", "addr_city": "????????", "osm_id": 1671682420, "osm_type": "nodes" }, "geometry": { "type": "Point", "coordinates": [ 68.3616708, 25.3950247 ] } },
{ "type": "Feature", "properties": { "name": "Iqra High School", "amenity": "school", "addr_city": null, "osm_id": 4561279491, "osm_type": "nodes" }, "geometry": { "type": "Point", "coordinates": [ 68.3760233, 25.3771641 ] } },
{ "type": "Feature", "properties": { "name": "Al Mansoor Primary School", "amenity": "school", "addr_city": "????????", "osm_id": 5251853776, "osm_type": "nodes" }, "geometry": { "type": "Point", "coordinates": [ 68.3688947, 25.3686285 ] } },
{ "type": "Feature", "properties": { "name": "Shah Faisal High School", "amenity": "school", "addr_city": "????????", "osm_id": 5252043361, "osm_type": "nodes" }, "geometry": { "type": "Point", "coordinates": [ 68.3784944, 25.3767317 ] } },
{ "type": "Feature", "properties": { "name": "Mirza Qaleech Baig High School", "amenity": "school", "addr_city": "????????", "osm_id": 5321931909, "osm_type": "nodes" }, "geometry": { "type": "Point", "coordinates": [ 68.3901757, 25.3944834 ] } },
{ "type": "Feature", "properties": { "name": "Allama Iqbal High School", "amenity": "school", "addr_city": "????????", "osm_id": 5323368816, "osm_type": "nodes" }, "geometry": { "type": "Point", "coordinates": [ 68.3518994, 25.3637842 ] } },
{ "type": "Feature", "properties": { "name": "ABN E Sina Institute & High School", "amenity": "school", "addr_city": "????????", "osm_id": 5323509975, "osm_type": "nodes" }, "geometry": { "type": "Point", "coordinates": [ 68.3446351, 25.3664264 ] } },
{ "type": "Feature", "properties": { "name": "Chambers Public High School", "amenity": "school", "addr_city": "????????", "osm_id": 5323509977, "osm_type": "nodes" }, "geometry": { "type": "Point", "coordinates": [ 68.3463357, 25.3641419 ] } },
{ "type": "Feature", "properties": { "name": "Cosmopolitan High School", "amenity": "school", "addr_city": "????????", "osm_id": 5323509978, "osm_type": "nodes" }, "geometry": { "type": "Point", "coordinates": [ 68.3458234, 25.3646521 ] } },
{ "type": "Feature", "properties": { "name": "Govt Masjid Primary School", "amenity": "school", "addr_city": "Tando Allahyar", "osm_id": 4883162489, "osm_type": "nodes" }, "geometry": { "type": "Point", "coordinates": [ 68.7160391, 25.4433532 ] } },
{ "type": "Feature", "properties": { "name": "Al-Samad Educational Academy", "amenity": "school", "addr_city": "Tando Allahyar", "osm_id": 4883162490, "osm_type": "nodes" }, "geometry": { "type": "Point", "coordinates": [ 68.7143738, 25.4444155 ] } },
{ "type": "Feature", "properties": { "name": "Darul Uloom High School", "amenity": "school", "addr_city": "Tando Allahyar", "osm_id": 4883101855, "osm_type": "nodes" }, "geometry": { "type": "Point", "coordinates": [ 68.7152939, 25.4592959 ] } },
{ "type": "Feature", "properties": { "name": "District Education Office Tando Allahyar", "amenity": "school", "addr_city": "Tando Allayar", "osm_id": 4883162483, "osm_type": "nodes" }, "geometry": { "type": "Point", "coordinates": [ 68.7091894, 25.4597428 ] } },
{ "type": "Feature", "properties": { "name": "The Foundation Grammar School", "amenity": "school", "addr_city": "Tando Allahyar", "osm_id": 4883101852, "osm_type": "nodes" }, "geometry": { "type": "Point", "coordinates": [ 68.7163118, 25.460412 ] } },
{ "type": "Feature", "properties": { "name": "Govt Girls Primary School", "amenity": "school", "addr_city": "Tando Allahyar", "osm_id": 4883101853, "osm_type": "nodes" }, "geometry": { "type": "Point", "coordinates": [ 68.716539, 25.4629077 ] } },
{ "type": "Feature", "properties": { "name": "Govt Main Sindhi High School", "amenity": "school", "addr_city": "Tando Allahyar", "osm_id": 4883101851, "osm_type": "nodes" }, "geometry": { "type": "Point", "coordinates": [ 68.7178255, 25.4614352 ] } },
{ "type": "Feature", "properties": { "name": "Sm College", "amenity": "college", "addr_city": "Tando Allahyar", "osm_id": 4883192329, "osm_type": "nodes" }, "geometry": { "type": "Point", "coordinates": [ 68.710818, 25.4667024 ] } },
{ "type": "Feature", "properties": { "name": "Aqsa High School", "amenity": "school", "addr_city": "Tando Allahyar", "osm_id": 4883101854, "osm_type": "nodes" }, "geometry": { "type": "Point", "coordinates": [ 68.7174315, 25.4590875 ] } },
{ "type": "Feature", "properties": { "name": "The Smart School", "amenity": "school", "addr_city": "Tando Allahyar", "osm_id": 4883101839, "osm_type": "nodes" }, "geometry": { "type": "Point", "coordinates": [ 68.7085258, 25.461673 ] } },
{ "type": "Feature", "properties": { "name": "Mehran Higher Secondary School", "amenity": "school", "addr_city": "Tando Allahyar", "osm_id": 4883101856, "osm_type": "nodes" }, "geometry": { "type": "Point", "coordinates": [ 68.7197035, 25.4599279 ] } },
{ "type": "Feature", "properties": { "name": "GPS WARD.B", "amenity": "school", "addr_city": "Tando Allahyar", "osm_id": 4883162494, "osm_type": "nodes" }, "geometry": { "type": "Point", "coordinates": [ 68.7224208, 25.4598842 ] } },
{ "type": "Feature", "properties": { "name": "Indus College of Law", "amenity": "college", "addr_city": "????????", "osm_id": 5251853731, "osm_type": "nodes" }, "geometry": { "type": "Point", "coordinates": [ 68.3316647, 25.3711968 ] } },
{ "type": "Feature", "properties": { "name": "Rockford Cambridge School", "amenity": "school", "addr_city": "????????", "osm_id": 5321931902, "osm_type": "nodes" }, "geometry": { "type": "Point", "coordinates": [ 68.3331051, 25.3745167 ] } },
{ "type": "Feature", "properties": { "name": "The City School Pre Junior Latifabad", "amenity": "school", "addr_city": "????????", "osm_id": 5323412739, "osm_type": "nodes" }, "geometry": { "type": "Point", "coordinates": [ 68.3342403, 25.3772796 ] } },
{ "type": "Feature", "properties": { "name": "training centre", "amenity": "school", "addr_city": null, "osm_id": 1099280810, "osm_type": "nodes" }, "geometry": { "type": "Point", "coordinates": [ 68.3579833, 25.3281519 ] } },
{ "type": "Feature", "properties": { "name": "Blue Bird High School", "amenity": "school", "addr_city": "Kotri", "osm_id": 4823245527, "osm_type": "nodes" }, "geometry": { "type": "Point", "coordinates": [ 68.3061272, 25.3658977 ] } },
{ "type": "Feature", "properties": { "name": "GBPS Allah Warayo Sanghar", "amenity": "school", "addr_city": null, "osm_id": 5923648708, "osm_type": "nodes" }, "geometry": { "type": "Point", "coordinates": [ 69.3510435, 28.0603224 ] } },
{ "type": "Feature", "properties": { "name": "Bahria Foundation School Naushehro Feroze", "amenity": "school", "addr_city": null, "osm_id": 5440570226, "osm_type": "nodes" }, "geometry": { "type": "Point", "coordinates": [ 68.1437562, 26.8292578 ] } },
{ "type": "Feature", "properties": { "name": "SEF Middle School", "amenity": "school", "addr_city": null, "osm_id": 5440874721, "osm_type": "nodes" }, "geometry": { "type": "Point", "coordinates": [ 68.2482072, 26.7927822 ] } },
{ "type": "Feature", "properties": { "name": "Govt Girls College", "amenity": "school", "addr_city": null, "osm_id": 5440874623, "osm_type": "nodes" }, "geometry": { "type": "Point", "coordinates": [ 68.1440175, 26.829152 ] } },
{ "type": "Feature", "properties": { "name": "Agha Nizamuddin Girls Degree College", "amenity": "college", "addr_city": "Sukkur", "osm_id": 5336482467, "osm_type": "nodes" }, "geometry": { "type": "Point", "coordinates": [ 68.8678484, 27.6951093 ] } },
{ "type": "Feature", "properties": { "name": "The City School Nursery Sukkur 3.2·4 reviews", "amenity": "school", "addr_city": "Sukkur", "osm_id": 5259672836, "osm_type": "nodes" }, "geometry": { "type": "Point", "coordinates": [ 68.8226959, 27.7290737 ] } },
{ "type": "Feature", "properties": { "name": "Sachal Sar Mast College", "amenity": "college", "addr_city": "Ranipur Riyast", "osm_id": 5255460668, "osm_type": "nodes" }, "geometry": { "type": "Point", "coordinates": [ 68.5120495, 27.2911551 ] } },
{ "type": "Feature", "properties": { "name": "Ghulam Rabbani Agro Degree College Kandiaro", "amenity": "college", "addr_city": "Kandiaro", "osm_id": 5254062289, "osm_type": "nodes" }, "geometry": { "type": "Point", "coordinates": [ 68.2075734, 27.0473757 ] } },
{ "type": "Feature", "properties": { "name": "Jamia Arabia Ghaffaria", "amenity": "university", "addr_city": "Kandiaro", "osm_id": 5255206884, "osm_type": "nodes" }, "geometry": { "type": "Point", "coordinates": [ 68.2164088, 27.0542994 ] } },
{ "type": "Feature", "properties": { "name": "School Of Excellence", "amenity": "school", "addr_city": "Sukkur", "osm_id": 5251988414, "osm_type": "nodes" }, "geometry": { "type": "Point", "coordinates": [ 68.83524, 27.7138842 ] } },
{ "type": "Feature", "properties": { "name": "Allama Iqbal Open University Regional Center Sukkur", "amenity": "school", "addr_city": "Sukkur", "osm_id": 5251988722, "osm_type": "nodes" }, "geometry": { "type": "Point", "coordinates": [ 68.8329885, 27.717932 ] } },
{ "type": "Feature", "properties": { "name": "Workers Model School Sukkur", "amenity": "school", "addr_city": "Sukkur", "osm_id": 5252043418, "osm_type": "nodes" }, "geometry": { "type": "Point", "coordinates": [ 68.8575657, 27.722097 ] } },
{ "type": "Feature", "properties": { "name": "Gambat Institute Of Medical Sciences", "amenity": "university", "addr_city": "Gambat", "osm_id": 5255507603, "osm_type": "nodes" }, "geometry": { "type": "Point", "coordinates": [ 68.5259185, 27.3501736 ] } },
{ "type": "Feature", "properties": { "name": "New Sindh Science College", "amenity": "college", "addr_city": "Larkana", "osm_id": 4926647829, "osm_type": "nodes" }, "geometry": { "type": "Point", "coordinates": [ 68.2185021, 27.5501955 ] } },
{ "type": "Feature", "properties": { "name": "Govt. Primary School New Pind", "amenity": null, "addr_city": null, "osm_id": 955224070, "osm_type": "nodes" }, "geometry": { "type": "Point", "coordinates": [ 68.8615434, 27.7035239 ] } },
{ "type": "Feature", "properties": { "name": "Govt. Girls High School New Pind", "amenity": null, "addr_city": null, "osm_id": 955223500, "osm_type": "nodes" }, "geometry": { "type": "Point", "coordinates": [ 68.861886, 27.7037436 ] } },
{ "type": "Feature", "properties": { "name": "The Endurance", "amenity": "school", "addr_city": "Sukkur", "osm_id": 5252120043, "osm_type": "nodes" }, "geometry": { "type": "Point", "coordinates": [ 68.8475819, 27.7034589 ] } },
{ "type": "Feature", "properties": { "name": "Masjid School", "amenity": "school", "addr_city": null, "osm_id": 955221058, "osm_type": "nodes" }, "geometry": { "type": "Point", "coordinates": [ 68.8579477, 27.7049487 ] } },
{ "type": "Feature", "properties": { "name": "GBHS Gabar Masan", "amenity": "school", "addr_city": null, "osm_id": 9199286417, "osm_type": "nodes" }, "geometry": { "type": "Point", "coordinates": [ 68.0356094, 27.326956 ] } },
{ "type": "Feature", "properties": { "name": null, "amenity": "school", "addr_city": null, "osm_id": 5343687658, "osm_type": "nodes" }, "geometry": { "type": "Point", "coordinates": [ 68.6187442, 27.5979802 ] } },
{ "type": "Feature", "properties": { "name": "Isra Foundation Schools", "amenity": "school", "addr_city": "????????", "osm_id": 5320099661, "osm_type": "nodes" }, "geometry": { "type": "Point", "coordinates": [ 68.3739415, 25.4521997 ] } },
{ "type": "Feature", "properties": { "name": "Government Degree College, Matiari", "amenity": "college", "addr_city": "Matiari", "osm_id": 5327143134, "osm_type": "nodes" }, "geometry": { "type": "Point", "coordinates": [ 68.4422804, 25.597916 ] } },
{ "type": "Feature", "properties": { "name": "New Mashal High Scool & College Larkana", "amenity": "school", "addr_city": null, "osm_id": 5516608321, "osm_type": "nodes" }, "geometry": { "type": "Point", "coordinates": [ 68.212996, 27.5421861 ] } },
{ "type": "Feature", "properties": { "name": "Police training school larkana", "amenity": "school", "addr_city": null, "osm_id": 5513898121, "osm_type": "nodes" }, "geometry": { "type": "Point", "coordinates": [ 68.1915488, 27.5656826 ] } },
{ "type": "Feature", "properties": { "name": "Primary School Rahmatpur", "amenity": "school", "addr_city": null, "osm_id": 10647031373, "osm_type": "nodes" }, "geometry": { "type": "Point", "coordinates": [ 68.2062397, 27.5461702 ] } },
{ "type": "Feature", "properties": { "name": "Government Boys High School Rojhan Jamali", "amenity": "school", "addr_city": null, "osm_id": 10589969915, "osm_type": "nodes" }, "geometry": { "type": "Point", "coordinates": [ 68.2577838, 28.3202869 ] } },
{ "type": "Feature", "properties": { "name": "Shaheed Rajib Anmol Free Education System", "amenity": "school", "addr_city": null, "osm_id": 10284065121, "osm_type": "nodes" }, "geometry": { "type": "Point", "coordinates": [ 67.7945716, 26.469161 ] } },
{ "type": "Feature", "properties": { "name": "Government Boys High school Talti", "amenity": "school", "addr_city": null, "osm_id": 10283953977, "osm_type": "nodes" }, "geometry": { "type": "Point", "coordinates": [ 67.8114361, 26.5299763 ] } },
{ "type": "Feature", "properties": { "name": "Amynabad Montessori and Primary School", "amenity": "school", "addr_city": "Karachi", "osm_id": 5346835916, "osm_type": "nodes" }, "geometry": { "type": "Point", "coordinates": [ 67.0486192, 24.8928103 ] } },
{ "type": "Feature", "properties": { "name": "National Grammar School", "amenity": "school", "addr_city": "Karachi", "osm_id": 12147596988, "osm_type": "nodes" }, "geometry": { "type": "Point", "coordinates": [ 67.0496215, 24.9002977 ] } },
{ "type": "Feature", "properties": { "name": "Farah Secondary School", "amenity": "school", "addr_city": "Karachi", "osm_id": 12151273247, "osm_type": "nodes" }, "geometry": { "type": "Point", "coordinates": [ 67.0433695, 24.8974303 ] } },
{ "type": "Feature", "properties": { "name": "Super Unique English High School", "amenity": "school", "addr_city": "Karachi", "osm_id": 12153367729, "osm_type": "nodes" }, "geometry": { "type": "Point", "coordinates": [ 67.0423133, 24.8990246 ] } },
{ "type": "Feature", "properties": { "name": "Pink Rose Grammar School? ??? ??? ????? ?????", "amenity": "school", "addr_city": "Karachi", "osm_id": 12154144303, "osm_type": "nodes" }, "geometry": { "type": "Point", "coordinates": [ 67.042208, 24.9010187 ] } },
{ "type": "Feature", "properties": { "name": "Moon English Grammar School", "amenity": "school", "addr_city": "Karachi", "osm_id": 12151501496, "osm_type": "nodes" }, "geometry": { "type": "Point", "coordinates": [ 67.0428892, 24.897834 ] } },
{ "type": "Feature", "properties": { "name": "Raza School of Education", "amenity": "school", "addr_city": "Karachi", "osm_id": 12151381778, "osm_type": "nodes" }, "geometry": { "type": "Point", "coordinates": [ 67.0433139, 24.8979081 ] } },
{ "type": "Feature", "properties": { "name": "Tauheed Academy School", "amenity": "school", "addr_city": "Karachi", "osm_id": 12151156674, "osm_type": "nodes" }, "geometry": { "type": "Point", "coordinates": [ 67.0437771, 24.8976159 ] } },
{ "type": "Feature", "properties": { "name": "Jabeez Schooling System (JSS) Liaquatabad Branch", "amenity": "school", "addr_city": "Karachi", "osm_id": 12151223242, "osm_type": "nodes" }, "geometry": { "type": "Point", "coordinates": [ 67.0437075, 24.8970441 ] } },
{ "type": "Feature", "properties": { "name": "Iqra Bait-ul-Atfal Secondary School", "amenity": "school", "addr_city": "Karachi", "osm_id": 12151144006, "osm_type": "nodes" }, "geometry": { "type": "Point", "coordinates": [ 67.0439008, 24.8978072 ] } },
{ "type": "Feature", "properties": { "name": "Nasra School - Lasbela Branch", "amenity": "school", "addr_city": "Karachi", "osm_id": 5143300482, "osm_type": "nodes" }, "geometry": { "type": "Point", "coordinates": [ 67.0315548, 24.8875221 ] } },
{ "type": "Feature", "properties": { "name": "SMB Academy", "amenity": "school", "addr_city": "Karachi", "osm_id": 5137701242, "osm_type": "nodes" }, "geometry": { "type": "Point", "coordinates": [ 67.0307671, 24.891764 ] } },
{ "type": "Feature", "properties": { "name": "The Seeds And Roots Montessori, Campus 1", "amenity": "school", "addr_city": "Karachi", "osm_id": 12173514568, "osm_type": "nodes" }, "geometry": { "type": "Point", "coordinates": [ 67.029533, 24.8838561 ] } },
{ "type": "Feature", "properties": { "name": "Daffodils Academy School", "amenity": "school", "addr_city": "Karachi", "osm_id": 12173730175, "osm_type": "nodes" }, "geometry": { "type": "Point", "coordinates": [ 67.0297369, 24.8846817 ] } },
{ "type": "Feature", "properties": { "name": "Bright Future Grammar School", "amenity": "school", "addr_city": "Karachi", "osm_id": 12174521833, "osm_type": "nodes" }, "geometry": { "type": "Point", "coordinates": [ 67.0300693, 24.8850231 ] } },
{ "type": "Feature", "properties": { "name": "ISBAH COACHING & ACADEMY", "amenity": "school", "addr_city": "Karachi", "osm_id": 12143604318, "osm_type": "nodes" }, "geometry": { "type": "Point", "coordinates": [ 67.0157182, 24.8750973 ] } },
{ "type": "Feature", "properties": { "name": "OXFORD SCHOOLING SYSTEM", "amenity": "school", "addr_city": "Karachi", "osm_id": 12143702755, "osm_type": "nodes" }, "geometry": { "type": "Point", "coordinates": [ 67.0173614, 24.8764686 ] } },
{ "type": "Feature", "properties": { "name": "Vohra Public School", "amenity": "school", "addr_city": "Karachi", "osm_id": 12143551628, "osm_type": "nodes" }, "geometry": { "type": "Point", "coordinates": [ 67.0152994, 24.8759535 ] } },
{ "type": "Feature", "properties": { "name": "Fatima Jinnah Girls High School", "amenity": "school", "addr_city": "Karachi", "osm_id": 12147689039, "osm_type": "nodes" }, "geometry": { "type": "Point", "coordinates": [ 67.0190045, 24.8758785 ] } },
{ "type": "Feature", "properties": { "name": "SMB Fatima Jinnah Government Girls College", "amenity": "school", "addr_city": "Karachi", "osm_id": 12147670237, "osm_type": "nodes" }, "geometry": { "type": "Point", "coordinates": [ 67.0195363, 24.8754404 ] } },
{ "type": "Feature", "properties": { "name": null, "amenity": "school", "addr_city": null, "osm_id": 5663966581, "osm_type": "nodes" }, "geometry": { "type": "Point", "coordinates": [ 66.9342514, 24.8735432 ] } },
{ "type": "Feature", "properties": { "name": "Mehran Grammar School", "amenity": "school", "addr_city": "Karachi", "osm_id": 12143616523, "osm_type": "nodes" }, "geometry": { "type": "Point", "coordinates": [ 67.0162139, 24.8756305 ] } },
{ "type": "Feature", "properties": { "name": "Bilal academy School", "amenity": "school", "addr_city": "Karachi", "osm_id": 12141535891, "osm_type": "nodes" }, "geometry": { "type": "Point", "coordinates": [ 67.0175307, 24.8756876 ] } },
{ "type": "Feature", "properties": { "name": "Florence Children Academy", "amenity": "school", "addr_city": "Karachi", "osm_id": 12141569621, "osm_type": "nodes" }, "geometry": { "type": "Point", "coordinates": [ 67.0182441, 24.8757151 ] } },
{ "type": "Feature", "properties": { "name": "Iqra akadmi rozatolatfal", "amenity": "school", "addr_city": "Karachi", "osm_id": 12141585259, "osm_type": "nodes" }, "geometry": { "type": "Point", "coordinates": [ 67.0185166, 24.8757061 ] } },
{ "type": "Feature", "properties": { "name": "Florence Montessori School", "amenity": "school", "addr_city": null, "osm_id": 12141602719, "osm_type": "nodes" }, "geometry": { "type": "Point", "coordinates": [ 67.0177581, 24.8757246 ] } },
{ "type": "Feature", "properties": { "name": "The Educators, garden west campus", "amenity": "school", "addr_city": "Karachi", "osm_id": 12141638649, "osm_type": "nodes" }, "geometry": { "type": "Point", "coordinates": [ 67.0169302, 24.8760036 ] } },
{ "type": "Feature", "properties": { "name": "Grow Wise Learning Institute", "amenity": "school", "addr_city": "Karachi", "osm_id": 12141648328, "osm_type": "nodes" }, "geometry": { "type": "Point", "coordinates": [ 67.0166932, 24.8759263 ] } },
{ "type": "Feature", "properties": { "name": "Rahbar Public School? ???? ???? ?????", "amenity": "school", "addr_city": "Karachi", "osm_id": 12141691006, "osm_type": "nodes" }, "geometry": { "type": "Point", "coordinates": [ 67.0163547, 24.8744904 ] } },
{ "type": "Feature", "properties": { "name": "Azlan educational institute", "amenity": "school", "addr_city": "Karachi", "osm_id": 12141744095, "osm_type": "nodes" }, "geometry": { "type": "Point", "coordinates": [ 67.0147436, 24.8746148 ] } },
{ "type": "Feature", "properties": { "name": "Jinnah Public School", "amenity": "school", "addr_city": "?????", "osm_id": 12143497967, "osm_type": "nodes" }, "geometry": { "type": "Point", "coordinates": [ 67.0149996, 24.875287 ] } },
{ "type": "Feature", "properties": { "name": "Al Emaan Public School", "amenity": "school", "addr_city": "Karachi", "osm_id": 12143585524, "osm_type": "nodes" }, "geometry": { "type": "Point", "coordinates": [ 67.0154986, 24.8746578 ] } },
{ "type": "Feature", "properties": { "name": "The Smart School - Garden West Campus", "amenity": "school", "addr_city": "Karachi", "osm_id": 12143766545, "osm_type": "nodes" }, "geometry": { "type": "Point", "coordinates": [ 67.0176576, 24.8769629 ] } },
{ "type": "Feature", "properties": { "name": "Eden Grammar School", "amenity": "school", "addr_city": "Karachi", "osm_id": 12146547768, "osm_type": "nodes" }, "geometry": { "type": "Point", "coordinates": [ 67.0194414, 24.8778895 ] } },
{ "type": "Feature", "properties": { "name": "Quranic islamic and Welfare Centre", "amenity": "school", "addr_city": "Karachi", "osm_id": 12145809102, "osm_type": "nodes" }, "geometry": { "type": "Point", "coordinates": [ 67.0140134, 24.875229 ] } },
{ "type": "Feature", "properties": { "name": "Oscar public school", "amenity": "school", "addr_city": "Karachi", "osm_id": 12146646657, "osm_type": "nodes" }, "geometry": { "type": "Point", "coordinates": [ 67.0187626, 24.8780996 ] } },
{ "type": "Feature", "properties": { "name": "The Christ Church School", "amenity": "school", "addr_city": "Karachi", "osm_id": 5143276368, "osm_type": "nodes" }, "geometry": { "type": "Point", "coordinates": [ 67.1185482, 24.8563977 ] } },
{ "type": "Feature", "properties": { "name": "Govt Nida-e-Mustafa Primary School", "amenity": "school", "addr_city": "Karachi", "osm_id": 4791866142, "osm_type": "nodes" }, "geometry": { "type": "Point", "coordinates": [ 67.0886722, 24.8483883 ] } },
{ "type": "Feature", "properties": { "name": "Iqra School", "amenity": "school", "addr_city": "Karachi", "osm_id": 4762006228, "osm_type": "nodes" }, "geometry": { "type": "Point", "coordinates": [ 67.0244822, 24.8317251 ] } },
{ "type": "Feature", "properties": { "name": "Karachi Public School - Korangi", "amenity": "school", "addr_city": "Karachi", "osm_id": 5153585485, "osm_type": "nodes" }, "geometry": { "type": "Point", "coordinates": [ 67.1016839, 24.8169725 ] } },
{ "type": "Feature", "properties": { "name": "Karachi Public School", "amenity": "school", "addr_city": "Karachi", "osm_id": 5153777052, "osm_type": "nodes" }, "geometry": { "type": "Point", "coordinates": [ 67.1032063, 24.8175825 ] } },
{ "type": "Feature", "properties": { "name": null, "amenity": "school", "addr_city": null, "osm_id": 4023058727, "osm_type": "nodes" }, "geometry": { "type": "Point", "coordinates": [ 72.5867906, 36.6751541 ] } },
{ "type": "Feature", "properties": { "name": null, "amenity": "school", "addr_city": null, "osm_id": 4023040856, "osm_type": "nodes" }, "geometry": { "type": "Point", "coordinates": [ 72.5489522, 36.6181948 ] } },
{ "type": "Feature", "properties": { "name": null, "amenity": "school", "addr_city": null, "osm_id": 4023039104, "osm_type": "nodes" }, "geometry": { "type": "Point", "coordinates": [ 72.5482238, 36.6126022 ] } },
{ "type": "Feature", "properties": { "name": "Salik public school", "amenity": "school", "addr_city": null, "osm_id": 3993277174, "osm_type": "nodes" }, "geometry": { "type": "Point", "coordinates": [ 72.4767042, 36.5018431 ] } },
{ "type": "Feature", "properties": { "name": null, "amenity": "school", "addr_city": null, "osm_id": 4019096110, "osm_type": "nodes" }, "geometry": { "type": "Point", "coordinates": [ 72.3558831, 36.4369903 ] } },
{ "type": "Feature", "properties": { "name": null, "amenity": "school", "addr_city": null, "osm_id": 4027826081, "osm_type": "nodes" }, "geometry": { "type": "Point", "coordinates": [ 72.646338, 36.4096882 ] } },
{ "type": "Feature", "properties": { "name": null, "amenity": "school", "addr_city": null, "osm_id": 4027583251, "osm_type": "nodes" }, "geometry": { "type": "Point", "coordinates": [ 72.5975048, 36.3350618 ] } },
{ "type": "Feature", "properties": { "name": null, "amenity": "school", "addr_city": null, "osm_id": 4025183464, "osm_type": "nodes" }, "geometry": { "type": "Point", "coordinates": [ 72.5360681, 36.29446 ] } },
{ "type": "Feature", "properties": { "name": null, "amenity": "school", "addr_city": null, "osm_id": 4007082854, "osm_type": "nodes" }, "geometry": { "type": "Point", "coordinates": [ 71.8063874, 35.986591 ] } },
{ "type": "Feature", "properties": { "name": null, "amenity": "school", "addr_city": null, "osm_id": 4007085939, "osm_type": "nodes" }, "geometry": { "type": "Point", "coordinates": [ 71.8017943, 35.9932459 ] } },
{ "type": "Feature", "properties": { "name": null, "amenity": "school", "addr_city": null, "osm_id": 4007082855, "osm_type": "nodes" }, "geometry": { "type": "Point", "coordinates": [ 71.8050593, 35.9867186 ] } },
{ "type": "Feature", "properties": { "name": null, "amenity": "school", "addr_city": null, "osm_id": 4007015146, "osm_type": "nodes" }, "geometry": { "type": "Point", "coordinates": [ 71.8147358, 35.9769974 ] } },
{ "type": "Feature", "properties": { "name": "Kids Foundation school kalakot", "amenity": "school", "addr_city": null, "osm_id": 5266225021, "osm_type": "nodes" }, "geometry": { "type": "Point", "coordinates": [ 72.4774489, 35.0740179 ] } },
{ "type": "Feature", "properties": { "name": "Sherikhel Govt Primary School", "amenity": "school", "addr_city": null, "osm_id": 4316817296, "osm_type": "nodes" }, "geometry": { "type": "Point", "coordinates": [ 70.6592097, 32.4747684 ] } },
{ "type": "Feature", "properties": { "name": "govt school", "amenity": "school", "addr_city": null, "osm_id": 4546053890, "osm_type": "nodes" }, "geometry": { "type": "Point", "coordinates": [ 73.9966801, 31.9871558 ] } },
{ "type": "Feature", "properties": { "name": "Govt High School Khan Pur Bagga Sher", "amenity": "school", "addr_city": null, "osm_id": 4395763153, "osm_type": "nodes" }, "geometry": { "type": "Point", "coordinates": [ 71.2354003, 30.1390453 ] } },
{ "type": "Feature", "properties": { "name": "Govt Boys High School Guranwala", "amenity": "school", "addr_city": null, "osm_id": 4382918282, "osm_type": "nodes" }, "geometry": { "type": "Point", "coordinates": [ 70.6270825, 30.1033919 ] } },
{ "type": "Feature", "properties": { "name": "PAEC Interscience College DG Khan", "amenity": "college", "addr_city": null, "osm_id": 4382904708, "osm_type": "nodes" }, "geometry": { "type": "Point", "coordinates": [ 70.6078727, 30.0165332 ] } },
{ "type": "Feature", "properties": { "name": "Gov. College Mach", "amenity": "college", "addr_city": null, "osm_id": 3406716312, "osm_type": "nodes" }, "geometry": { "type": "Point", "coordinates": [ 67.3451936, 29.8638274 ] } },
{ "type": "Feature", "properties": { "name": "Higher Secondary School Kandhra", "amenity": "school", "addr_city": null, "osm_id": 6091356991, "osm_type": "nodes" }, "geometry": { "type": "Point", "coordinates": [ 68.8621769, 27.5856349 ] } },
{ "type": "Feature", "properties": { "name": "Govt higher Secondery School Halani", "amenity": "school", "addr_city": null, "osm_id": 5459507224, "osm_type": "nodes" }, "geometry": { "type": "Point", "coordinates": [ 68.3168204, 27.0858585 ] } },
{ "type": "Feature", "properties": { "name": "Govt Primary School Halani", "amenity": "school", "addr_city": null, "osm_id": 5459507225, "osm_type": "nodes" }, "geometry": { "type": "Point", "coordinates": [ 68.3175012, 27.0857619 ] } },
{ "type": "Feature", "properties": { "name": "Queen Mary School", "amenity": "school", "addr_city": "Sukkur", "osm_id": 5259602114, "osm_type": "nodes" }, "geometry": { "type": "Point", "coordinates": [ 68.8137321, 27.716315 ] } },
{ "type": "Feature", "properties": { "name": "Ever shine college gambat", "amenity": "school", "addr_city": "Gambat", "osm_id": 5255508531, "osm_type": "nodes" }, "geometry": { "type": "Point", "coordinates": [ 68.5205933, 27.3524475 ] } },
{ "type": "Feature", "properties": { "name": "United Public High School", "amenity": "school", "addr_city": "Moro", "osm_id": 5253835871, "osm_type": "nodes" }, "geometry": { "type": "Point", "coordinates": [ 67.9891955, 26.6686893 ] } },
{ "type": "Feature", "properties": { "name": "City Public Higher Secondary School", "amenity": "school", "addr_city": "Rohri", "osm_id": 5255851221, "osm_type": "nodes" }, "geometry": { "type": "Point", "coordinates": [ 68.8963541, 27.6892055 ] } },
{ "type": "Feature", "properties": { "name": "Virtual University Campus Sukkur", "amenity": "university", "addr_city": "Sukkur", "osm_id": 5253619486, "osm_type": "nodes" }, "geometry": { "type": "Point", "coordinates": [ 68.8459163, 27.699216 ] } },
{ "type": "Feature", "properties": { "name": "Public School Sukkur", "amenity": "school", "addr_city": "Sukkur", "osm_id": 5336482451, "osm_type": "nodes" }, "geometry": { "type": "Point", "coordinates": [ 68.8443842, 27.7024374 ] } },
{ "type": "Feature", "properties": { "name": "The City School Indus Campus Sukkur", "amenity": "school", "addr_city": "Sukkur", "osm_id": 5333195743, "osm_type": "nodes" }, "geometry": { "type": "Point", "coordinates": [ 68.8127781, 27.7434195 ] } },
{ "type": "Feature", "properties": { "name": null, "amenity": "school", "addr_city": null, "osm_id": 4023030378, "osm_type": "nodes" }, "geometry": { "type": "Point", "coordinates": [ 72.5279462, 36.5964558 ] } },
{ "type": "Feature", "properties": { "name": null, "amenity": "school", "addr_city": null, "osm_id": 4019045517, "osm_type": "nodes" }, "geometry": { "type": "Point", "coordinates": [ 72.3645429, 36.4552242 ] } },
{ "type": "Feature", "properties": { "name": null, "amenity": "school", "addr_city": null, "osm_id": 3996679857, "osm_type": "nodes" }, "geometry": { "type": "Point", "coordinates": [ 71.9225434, 35.6677624 ] } },
{ "type": "Feature", "properties": { "name": "Govt School", "amenity": "school", "addr_city": null, "osm_id": 10599333580, "osm_type": "nodes" }, "geometry": { "type": "Point", "coordinates": [ 73.7838478, 32.6988494 ] } },
{ "type": "Feature", "properties": { "name": "superior college", "amenity": "college", "addr_city": null, "osm_id": 6203263285, "osm_type": "nodes" }, "geometry": { "type": "Point", "coordinates": [ 74.5868546, 32.5072987 ] } },
{ "type": "Feature", "properties": { "name": null, "amenity": "school", "addr_city": null, "osm_id": 12557915301, "osm_type": "nodes" }, "geometry": { "type": "Point", "coordinates": [ 73.9179648, 31.1379471 ] } },
{ "type": "Feature", "properties": { "name": "Rafiq Model School Jamber ???? ???? ???? ????", "amenity": "school", "addr_city": null, "osm_id": 12557915401, "osm_type": "nodes" }, "geometry": { "type": "Point", "coordinates": [ 73.9179623, 31.1379586 ] } },
{ "type": "Feature", "properties": { "name": "Chak No 216P", "amenity": "school", "addr_city": null, "osm_id": 9698857929, "osm_type": "nodes" }, "geometry": { "type": "Point", "coordinates": [ 69.9624382, 28.0712845 ] } },
{ "type": "Feature", "properties": { "name": "Government Boys Primary School", "amenity": "school", "addr_city": null, "osm_id": 4346660774, "osm_type": "nodes" }, "geometry": { "type": "Point", "coordinates": [ 69.0627058, 25.8891259 ] } },
{ "type": "Feature", "properties": { "name": "Govt Boys School Tando Allahyar", "amenity": "school", "addr_city": "Tando Allahyar", "osm_id": 4883162484, "osm_type": "nodes" }, "geometry": { "type": "Point", "coordinates": [ 68.8001534, 25.4848396 ] } },
{ "type": "Feature", "properties": { "name": "Indus Medical College", "amenity": "college", "addr_city": "Tando Muhammad Khan", "osm_id": 4883541256, "osm_type": "nodes" }, "geometry": { "type": "Point", "coordinates": [ 68.5329563, 25.1411412 ] } },
{ "type": "Feature", "properties": { "name": "Mir Ghulam Ali Khan Dgree College", "amenity": "college", "addr_city": "Tando Muhammad Khan", "osm_id": 4883541258, "osm_type": "nodes" }, "geometry": { "type": "Point", "coordinates": [ 68.5473465, 25.1197081 ] } },
{ "type": "Feature", "properties": { "name": "Govt. Polytechnic Institute STEVTA", "amenity": "school", "addr_city": "Tando Muhammad Khan", "osm_id": 4883509150, "osm_type": "nodes" }, "geometry": { "type": "Point", "coordinates": [ 68.5500764, 25.1171338 ] } },
{ "type": "Feature", "properties": { "name": "Szabist Intermediate College", "amenity": "college", "addr_city": "Tando Muhammad Khan", "osm_id": 4883541259, "osm_type": "nodes" }, "geometry": { "type": "Point", "coordinates": [ 68.5496815, 25.1175601 ] } },
{ "type": "Feature", "properties": { "name": "Mohammad Talib Baloch Govt Boys Primary School", "amenity": "school", "addr_city": "Karachi", "osm_id": 5232539146, "osm_type": "nodes" }, "geometry": { "type": "Point", "coordinates": [ 66.9705602, 24.8744408 ] } },
{ "type": "Feature", "properties": { "name": "HM Tiny Toys School", "amenity": "school", "addr_city": "Karachi", "osm_id": 5130498591, "osm_type": "nodes" }, "geometry": { "type": "Point", "coordinates": [ 66.9964154, 24.8524024 ] } },
{ "type": "Feature", "properties": { "name": "Sindh Muslim Science College", "amenity": "college", "addr_city": "Karachi", "osm_id": 5134471415, "osm_type": "nodes" }, "geometry": { "type": "Point", "coordinates": [ 67.004785, 24.8515317 ] } },
{ "type": "Feature", "properties": { "name": "Sindh Madressa-tul-Islam University", "amenity": "university", "addr_city": "Karachi", "osm_id": 5134471412, "osm_type": "nodes" }, "geometry": { "type": "Point", "coordinates": [ 67.0038768, 24.8507588 ] } },
{ "type": "Feature", "properties": { "name": "KMA Girls & Boys School", "amenity": "school", "addr_city": null, "osm_id": 5124031056, "osm_type": "nodes" }, "geometry": { "type": "Point", "coordinates": [ 66.9977295, 24.8557653 ] } },
{ "type": "Feature", "properties": { "name": "????? ??????", "amenity": "school", "addr_city": "Karachi", "osm_id": 12157934472, "osm_type": "nodes" }, "geometry": { "type": "Point", "coordinates": [ 67.0166604, 24.8563504 ] } },
{ "type": "Feature", "properties": { "name": "Merry Time English Montessori1", "amenity": "school", "addr_city": null, "osm_id": 6904096892, "osm_type": "nodes" }, "geometry": { "type": "Point", "coordinates": [ 67.0153933, 24.8547019 ] } },
{ "type": "Feature", "properties": { "name": "DJ Sindh Science College", "amenity": "college", "addr_city": null, "osm_id": 7264240374, "osm_type": "nodes" }, "geometry": { "type": "Point", "coordinates": [ 67.014378, 24.8532828 ] } },
{ "type": "Feature", "properties": { "name": "Junior reader school", "amenity": "school", "addr_city": "Karachi", "osm_id": 12157896389, "osm_type": "nodes" }, "geometry": { "type": "Point", "coordinates": [ 67.0173521, 24.8556096 ] } },
{ "type": "Feature", "properties": { "name": "TCF School, Qayyumabad", "amenity": "school", "addr_city": "Karachi", "osm_id": 5144995461, "osm_type": "nodes" }, "geometry": { "type": "Point", "coordinates": [ 67.0780078, 24.8356528 ] } },
{ "type": "Feature", "properties": { "name": "The Academy - Defence View Branch", "amenity": "school", "addr_city": "Karachi", "osm_id": 5103315802, "osm_type": "nodes" }, "geometry": { "type": "Point", "coordinates": [ 67.0785525, 24.8325451 ] } },
{ "type": "Feature", "properties": { "name": "Govt Boys Secondary School", "amenity": "school", "addr_city": "Karachi", "osm_id": 5143340846, "osm_type": "nodes" }, "geometry": { "type": "Point", "coordinates": [ 67.2380719, 24.8355674 ] } },
{ "type": "Feature", "properties": { "name": "Govt Boys Girls Secondary School", "amenity": "school", "addr_city": "Karachi", "osm_id": 5117759533, "osm_type": "nodes" }, "geometry": { "type": "Point", "coordinates": [ 67.0015153, 24.8183621 ] } },
{ "type": "Feature", "properties": { "name": "DHA Model School", "amenity": "school", "addr_city": "Karachi", "osm_id": 4786568422, "osm_type": "nodes" }, "geometry": { "type": "Point", "coordinates": [ 67.0714504, 24.8203138 ] } },
{ "type": "Feature", "properties": { "name": "The Center for Maths", "amenity": "university", "addr_city": "Karachi", "osm_id": 4786500655, "osm_type": "nodes" }, "geometry": { "type": "Point", "coordinates": [ 67.0700143, 24.8142254 ] } },
{ "type": "Feature", "properties": { "name": "The Educators", "amenity": "school", "addr_city": "Karachi", "osm_id": 4769800423, "osm_type": "nodes" }, "geometry": { "type": "Point", "coordinates": [ 67.109119, 24.8188026 ] } },
{ "type": "Feature", "properties": { "name": "Fatima Jinnah Dental College", "amenity": "college", "addr_city": "Karachi", "osm_id": 5128455356, "osm_type": "nodes" }, "geometry": { "type": "Point", "coordinates": [ 67.1109962, 24.8143481 ] } },
{ "type": "Feature", "properties": { "name": "Admissions Office", "amenity": "university", "addr_city": "Karachi", "osm_id": 12154123076, "osm_type": "nodes" }, "geometry": { "type": "Point", "coordinates": [ 67.0795247, 24.8151182 ] } },
{ "type": "Feature", "properties": { "name": "School by Indus Resource Center IRC", "amenity": "school", "addr_city": null, "osm_id": 5135605314, "osm_type": "nodes" }, "geometry": { "type": "Point", "coordinates": [ 67.1984443, 24.8157822 ] } },
{ "type": "Feature", "properties": { "name": "High School Talhar", "amenity": "school", "addr_city": null, "osm_id": 10199134510, "osm_type": "nodes" }, "geometry": { "type": "Point", "coordinates": [ 68.8134245, 24.8854119 ] } },
{ "type": "Feature", "properties": { "name": "Govt School", "amenity": "school", "addr_city": null, "osm_id": 3993275685, "osm_type": "nodes" }, "geometry": { "type": "Point", "coordinates": [ 72.4815589, 36.4901061 ] } },
{ "type": "Feature", "properties": { "name": "College", "amenity": "college", "addr_city": null, "osm_id": 4006861655, "osm_type": "nodes" }, "geometry": { "type": "Point", "coordinates": [ 71.8138144, 35.916142 ] } },
{ "type": "Feature", "properties": { "name": "Govt. Girls High School Panjan Kissana", "amenity": "school", "addr_city": null, "osm_id": 5304416221, "osm_type": "nodes" }, "geometry": { "type": "Point", "coordinates": [ 73.9053566, 32.7618169 ] } },
{ "type": "Feature", "properties": { "name": "Site Model School", "amenity": "school", "addr_city": "Karachi", "osm_id": 5124544379, "osm_type": "nodes" }, "geometry": { "type": "Point", "coordinates": [ 67.0142116, 24.9145605 ] } },
{ "type": "Feature", "properties": { "name": "Govt Primary School", "amenity": "school", "addr_city": "Karachi", "osm_id": 5093122733, "osm_type": "nodes" }, "geometry": { "type": "Point", "coordinates": [ 67.0057762, 24.9104416 ] } },
{ "type": "Feature", "properties": { "name": "Prime Public School", "amenity": "school", "addr_city": "Karachi", "osm_id": 5130354331, "osm_type": "nodes" }, "geometry": { "type": "Point", "coordinates": [ 67.028971, 24.8740315 ] } },
{ "type": "Feature", "properties": { "name": "Aga Khan School, Garden", "amenity": "school", "addr_city": "Karachi", "osm_id": 12147575394, "osm_type": "nodes" }, "geometry": { "type": "Point", "coordinates": [ 67.0279155, 24.8770397 ] } },
{ "type": "Feature", "properties": { "name": "Little Hands School Since 2013", "amenity": "school", "addr_city": "Karachi", "osm_id": 12167962631, "osm_type": "nodes" }, "geometry": { "type": "Point", "coordinates": [ 67.0285812, 24.8826717 ] } },
{ "type": "Feature", "properties": { "name": "Pak Grammar School", "amenity": "school", "addr_city": "Karachi", "osm_id": 12167937498, "osm_type": "nodes" }, "geometry": { "type": "Point", "coordinates": [ 67.0284145, 24.8818474 ] } },
{ "type": "Feature", "properties": { "name": "Happy Tree School", "amenity": "school", "addr_city": "Karachi", "osm_id": 12168846374, "osm_type": "nodes" }, "geometry": { "type": "Point", "coordinates": [ 67.0285327, 24.8828698 ] } },
{ "type": "Feature", "properties": { "name": "Habib Girls School (Middle Gate)", "amenity": "school", "addr_city": "Karachi", "osm_id": 12190094767, "osm_type": "nodes" }, "geometry": { "type": "Point", "coordinates": [ 67.0236983, 24.8685389 ] } },
{ "type": "Feature", "properties": { "name": "IBA Summer School", "amenity": "school", "addr_city": "Karachi", "osm_id": 12213614208, "osm_type": "nodes" }, "geometry": { "type": "Point", "coordinates": [ 67.0248527, 24.8670001 ] } },
{ "type": "Feature", "properties": { "name": "People's Open University", "amenity": "university", "addr_city": "Karachi", "osm_id": 12164831354, "osm_type": "nodes" }, "geometry": { "type": "Point", "coordinates": [ 67.0255996, 24.8721476 ] } },
{ "type": "Feature", "properties": { "name": "SunRise Montessori - Capmus 1", "amenity": "kindergarten", "addr_city": "Karachi", "osm_id": 12243632613, "osm_type": "nodes" }, "geometry": { "type": "Point", "coordinates": [ 67.0332377, 24.8734252 ] } },
{ "type": "Feature", "properties": { "name": "Rose Petal School (AKU-EB)", "amenity": "school", "addr_city": "Karachi", "osm_id": 12243587748, "osm_type": "nodes" }, "geometry": { "type": "Point", "coordinates": [ 67.0326016, 24.8714655 ] } },
{ "type": "Feature", "properties": { "name": "The Kindergarten School", "amenity": "school", "addr_city": "Karachi", "osm_id": 12241371873, "osm_type": "nodes" }, "geometry": { "type": "Point", "coordinates": [ 67.0322434, 24.872763 ] } },
{ "type": "Feature", "properties": { "name": "Iceland School", "amenity": "school", "addr_city": "Karachi", "osm_id": 12256251022, "osm_type": "nodes" }, "geometry": { "type": "Point", "coordinates": [ 67.036141, 24.8739843 ] } },
{ "type": "Feature", "properties": { "name": "Nashrah Financial Training System", "amenity": "university", "addr_city": "Karachi", "osm_id": 12245832855, "osm_type": "nodes" }, "geometry": { "type": "Point", "coordinates": [ 67.0337167, 24.8725927 ] } },
{ "type": "Feature", "properties": { "name": "Ghazi Foundation", "amenity": "school", "addr_city": "Karachi", "osm_id": 5143008223, "osm_type": "nodes" }, "geometry": { "type": "Point", "coordinates": [ 67.0343615, 24.8715496 ] } },
{ "type": "Feature", "properties": { "name": "Ailya Secondary School", "amenity": "school", "addr_city": "Karachi", "osm_id": 5143101734, "osm_type": "nodes" }, "geometry": { "type": "Point", "coordinates": [ 67.0382038, 24.8692839 ] } },
{ "type": "Feature", "properties": { "name": "Institute of Business Administration, City Campus", "amenity": null, "addr_city": "Karachi", "osm_id": 5137605636, "osm_type": "nodes" }, "geometry": { "type": "Point", "coordinates": [ 67.0256597, 24.8670471 ] } },
{ "type": "Feature", "properties": { "name": "Kiran Academy", "amenity": "school", "addr_city": "Karachi", "osm_id": 5143101201, "osm_type": "nodes" }, "geometry": { "type": "Point", "coordinates": [ 67.0363455, 24.8697122 ] } },
{ "type": "Feature", "properties": { "name": "Sandra Montessori", "amenity": "school", "addr_city": "Karachi", "osm_id": 4792040680, "osm_type": "nodes" }, "geometry": { "type": "Point", "coordinates": [ 67.0328702, 24.8708376 ] } },
{ "type": "Feature", "properties": { "name": "Ida Rieu School and College for Deaf and Blind", "amenity": "school", "addr_city": "Karachi", "osm_id": 4793639794, "osm_type": "nodes" }, "geometry": { "type": "Point", "coordinates": [ 67.0366038, 24.8715954 ] } },
{ "type": "Feature", "properties": { "name": "ICMAP Soldier Bazar (City Campus)", "amenity": "school", "addr_city": "Karachi", "osm_id": 5130354333, "osm_type": "nodes" }, "geometry": { "type": "Point", "coordinates": [ 67.0270782, 24.8720957 ] } },
{ "type": "Feature", "properties": { "name": "Al Furqan Scholars Academy", "amenity": "school", "addr_city": "Karachi", "osm_id": 5143008186, "osm_type": "nodes" }, "geometry": { "type": "Point", "coordinates": [ 67.026481, 24.8738415 ] } },
{ "type": "Feature", "properties": { "name": "Sunshine Villa", "amenity": "school", "addr_city": "Karachi", "osm_id": 5143008219, "osm_type": "nodes" }, "geometry": { "type": "Point", "coordinates": [ 67.030609, 24.8726058 ] } },
{ "type": "Feature", "properties": { "name": "Farabi Concept School", "amenity": "school", "addr_city": "Karachi", "osm_id": 5143008221, "osm_type": "nodes" }, "geometry": { "type": "Point", "coordinates": [ 67.0334335, 24.8713623 ] } },
{ "type": "Feature", "properties": { "name": "Agha Khan School and hostel", "amenity": "school", "addr_city": "Karachi", "osm_id": 5230413032, "osm_type": "nodes" }, "geometry": { "type": "Point", "coordinates": [ 67.0282397, 24.8768929 ] } },
{ "type": "Feature", "properties": { "name": "Irfan Govt Boys Secondary School", "amenity": "school", "addr_city": "Karachi", "osm_id": 5143008194, "osm_type": "nodes" }, "geometry": { "type": "Point", "coordinates": [ 67.0305015, 24.8734714 ] } },
{ "type": "Feature", "properties": { "name": "SD Abro Govt Girls Secondary", "amenity": "school", "addr_city": "Karachi", "osm_id": 5143008195, "osm_type": "nodes" }, "geometry": { "type": "Point", "coordinates": [ 67.0303647, 24.8737074 ] } },
{ "type": "Feature", "properties": { "name": "Sun Shine School", "amenity": "school", "addr_city": "Karachi", "osm_id": 5143008206, "osm_type": "nodes" }, "geometry": { "type": "Point", "coordinates": [ 67.030247, 24.8744989 ] } },
{ "type": "Feature", "properties": { "name": "Dr Panjwani School Complex For Blinds", "amenity": "school", "addr_city": "Karachi", "osm_id": 12151915867, "osm_type": "nodes" }, "geometry": { "type": "Point", "coordinates": [ 67.036641, 24.8719075 ] } },
{ "type": "Feature", "properties": { "name": "IQRA TEHSEEN UL ATFAL AL FATHIYYA (AL-QURAISH CAMPUS SOLDIER BAZAR)", "amenity": "school", "addr_city": "Karachi", "osm_id": 12147614045, "osm_type": "nodes" }, "geometry": { "type": "Point", "coordinates": [ 67.0275852, 24.8750877 ] } },
{ "type": "Feature", "properties": { "name": "Adult Blind School", "amenity": "school", "addr_city": "Karachi", "osm_id": 12147623089, "osm_type": "nodes" }, "geometry": { "type": "Point", "coordinates": [ 67.0261006, 24.8734211 ] } },
{ "type": "Feature", "properties": { "name": "BAT-UL-NOOR", "amenity": "school", "addr_city": "Karachi", "osm_id": 12147668067, "osm_type": "nodes" }, "geometry": { "type": "Point", "coordinates": [ 67.0281946, 24.87458 ] } },
{ "type": "Feature", "properties": { "name": "Ayan Karachi Deaf OID me", "amenity": "college", "addr_city": "Karachi", "osm_id": 12151912557, "osm_type": "nodes" }, "geometry": { "type": "Point", "coordinates": [ 67.0361609, 24.8714264 ] } },
{ "type": "Feature", "properties": { "name": "Wisdom House Education System", "amenity": "school", "addr_city": "Karachi", "osm_id": 12164787895, "osm_type": "nodes" }, "geometry": { "type": "Point", "coordinates": [ 67.0240608, 24.8740483 ] } },
{ "type": "Feature", "properties": { "name": "Raza Public School", "amenity": "school", "addr_city": "Karachi", "osm_id": 12164798716, "osm_type": "nodes" }, "geometry": { "type": "Point", "coordinates": [ 67.0257284, 24.8723471 ] } },
{ "type": "Feature", "properties": { "name": "Nasra School Main Campus? ????? ????? ??? ?????", "amenity": "school", "addr_city": "Karachi", "osm_id": 12164834687, "osm_type": "nodes" }, "geometry": { "type": "Point", "coordinates": [ 67.0274615, 24.8693672 ] } },
{ "type": "Feature", "properties": { "name": "Mehar-e-Neem Rose Govt Boys Primary & Secondary School", "amenity": "school", "addr_city": "Karachi", "osm_id": 12164843490, "osm_type": "nodes" }, "geometry": { "type": "Point", "coordinates": [ 67.0265321, 24.8701171 ] } },
{ "type": "Feature", "properties": { "name": "Maulana Okarvi Memorial School", "amenity": "school", "addr_city": "Karachi", "osm_id": 12164847925, "osm_type": "nodes" }, "geometry": { "type": "Point", "coordinates": [ 67.02723, 24.8711866 ] } },
{ "type": "Feature", "properties": { "name": "BMB Govt Girls Secondary School", "amenity": "school", "addr_city": "Karachi", "osm_id": 12164854418, "osm_type": "nodes" }, "geometry": { "type": "Point", "coordinates": [ 67.0266769, 24.8695727 ] } },
{ "type": "Feature", "properties": { "name": "Arqam", "amenity": "school", "addr_city": "Karachi", "osm_id": 12164857114, "osm_type": "nodes" }, "geometry": { "type": "Point", "coordinates": [ 67.0278257, 24.8699498 ] } },
{ "type": "Feature", "properties": { "name": "Karachi Adventist Secondary School", "amenity": "school", "addr_city": "Karachi", "osm_id": 12164867831, "osm_type": "nodes" }, "geometry": { "type": "Point", "coordinates": [ 67.0262543, 24.8697528 ] } },
{ "type": "Feature", "properties": { "name": "The Map School", "amenity": "school", "addr_city": "Karachi", "osm_id": 12167850976, "osm_type": "nodes" }, "geometry": { "type": "Point", "coordinates": [ 67.0279381, 24.8811181 ] } },
{ "type": "Feature", "properties": { "name": "Maheer", "amenity": "school", "addr_city": "Karachi", "osm_id": 12167854301, "osm_type": "nodes" }, "geometry": { "type": "Point", "coordinates": [ 67.0284594, 24.8799658 ] } },
{ "type": "Feature", "properties": { "name": "NASRA PUBLIC SCHOOL GARDEN SENIOR CAMPUS", "amenity": "school", "addr_city": "Karachi", "osm_id": 12167931449, "osm_type": "nodes" }, "geometry": { "type": "Point", "coordinates": [ 67.028323, 24.8814657 ] } },
{ "type": "Feature", "properties": { "name": "The Academics", "amenity": "school", "addr_city": "Karachi", "osm_id": 12168880200, "osm_type": "nodes" }, "geometry": { "type": "Point", "coordinates": [ 67.0284476, 24.8829069 ] } },
{ "type": "Feature", "properties": { "name": "Art of Learning Academy", "amenity": "school", "addr_city": "Karachi", "osm_id": 12168907912, "osm_type": "nodes" }, "geometry": { "type": "Point", "coordinates": [ 67.0307706, 24.8800581 ] } },
{ "type": "Feature", "properties": { "name": "The School of Knowledge", "amenity": "school", "addr_city": "Karachi", "osm_id": 12168932261, "osm_type": "nodes" }, "geometry": { "type": "Point", "coordinates": [ 67.0296284, 24.881187 ] } },
{ "type": "Feature", "properties": { "name": "KPITS (Pak Moharram Hall)", "amenity": "school", "addr_city": "Karachi", "osm_id": 12169701951, "osm_type": "nodes" }, "geometry": { "type": "Point", "coordinates": [ 67.0285311, 24.876388 ] } },
{ "type": "Feature", "properties": { "name": "AK Academy Cambridge Section", "amenity": "school", "addr_city": "Karachi", "osm_id": 12173650942, "osm_type": "nodes" }, "geometry": { "type": "Point", "coordinates": [ 67.0303973, 24.8815736 ] } },
{ "type": "Feature", "properties": { "name": "New blossom school", "amenity": "school", "addr_city": "Karachi", "osm_id": 12184187380, "osm_type": "nodes" }, "geometry": { "type": "Point", "coordinates": [ 67.0319472, 24.8799853 ] } },
{ "type": "Feature", "properties": { "name": "Aspire grammar school Graden campus", "amenity": "school", "addr_city": "Karachi", "osm_id": 12186058506, "osm_type": "nodes" }, "geometry": { "type": "Point", "coordinates": [ 67.0309648, 24.8807608 ] } },
{ "type": "Feature", "properties": { "name": "kidslearningclubb", "amenity": "kindergarten", "addr_city": "Karachi", "osm_id": 12168867086, "osm_type": "nodes" }, "geometry": { "type": "Point", "coordinates": [ 67.0284449, 24.8828425 ] } },
{ "type": "Feature", "properties": { "name": "Marigold Montessori", "amenity": "kindergarten", "addr_city": "Karachi", "osm_id": 12186060049, "osm_type": "nodes" }, "geometry": { "type": "Point", "coordinates": [ 67.0313272, 24.8824706 ] } },
{ "type": "Feature", "properties": { "name": "Kids Mania Montessori - ECD and Daycare", "amenity": "school", "addr_city": "Karachi", "osm_id": 12186077580, "osm_type": "nodes" }, "geometry": { "type": "Point", "coordinates": [ 67.0317431, 24.8826392 ] } },
{ "type": "Feature", "properties": { "name": "Guard Public School", "amenity": "school", "addr_city": "Karachi", "osm_id": 12190106719, "osm_type": "nodes" }, "geometry": { "type": "Point", "coordinates": [ 67.0262388, 24.8682127 ] } },
{ "type": "Feature", "properties": { "name": "Jamia Tul Madina Faizan E Okarvi(????? ??????? ????? ???????)", "amenity": "school", "addr_city": "Karachi", "osm_id": 12218673111, "osm_type": "nodes" }, "geometry": { "type": "Point", "coordinates": [ 67.0283644, 24.8712275 ] } },
{ "type": "Feature", "properties": { "name": "KOTWAL CASA", "amenity": "school", "addr_city": "Karachi", "osm_id": 12218676065, "osm_type": "nodes" }, "geometry": { "type": "Point", "coordinates": [ 67.0291006, 24.8729288 ] } },
{ "type": "Feature", "properties": { "name": "Parkview Nursery", "amenity": "school", "addr_city": "Karachi", "osm_id": 12218693125, "osm_type": "nodes" }, "geometry": { "type": "Point", "coordinates": [ 67.0300945, 24.8712222 ] } },
{ "type": "Feature", "properties": { "name": "Hijama Union Of Sunnah Risers", "amenity": "school", "addr_city": "Karachi", "osm_id": 12218698142, "osm_type": "nodes" }, "geometry": { "type": "Point", "coordinates": [ 67.0317298, 24.8706802 ] } },
{ "type": "Feature", "properties": { "name": "Little Angels Montessory", "amenity": "school", "addr_city": "Karachi", "osm_id": 12218717136, "osm_type": "nodes" }, "geometry": { "type": "Point", "coordinates": [ 67.0311626, 24.870826 ] } },
{ "type": "Feature", "properties": { "name": "Valeem", "amenity": "school", "addr_city": "Karachi", "osm_id": 12219323776, "osm_type": "nodes" }, "geometry": { "type": "Point", "coordinates": [ 67.0259008, 24.8669435 ] } },
{ "type": "Feature", "properties": { "name": "FCS Builing", "amenity": "school", "addr_city": "Karachi", "osm_id": 12219356441, "osm_type": "nodes" }, "geometry": { "type": "Point", "coordinates": [ 67.0245454, 24.8665928 ] } },
{ "type": "Feature", "properties": { "name": "Shining Stars Academy", "amenity": "school", "addr_city": "Karachi", "osm_id": 12219402528, "osm_type": "nodes" }, "geometry": { "type": "Point", "coordinates": [ 67.0304323, 24.8723209 ] } },
{ "type": "Feature", "properties": { "name": "Fatimiyah Short Stay Oxygenation Unit (FSSOU)", "amenity": "school", "addr_city": "Karachi", "osm_id": 12224054559, "osm_type": "nodes" }, "geometry": { "type": "Point", "coordinates": [ 67.0342117, 24.8742131 ] } },
{ "type": "Feature", "properties": { "name": "Qazi Khuda Bakhsh Govt School", "amenity": "school", "addr_city": "Karachi", "osm_id": 12238707854, "osm_type": "nodes" }, "geometry": { "type": "Point", "coordinates": [ 67.0306692, 24.8738811 ] } },
{ "type": "Feature", "properties": { "name": "Fatima Higher Education System", "amenity": "university", "addr_city": "Karachi", "osm_id": 12216922342, "osm_type": "nodes" }, "geometry": { "type": "Point", "coordinates": [ 67.0349391, 24.8741942 ] } },
{ "type": "Feature", "properties": { "name": "IBA City Campus", "amenity": "university", "addr_city": "Karachi", "osm_id": 12218772705, "osm_type": "nodes" }, "geometry": { "type": "Point", "coordinates": [ 67.0258845, 24.8669733 ] } },
{ "type": "Feature", "properties": { "name": "Vanthali Memon Association School", "amenity": "school", "addr_city": "Karachi", "osm_id": 12245829406, "osm_type": "nodes" }, "geometry": { "type": "Point", "coordinates": [ 67.0337062, 24.8724794 ] } },
{ "type": "Feature", "properties": { "name": "Saeeda's Foundation School", "amenity": "school", "addr_city": "Karachi", "osm_id": 12255410050, "osm_type": "nodes" }, "geometry": { "type": "Point", "coordinates": [ 67.0356734, 24.8743468 ] } },
{ "type": "Feature", "properties": { "name": "United Charter Schools - M.A Jinnah Campus", "amenity": "school", "addr_city": "Karachi", "osm_id": 12256200094, "osm_type": "nodes" }, "geometry": { "type": "Point", "coordinates": [ 67.0363409, 24.874075 ] } },
{ "type": "Feature", "properties": { "name": "Govt Secondary School", "amenity": "school", "addr_city": "Karachi", "osm_id": 5273167433, "osm_type": "nodes" }, "geometry": { "type": "Point", "coordinates": [ 67.1377905, 24.8742616 ] } },
{ "type": "Feature", "properties": { "name": "Sarkari Madrasa-e-Awami", "amenity": "school", "addr_city": null, "osm_id": 6862381965, "osm_type": "nodes" }, "geometry": { "type": "Point", "coordinates": [ 67.0098839, 24.8577342 ] } },
{ "type": "Feature", "properties": { "name": "Federal Urdu University of Arts Science & Technology", "amenity": "university", "addr_city": "?????", "osm_id": 5128445380, "osm_type": "nodes" }, "geometry": { "type": "Point", "coordinates": [ 67.0100341, 24.8610676 ] } },
{ "type": "Feature", "properties": { "name": "Cowasjee School of Midwifery", "amenity": "school", "addr_city": "Karachi", "osm_id": 5160729716, "osm_type": "nodes" }, "geometry": { "type": "Point", "coordinates": [ 67.0090089, 24.8589923 ] } },
{ "type": "Feature", "properties": { "name": "Govt Degree Boys College KMC Auditorium", "amenity": "college", "addr_city": "Karachi", "osm_id": 5119901766, "osm_type": "nodes" }, "geometry": { "type": "Point", "coordinates": [ 67.0109683, 24.8643174 ] } },
{ "type": "Feature", "properties": { "name": "Lashari House Karachi And College", "amenity": "college", "addr_city": "Karachi", "osm_id": 5128445379, "osm_type": "nodes" }, "geometry": { "type": "Point", "coordinates": [ 67.0085605, 24.8603183 ] } },
{ "type": "Feature", "properties": { "name": "Dow Dental College", "amenity": "college", "addr_city": "Karachi", "osm_id": 5119756633, "osm_type": "nodes" }, "geometry": { "type": "Point", "coordinates": [ 67.0108359, 24.8572366 ] } },
{ "type": "Feature", "properties": { "name": "Guidance Schooling System", "amenity": "school", "addr_city": "Karachi", "osm_id": 12154933025, "osm_type": "nodes" }, "geometry": { "type": "Point", "coordinates": [ 67.0138743, 24.8569806 ] } },
{ "type": "Feature", "properties": { "name": "YMCA School Saddar", "amenity": "school", "addr_city": "Karachi", "osm_id": 5119721594, "osm_type": "nodes" }, "geometry": { "type": "Point", "coordinates": [ 67.0252492, 24.8534068 ] } },
{ "type": "Feature", "properties": { "name": "Hyderi Public School", "amenity": "school", "addr_city": "Karachi", "osm_id": 5142917285, "osm_type": "nodes" }, "geometry": { "type": "Point", "coordinates": [ 67.0236207, 24.8542486 ] } },
{ "type": "Feature", "properties": { "name": "Trinity Girls College", "amenity": "college", "addr_city": null, "osm_id": 4514024715, "osm_type": "nodes" }, "geometry": { "type": "Point", "coordinates": [ 67.0245585, 24.8522297 ] } }
]
}
