{"type":"Topology","arcs":[[[16985,12689],[100,-43],[9,-40],[-26,-38],[-10,-97],[13,-70],[48,-26],[10,-31],[-32,-133],[39,-67],[-4,-48],[-39,-96],[-128,-51],[-68,-87],[28,-40],[-15,-60],[-79,-81],[-3,-32],[161,-170],[123,-4],[63,-20],[46,3],[34,-35],[42,-15],[-11,-72],[42,-123],[34,-46],[36,-91],[42,-79],[2,-88],[-44,-47],[-3,-56],[73,-50],[53,1],[49,-60],[53,-20],[17,-27],[18,-82],[62,-73],[100,-23],[93,-49],[39,-60],[94,-19],[14,-101],[65,-60],[-11,-123],[64,-111],[7,-64],[-5,-71],[-55,-18],[-35,-35],[-17,-76],[59,-43],[77,18],[66,-23],[53,14],[47,-36],[52,-76],[47,-35],[53,-59],[46,-10],[22,-58],[38,-19],[31,-50],[-17,-27],[0,-83],[-17,-32],[1,-68],[22,-52],[-11,-55],[184,-38],[1,-25],[-48,-56],[-71,-58],[-47,-94],[-30,-32],[16,-30],[-21,-51],[-47,-46],[-18,-59],[13,-57],[-39,-65],[3,-46],[-65,-81],[41,-34],[25,-85],[74,-109],[-33,-22],[-1,-99],[19,-85],[-56,-68],[-16,-78],[41,-71],[42,-10],[84,-49],[71,-85],[60,-101],[-9,-33],[-47,-46],[-32,-56],[-33,-113],[-8,1],[-45,-96],[-88,-74],[-25,-56],[44,-77],[65,-35],[29,-50],[-3,-40],[28,-121]],[[18700,6561],[-22,-29],[-70,13],[-17,-9],[-64,13],[-25,-7],[-10,-38],[-35,-35],[-100,-56]],[[18357,6413],[0,-71],[-57,-94],[-70,-5],[-48,-58],[-69,6],[-15,27],[-54,8],[-49,-11],[-37,-82],[-129,4],[-50,-6],[-126,-76],[-51,-55],[-54,-15],[-47,64],[-94,-1],[-27,-32],[-42,-8],[-34,61],[-62,37],[-50,73],[-33,65],[22,22],[-42,49],[-45,8],[-61,73],[-12,30],[-52,39],[-34,-8],[-87,19],[-102,-3],[-76,-22],[-34,-24],[-54,-81],[-49,-20]],[[16533,6326],[-35,40],[-18,79],[-66,12],[-32,57],[-44,9],[-19,59],[-84,105],[-49,-1],[-23,53],[-37,35],[-15,36],[-119,24],[-29,47],[-102,9],[-35,23],[-53,10],[-46,27],[-19,58],[6,36],[-91,37],[-105,-12],[-75,8],[-46,21],[-62,79],[-17,48],[-9,72],[-21,52],[79,45],[-29,64],[12,83],[-25,34],[-17,68],[-24,29],[16,111],[-21,13],[-45,76],[-15,87],[8,19],[-66,133],[-18,167],[-4,91],[-22,23],[-57,-18],[-3,58],[-17,38],[10,93],[-27,73],[12,36],[-18,24],[3,48],[29,66],[-106,3],[-14,41],[45,83],[-31,47],[41,101],[-26,42],[23,35],[-14,29],[4,54],[31,36],[64,-16],[27,11],[15,63],[-46,63],[46,57],[21,3],[-9,83],[20,29],[-20,67],[-53,44],[2,47],[35,37],[-22,60],[-28,26],[3,50],[-70,102],[-38,38],[41,38],[-44,57],[-62,-12],[-104,22],[-60,-29],[-17,9],[-63,89],[-46,31]],[[14594,10250],[-44,60],[49,79],[-7,36],[-76,71],[-15,94],[7,58],[22,47],[137,-1],[51,27],[54,50],[19,45],[25,107],[40,44],[-26,178],[14,142],[2,95],[-15,39],[-54,41],[-79,16],[-2,77],[49,23],[-8,77],[-25,26],[-58,-6],[-29,20],[-92,7],[-29,50],[1,45],[-22,31],[10,66],[-71,87],[96,115],[-20,54],[24,18],[47,124],[-27,106],[1,60],[-41,47],[-58,107],[-1,32],[-68,67]],[[14375,12711],[52,19],[63,83],[28,23],[108,41],[63,-34],[77,-16],[101,-74],[108,-24],[83,-34],[104,-73],[29,-72],[72,-51],[69,-29],[68,46],[109,131],[21,38],[66,-11],[38,-20],[43,27],[37,3],[62,49],[101,48],[89,23],[36,64],[59,46],[79,48],[90,11],[6,-29],[39,-49],[38,-10],[128,3],[32,-67],[75,-37],[15,-23],[95,-48],[84,2],[26,-35],[30,0],[35,44],[30,-61],[61,-25],[41,14],[20,37]],[[7377,4214],[27,-12],[51,-87],[40,-38],[24,-95],[-8,-53],[13,-42],[37,-44],[30,-106],[46,-71],[-16,-61],[34,-68],[87,3],[77,12],[40,-19],[0,-53],[30,-61],[1,-39],[-46,-55],[-17,-51],[7,-62],[-11,-28],[40,-26],[69,-8],[39,23],[73,14],[75,36],[95,1],[57,-18],[90,-9],[25,-58],[85,-147],[72,-82],[18,-88],[-2,-45],[28,-22],[4,-74],[-12,-59],[41,-103],[9,-66],[-7,-60],[29,-15],[11,-67],[93,3],[80,-74],[-66,-82],[-14,-37],[29,-67],[15,-93],[48,-22],[88,-79],[37,-96],[-25,-35],[-89,-22],[-82,11],[-47,26],[-63,0],[-23,-22],[15,-111],[15,-15],[-10,-55],[-47,-13],[-6,-44],[24,-29],[-17,-23],[25,-15],[-23,-41],[-30,10],[2,-63],[29,-50],[-31,-46],[3,-34],[-26,5],[-36,-39],[10,-35],[-17,-25],[27,-103],[-27,-5],[-39,51],[-45,-71],[23,-33],[-26,-46],[-51,39],[-53,-60],[5,-46],[-27,-47],[-40,-37],[-24,-45],[0,-37],[-30,-38],[30,-97],[-25,-109],[69,-69],[26,2],[1,-54]],[[8317,294],[-193,-79],[-51,42],[2,19],[-73,9],[-75,60],[-98,-36],[-91,57],[-56,1],[-11,-68],[-76,-122],[-94,-15],[-32,42],[-94,20],[-23,-51],[-60,-3],[-6,45],[-45,51],[45,100],[78,53],[68,21],[39,49],[-13,75],[32,12],[20,48],[28,1],[-27,56],[6,32],[-64,14],[-40,40],[-53,12],[-92,-49],[-45,76],[-133,21],[-33,28],[-58,4],[-75,42],[-119,36],[-64,132],[-41,-2],[-64,-30],[-92,30],[-56,-12],[-26,10],[-118,-13],[-20,-15],[-274,-76],[-38,0],[-72,30],[-88,114],[-13,75],[9,49],[-94,90],[-134,-43],[-74,42],[-200,13],[-50,161],[-38,31],[-96,-40]],[[5162,1483],[6,37],[45,62],[0,60],[-28,76],[-52,39],[-96,-18],[-29,-60],[-79,-19],[-23,-28],[-54,31],[-3,38],[39,42],[11,66],[-23,26],[-51,13],[8,54],[31,51],[-17,45],[-78,-5],[-25,43],[-64,-12],[-21,25],[-56,-1],[-24,61],[-41,36],[-36,-9],[-23,-39],[-64,15],[-10,52],[-33,37],[-46,17],[38,17],[14,80],[-8,33],[-60,86],[8,54],[65,25],[62,-7],[107,96],[45,52],[28,52],[72,81],[56,111],[-13,25],[31,34],[3,33],[38,46],[26,128],[-60,119],[-32,44],[18,64],[-5,33],[15,56],[-16,113]],[[4758,3593],[-16,97],[-51,98],[19,55],[104,78],[77,23],[67,34],[-3,50],[-39,89],[34,80],[33,30],[35,71],[148,165],[-22,61],[-96,66],[-35,44],[-27,78],[-37,52],[5,49]],[[4954,4813],[39,17],[85,-9],[94,16],[34,19],[124,-4],[57,-20],[42,20],[76,7],[81,111],[26,-41],[46,-29],[27,-44],[91,-74],[67,-12],[52,-30],[-1,-21],[58,-46],[224,-41],[55,-20],[68,17],[48,-31],[29,-1],[20,52],[43,39],[3,37],[-27,35],[-22,87],[-3,73],[18,71],[44,71],[24,100],[-8,33],[32,45],[-2,30],[21,74],[39,55],[64,62],[11,64],[-6,88],[33,75],[-5,92]],[[6655,5780],[39,-7],[93,-65],[53,-122],[30,-10],[-12,-61],[9,-42],[-2,-110],[10,-57],[22,-11],[71,6],[27,29],[72,-18],[43,-35],[89,6],[71,-19],[28,-40],[42,-29],[-15,-79],[-129,-48],[-15,-32],[-68,-25],[-56,-7],[-51,-71],[-25,-51],[-22,-105],[-1,-113],[-74,-37],[-24,-69],[77,11],[25,-22],[24,-104],[64,-93],[82,-52],[35,-44],[13,-50],[94,-24],[103,34]],[[10997,3888],[12,-158],[-20,-50],[28,-37],[17,-58],[-4,-66],[-28,-29],[-31,-102],[69,-43],[-17,-65],[21,-68],[-20,-86],[-1,-48],[-18,-71],[4,-97],[-17,-25],[-9,-62],[1,-104],[23,-24],[-17,-53],[14,-69],[-43,-66],[-6,-111],[-52,-98],[-61,-61],[-40,-19],[-28,-37],[-9,-108],[-57,-81],[-59,26],[-43,-7],[-104,-106],[35,-63],[8,-67],[-30,-73],[-50,-6],[40,-57],[-2,-46],[-33,-22],[121,-11],[-39,-49],[-44,-26],[-3,-42],[39,-86],[60,-72],[36,-20],[44,-123],[31,28],[68,20],[39,-7]],[[10822,1183],[-60,-37],[16,-63],[-6,-38],[21,-36],[-3,-88],[28,-59],[7,-110],[-26,-25],[18,-105],[-12,-36],[54,-91],[-40,-2],[-28,53],[-43,19],[-56,-4],[-12,40],[-24,11],[-23,57],[-51,-4],[-24,-71],[37,-21],[2,-76],[-99,-199]],[[10498,298],[-105,-18],[-250,-62],[-578,6],[-286,122],[-34,-21],[45,-43],[2,-32],[-21,-101],[29,-99],[-19,-50],[-184,49],[-240,48],[-115,-24],[-217,-58],[-45,22],[-46,102],[-59,41],[30,101],[-44,48],[-44,-35]],[[7377,4214],[0,45],[21,19],[64,101],[0,26],[-37,53],[43,177],[29,56],[3,136],[74,49],[16,38],[67,19],[68,3],[21,33],[81,14],[34,32],[-5,52],[30,40],[3,36],[46,12],[48,33],[15,86],[26,25],[2,69],[72,-23],[30,20]],[[8128,5365],[61,-29],[68,63],[87,32],[45,0],[79,31],[76,-17],[91,5],[130,-113],[69,16],[61,-2],[115,52],[47,10],[42,-75],[34,-39],[51,2],[33,-24],[61,-129],[30,-43],[50,-19],[32,-44],[30,-4],[70,-44],[96,-20],[48,-147],[54,-44],[-17,-36],[26,-71],[-11,-34],[64,-59],[43,-100],[-4,-32],[23,-26],[19,-66],[74,-38],[52,-16],[18,-75],[28,-21],[56,-4],[39,28],[47,-2],[52,-36],[184,13],[50,-82],[38,-3],[129,-81],[109,16],[32,-10],[79,6],[110,-101],[43,-23],[26,-42]],[[14230,12720],[-25,-39],[-51,-117],[-33,-27],[-73,-24],[-42,-55],[-28,-82],[-57,-45],[-171,27],[-80,-9],[-41,-45],[-53,-34],[-4,-142],[17,-80],[36,-35],[9,-31],[-46,-75],[54,-99],[14,-76],[-21,-57],[39,-119],[-2,-48],[-37,-62],[-34,-27],[-28,4],[-25,38],[-56,14],[-36,-18],[-23,-40],[-28,-8],[-97,54],[-91,21],[-35,-10],[-86,-115],[-80,-10],[-42,49],[-57,35],[-67,7],[-21,78],[-68,81],[-56,130],[-8,48],[-35,45],[41,117],[-15,67],[-63,65],[-60,18],[-27,54],[-53,30],[-63,1],[-68,-39],[-21,-30],[-94,-32],[-99,11],[-141,-21],[-34,-27],[-12,-50],[4,-49],[-26,-46],[-2,-62],[-32,-33],[-41,-95],[-47,-52],[-2,-35],[-51,-43],[-60,-111],[-39,-44],[-29,-55],[-29,-17],[-79,-119],[-16,-94],[-28,-26],[-25,-101],[-85,-92],[-44,-21],[-64,-76],[-46,0],[-93,54],[-52,-5],[-34,13],[-16,-18],[-46,6],[-46,-28],[-71,-18],[-74,5],[-46,-32],[-27,-73],[12,-24],[2,-114],[-15,-36],[0,-101]],[[10706,10444],[-35,16],[-140,20],[-30,67],[-44,29],[-87,34],[-41,5],[-71,32],[-55,42],[-76,19],[-54,-5],[-50,32],[-4,33],[-59,42],[2,14],[-94,60],[-36,13],[-50,-9],[-44,59],[-56,-36],[-71,-31],[-21,11],[-31,-48],[-51,-2],[-55,21],[-64,-18],[-23,6],[-73,-44],[-46,-39],[-62,-31],[-13,-65],[-35,-40],[-28,-58],[-12,-54],[-20,-25],[-23,-70],[-40,-37],[-41,-4],[-52,-69],[-17,-62],[-39,-8],[-61,-38],[-26,-36],[-5,-45],[-64,-123],[-85,-34],[-39,-41],[-2,49],[-54,96],[-56,25],[-27,43],[-93,-48],[-23,-58],[-44,-56],[-22,-53],[-75,-38],[34,-84],[-43,-31],[-45,-13],[-33,-45],[-39,-18],[-84,24],[-61,-18],[-30,-24],[-22,17],[-149,44],[-65,42],[-25,-35],[-48,-20],[-59,-2],[-84,24],[-12,-56],[-42,-62],[-17,-1]],[[7365,9629],[-29,5],[-6,29],[-52,18],[-92,10],[-81,21],[-46,36],[-62,82],[24,56],[-42,94],[-26,22],[-2,55],[-37,42],[1,102],[-35,50],[-62,8],[-101,-24],[-72,-104],[-52,14],[-1,-49],[-20,-94],[-48,-37],[-73,12],[-57,37],[-14,34],[-38,34],[-9,57],[-41,29],[49,32],[22,-6],[40,48],[-16,49],[32,53],[-20,37],[17,11],[-13,46],[45,53],[7,49],[-12,82],[-24,60],[-45,45],[78,62],[25,36],[-6,34],[33,21],[42,58],[30,16],[3,52],[46,22],[52,52],[29,9],[42,78],[19,80],[53,49],[122,18],[56,48],[-8,54],[-75,-3],[-58,26],[-145,13],[-17,27],[-87,12],[-32,43],[-42,23],[-19,51],[-1,68],[36,74],[6,134],[-20,68],[-42,78],[-107,2],[-81,15],[-54,26],[-116,97],[-61,8],[-96,-22],[-45,12],[-19,39],[-46,34]],[[5869,12241],[-6,74],[134,48],[18,22],[8,59],[-83,84],[-5,54],[115,72],[5,45],[49,56],[26,69],[26,7],[54,56],[17,47],[77,66],[1,52],[48,89],[76,-40],[74,-12],[42,-17],[53,43],[63,91],[27,15],[-4,86],[24,38],[64,32],[34,-8],[27,18],[74,85],[15,59],[69,54],[63,114],[-15,82],[56,7],[35,24],[80,25],[85,-38],[28,1],[69,55],[55,17],[28,-28],[100,-10],[12,21],[95,31],[81,93],[88,-34],[146,-16],[85,-55],[70,12],[52,63],[13,100],[35,8],[54,-42],[83,-3],[39,35],[51,16],[56,69],[9,109],[-41,66],[-8,40],[52,11],[63,36],[54,46],[37,112],[33,12],[73,-94],[79,28],[55,-2],[50,-30],[57,-95],[31,-14],[118,19],[60,23],[76,-75],[17,-51],[40,-66],[93,-73],[2,-47],[61,-65],[11,-49],[93,-22],[61,50],[67,11],[98,3],[67,22],[3,-36],[-42,-34],[-10,-37],[16,-54],[23,-24],[62,26],[31,64],[52,73],[135,40],[122,-70],[62,-100],[60,-29],[68,-12],[85,-65],[18,-125],[69,-72],[52,-28],[73,50],[33,80],[72,45],[56,-19],[51,-1],[73,18],[51,-46],[102,-117],[78,-24],[87,14],[26,24],[-12,113],[-50,51],[0,72],[58,115],[-55,149],[169,5],[62,-37],[132,-7],[56,-57],[111,-35],[53,-65],[3,-58],[-15,-50],[74,-32],[50,-51],[153,-42],[149,-60],[159,-5],[112,135],[163,11],[54,-18],[19,-131],[32,-76],[33,-46],[41,-25],[147,-10],[52,-31],[55,-78],[32,-64],[56,-12],[22,-40],[58,-45],[2,-40],[47,-104],[6,-92],[33,-62],[78,-45],[91,17],[37,18],[27,59],[62,-11],[44,-34],[95,16],[146,-62],[65,-8],[73,-86]],[[4758,3593],[-105,-17],[-95,19],[-43,-19],[-179,67],[-32,-42],[-44,-6],[-57,11],[-24,-12],[-67,-111],[-31,-28],[-1,-83],[-55,-129],[-41,-36],[-19,-79],[-72,-37],[-3,-18],[-47,49],[-36,84],[-57,51],[-38,57],[-61,25],[-30,59],[4,32],[-30,105],[-59,76],[-3,37],[-42,35],[-70,-186],[4,-59],[-19,-59],[-55,-47],[-15,-47],[-73,-43],[-91,-24],[-83,-64],[-72,8],[-45,38],[-41,62],[-24,14],[-76,10],[-20,53],[-56,46],[-81,27],[13,24],[-4,63],[-35,45],[-60,33],[-29,36],[-93,47],[-21,40],[-59,14],[-70,94],[-10,44],[11,49],[-22,70],[-50,69],[-39,37],[-107,39],[-36,-24],[-43,43],[-60,32],[38,62],[-16,30],[11,79],[-16,23],[57,117],[12,123],[-23,58],[1,101],[-50,42],[-22,69],[-48,53],[-40,26],[-36,45],[-82,142],[-19,8],[-17,115],[-46,45],[-49,7],[-36,33],[-135,40],[-63,-12],[-37,50]],[[1344,5423],[4,45],[51,81],[-44,85],[0,44],[88,162],[-4,69],[58,15],[22,58],[62,14],[40,-37],[73,-103],[31,-26],[32,-61],[106,-75],[34,19],[43,65],[47,39],[122,49],[31,41],[-25,95],[-21,44],[-53,38],[-56,55],[-66,38],[20,60],[-28,78],[3,58],[-26,118],[-31,82],[-40,32],[27,25],[43,90],[39,49],[12,37],[-36,81],[35,83],[48,23],[34,119],[26,53],[-29,109],[-74,97],[-17,37],[60,32],[71,79],[27,10],[72,-19],[22,30],[-18,36],[-77,106],[4,55],[45,68],[36,10],[162,101],[61,81],[1,48],[-19,52],[51,56],[-10,80],[-21,42],[24,78],[58,12],[45,58],[48,41],[59,11],[96,80],[27,11],[107,-2],[128,-62],[36,76],[105,60]],[[3125,8638],[69,-56],[16,-36],[46,-12],[66,-44],[13,-34],[-14,-70],[16,-32],[96,-54],[32,-66],[128,7],[97,16],[34,-15],[156,-120],[60,0],[65,45],[32,8],[38,-21],[24,-47],[17,-126],[0,-83],[62,-70],[29,-52],[-13,-24],[2,-95],[30,-10],[-10,-48],[5,-70],[38,-69],[-1,-119],[14,-15],[60,-2],[33,-40],[55,-31],[44,-45],[67,-34],[38,-58],[-30,-52],[-12,-55],[45,-70],[7,-35],[72,-23],[-2,-58],[72,-40],[28,-29],[58,-154],[11,-62],[42,-41],[-2,-65],[50,-12],[38,-76],[67,-80],[13,-36],[81,-38],[21,-62],[6,-99],[21,-6],[31,-53],[41,-24],[7,-46],[42,-23],[40,-40],[-72,-112],[-44,-21],[-31,-36],[-9,-41],[-33,-5],[-46,-40],[-40,-11],[-97,-7],[-12,-25],[-66,-57],[-16,-33],[19,-44],[-10,-89],[34,-65],[-8,-149],[-13,-84],[22,-19],[12,-63],[56,-81],[-8,-42]],[[22685,12050],[-69,-46],[-65,-55],[-45,7],[-84,43],[-49,5],[-92,-76],[-52,-97],[-67,-87],[-52,-48],[-65,-76],[-65,-36],[-30,14],[-67,0],[-50,-93],[-6,-35],[40,-46],[5,-55],[-18,-68],[-4,-143],[-42,-158],[-33,-70],[3,-84],[44,-125],[-9,-58],[9,-70],[-27,-33],[-36,-97],[-51,-78],[43,-98],[-14,-46],[4,-52],[-42,-83],[-24,-83],[-71,-94],[-28,-53],[16,-65],[-12,-52],[25,-29],[67,-153],[-7,-67],[-75,-91],[-12,-28],[21,-65],[13,-122],[18,-62],[-17,-48],[7,-43],[-20,-107],[51,-96],[-18,-119],[-57,-51],[-49,-156]],[[21527,8522],[-18,-60],[-71,-110],[-37,-113],[48,-64],[26,-133],[-70,-20],[-42,-36],[-55,-9],[-65,-36],[-31,-64],[-31,-26],[-79,-34],[-19,-29],[-37,-135],[16,-18],[9,-109],[62,-31],[47,-83],[-12,-149],[-11,-72],[-67,-83],[-2,-38],[-53,-131],[-99,-6],[-33,-14],[-28,-38],[-59,-50],[-72,-9],[-103,-30],[-25,-37],[-50,-36],[-110,-42],[-27,-24],[-74,-36],[-19,-31],[-30,6],[-23,57],[-60,65],[-16,33],[-37,129],[-29,51],[-54,14],[-78,0],[-101,28],[-134,-4],[-99,44],[-26,-39],[-55,-36],[-59,-59],[-77,-59],[-52,-23],[-38,-61],[-48,-37],[-24,-44],[-44,-33],[-20,9],[-50,-21],[-28,-34],[-25,-74],[-90,1],[-94,34],[-84,7],[-38,13],[-123,8]],[[16985,12689],[17,11],[44,80],[30,18],[9,58],[21,45],[66,9],[24,-43],[130,-33],[-31,-68],[32,-45],[82,-22],[74,-7],[37,23],[84,-5],[67,-49],[123,-21],[88,-36],[9,-47],[-12,-64],[124,-10],[46,28],[15,32],[-7,64],[53,41],[41,-10],[121,-84],[59,-28],[44,-82],[5,-74],[56,-51],[61,-21],[28,-43],[38,-3],[80,43],[2,58],[47,81],[69,-2],[54,17],[62,-3],[41,15],[76,-105],[86,-64],[68,11],[14,-14],[17,-90],[150,-33],[-7,71],[25,33],[63,-20],[33,4],[73,-44],[56,48],[69,-86],[28,-15],[98,31],[99,-12],[24,-18],[70,10],[117,-83],[20,36],[147,47],[85,-51],[78,-10],[50,14],[44,41],[45,13],[141,85],[67,75],[91,18],[66,59],[172,46],[-4,43],[99,95],[101,129],[32,113],[115,1],[72,19],[82,-46],[-13,-24],[13,-91],[47,-11],[86,8],[59,-17],[51,-63],[77,-65],[73,-29],[61,6],[26,-21],[43,-72],[30,-13],[111,2],[131,-71],[35,-31],[32,7],[165,-40],[-9,-54],[42,-43],[19,-130],[26,-10]],[[22258,6732],[-14,-33],[37,-75],[8,-72],[-103,-86],[59,-5],[86,-44],[41,-11],[13,-47],[40,-39],[11,-45],[47,-44],[35,-54],[59,-21],[71,14],[28,-5],[9,-36],[54,-8],[48,-59],[-30,-66],[53,-73],[35,-24],[-8,-85],[15,-80],[-65,-41],[-17,-27],[-89,-70],[-118,-32],[-44,-89],[-84,-16],[-36,-75],[-55,2],[-75,-14],[-50,-27],[-55,-68],[-29,-86],[-53,-48],[-23,-49],[-53,-34],[-35,-85],[9,-85],[18,-26],[-37,-41],[2,-79],[33,-57],[-4,-34],[-36,1],[-63,-28],[-50,-127],[18,-23],[-18,-65]],[[21843,4411],[-44,-15],[-14,-29],[18,-42],[-29,-16],[-40,-53],[-26,-1],[-3,-51],[24,-28],[-2,-39],[-27,-21],[34,-22],[-7,-52],[44,-8],[-5,-75],[-74,4],[-1,-49],[-73,-31],[-5,-55],[32,-32],[-51,4],[-30,-15],[-2,-56],[16,-30],[-27,-27],[-11,-42],[29,-41],[-8,-17],[-75,-8],[-7,-37],[-90,22],[-59,-15],[-17,22],[-31,-19],[2,-49],[-34,-41],[-48,34],[-76,-82],[-82,-39],[-60,16],[-77,-13],[-30,-25],[-79,-32],[-46,11],[-68,-33],[-22,-99],[-86,-48],[-14,-43],[0,-87],[-55,-44],[-10,-105],[-46,-51],[-55,-82],[-49,-24],[-24,-44],[6,-88],[-8,-68],[-59,-8],[-69,-47],[-13,-41],[9,-108],[46,-63],[-2,-41]],[[20233,2193],[-157,133],[-50,-14],[-26,45],[-42,10],[-82,77],[17,40],[-9,71],[-59,21],[-58,53],[-109,-6],[-49,7],[-83,33],[-26,22],[26,49],[-1,64],[-59,82],[7,145],[-28,51],[18,36],[6,76],[-42,33],[-22,62],[-34,33],[-47,-11],[-29,13],[-85,9],[-46,33],[-99,23],[-58,-14],[-3,74],[-12,19],[17,92],[-57,143],[6,41],[-28,78],[-101,31],[-12,36],[-59,38],[-5,99],[17,28],[7,65],[-10,85],[-21,44],[32,41],[12,67],[22,19],[90,30],[-1,56],[18,166],[-11,32],[19,67],[-17,41],[-8,77],[43,64],[-108,123],[-34,16],[18,41],[-9,41],[37,142],[-87,72],[-50,27],[-42,52],[-40,19],[-24,41],[22,109],[-74,75],[17,57],[-16,88],[-37,22],[17,90],[-28,39],[13,37],[-18,33],[28,64],[-93,10],[-25,73],[11,67],[-22,54],[1,52],[-45,67]],[[21527,8522],[40,-98],[56,-17],[31,-56],[38,-36],[18,-128],[50,-54],[87,-44],[2,-105],[39,-43],[27,-52],[78,-63],[115,-162],[21,-73],[86,-101],[63,-11],[23,-46],[16,-122],[67,-53],[15,-168],[46,-71],[9,-33],[-36,-51],[-68,-39],[-9,-51],[-70,-62],[-13,-51]],[[3125,8638],[47,33],[31,59],[-30,48],[95,49],[22,34],[-33,85],[28,51],[97,77],[51,84],[27,-50],[58,12],[23,42],[0,66],[29,73],[9,87],[36,-1],[82,27],[6,61],[43,141],[72,-13],[49,4],[61,55],[30,44],[5,105],[19,36],[-10,74],[-41,22],[55,265]],[[3986,10208],[16,-23],[15,-102],[41,-27],[13,-60],[36,-27],[26,-87],[33,-59],[74,-42],[46,6],[65,-13],[32,-39],[-16,-24],[-47,-20],[-29,-97],[0,-40],[27,-3],[40,25],[102,14],[7,82],[142,-52],[41,-26],[86,-18],[55,21],[49,66],[-2,60],[53,36],[74,28],[32,-5],[30,21],[88,-58],[55,-51],[83,96],[56,42],[55,15],[26,41],[28,0],[83,33],[31,-49],[1,-97],[-24,-110],[9,-51],[-43,-29],[15,-12],[32,-84],[-32,-46],[-2,-56],[71,-50],[51,-113],[24,-34],[-33,-11],[-14,-70],[-43,7],[-93,-55],[-32,-94],[-42,-22],[77,-62],[27,0],[49,69],[88,21],[10,-76],[57,-33],[9,-37],[32,0],[34,-33],[15,-41],[63,-56],[32,-9],[-7,-32],[90,-97],[60,-20],[60,0],[-15,-38],[-55,-31],[23,-50],[61,-45],[-13,-49],[34,-104],[24,-29],[32,3],[56,-37],[66,1],[19,-57],[-6,-33],[-30,-20],[-78,-8],[-4,-94],[-18,-51],[15,-85],[-13,-55],[26,-66],[-1,-85],[-20,-73],[-36,-62],[9,-98],[24,-46],[-77,-99],[-10,-37],[39,-145],[-25,-140],[10,-91],[43,-43],[78,-5],[188,-83],[21,-127],[17,-45],[-92,-106],[-21,-50],[-2,-102],[56,-55],[66,1],[65,-64],[78,-33],[59,-60],[-11,-84],[-25,-51],[25,-128]],[[23042,2965],[-55,12],[-53,41],[-7,44],[-38,7],[-51,35],[-25,-37],[-40,3],[-20,-51],[-82,-63],[-57,23],[-44,-22],[-12,-71],[2,-125],[-32,-2],[-60,-37],[-50,-85],[-26,-13],[-17,-44],[7,-57],[-21,-31],[26,-47],[-6,-58],[40,-42],[18,-45],[-32,-68],[-50,-46],[-26,-67],[2,-28],[-58,-94],[-95,-20],[-46,-23],[-16,-68],[-43,-25],[-21,-38],[9,-133],[13,-22],[-12,-42],[19,-30],[3,-101],[-107,-58],[20,-54],[50,-34],[34,-4],[27,-36]],[[22110,1309],[-264,-417],[-318,-133],[-340,56],[-164,126],[-331,110],[-371,12],[-386,-23],[-401,104],[-350,-375],[-116,17],[-23,-4],[-163,28]],[[18883,810],[-35,121],[-28,43],[6,43],[-27,48],[-15,72],[-52,89],[19,27],[55,3],[4,71],[-25,49],[72,49],[9,43],[43,52],[64,3],[31,31],[64,-29],[67,-6],[98,59],[91,19],[21,28],[72,23],[36,48],[29,-19],[-2,-48],[21,-5],[97,74],[29,-15],[38,-50],[54,-12],[77,-51],[66,51],[34,49],[133,33],[75,67],[4,20],[-30,50],[3,94],[47,83],[-18,67],[41,42],[83,20],[-1,47]],[[21843,4411],[83,-36],[79,-4],[41,12],[62,40],[89,-2],[38,-29],[78,28],[91,-23],[0,38],[-21,24],[81,52],[30,-25],[56,-5],[56,-28],[30,-44],[81,-185],[-38,-56],[5,-56],[28,-61],[-14,-17],[-66,10],[-11,-19],[110,-71],[44,-11],[39,-33],[57,-117],[0,-59],[59,-45],[-7,-52],[11,-34],[-6,-60],[44,-36],[89,54],[41,-17],[53,-61],[59,19],[25,-43],[53,-43],[-53,-87],[10,-19],[-50,-41],[-6,-60],[-72,-101],[-74,-35],[-5,-108]],[[10706,10444],[-2,-86],[10,-84],[14,-23],[14,-77],[-14,-66],[-30,-62],[-160,-100],[-33,-65],[-117,-91],[-36,-55],[-33,-95],[16,-23],[-34,-100],[7,-80],[-28,-33],[103,-69],[88,-40],[77,7],[47,34],[66,9],[80,-25],[67,-76],[50,-88],[42,-25],[63,-68],[14,-87],[-68,-70],[-44,-21],[0,-39],[-51,-75],[-36,-27],[-126,6],[-56,-12],[-1,-37],[-38,-60],[-89,-71],[5,-27],[-47,-89],[-48,-8],[-60,-47],[-71,-17],[-41,-29],[-28,-96],[-76,-47],[-27,0],[-52,-57],[21,-53],[-20,-55],[-116,-75],[-77,-84],[37,-134],[-18,-56],[-81,-45],[-77,58],[-73,3],[-19,20],[-81,-13],[-47,-30],[-9,-52],[17,-72],[45,-65],[-36,-24],[-49,-5],[-48,-39],[-229,-85],[-65,-39],[-83,-5],[-133,47],[-59,-61],[-100,10],[-52,-20],[-18,-25],[-217,-36]],[[8436,7218],[-28,21],[6,28],[-41,61],[-32,68],[-4,37],[-72,36],[-43,48],[-19,74],[-29,65],[-24,21],[-46,-4],[-37,45],[-69,32],[-38,104],[46,91],[-32,121],[-98,94],[-44,0],[-35,21],[-17,65],[-17,15],[-7,52],[-41,136],[-3,32],[-61,81],[-42,2],[-45,74],[-28,24],[-22,63],[-14,101],[25,66],[26,16],[10,74],[-19,32],[12,44],[-11,42],[12,100],[36,72],[-52,25],[17,52],[-25,45],[-64,51],[-63,-20],[-28,78],[25,39],[-36,87]],[[27363,4530],[-45,-67],[-55,-38],[-1,-89],[31,-68],[10,-64],[28,-68],[-31,-162],[-51,-71],[-15,-38],[6,-46],[30,-58],[1,-40],[23,-47],[-2,-99],[50,-105],[-1,-65],[47,-59],[10,-42],[79,0],[104,-45],[71,-47],[58,-6],[8,-71],[-30,-32],[-13,-93],[8,-25],[123,-44],[22,-31],[45,-28],[50,-156],[-22,-31],[4,-49],[64,-56],[58,-23],[2,-74],[13,-81],[-56,-43],[0,-62],[24,-23],[3,-44],[-18,-24],[14,-83],[-8,-99],[30,-68],[-28,-123],[-117,-141],[1,-131],[-138,-75],[-246,-112],[-329,23],[-282,77],[-106,115],[-54,116],[-179,121],[-417,222],[-58,-24],[-216,-28],[-293,-465],[-179,-100],[-678,-394],[-130,12],[-127,-59],[-533,134],[-284,-152],[-391,-57],[-410,-71],[-260,106],[-182,114],[-285,235]],[[23042,2965],[36,47],[57,14],[63,40],[46,13],[33,-15],[30,47],[44,30],[51,56],[218,68],[52,44],[45,15],[22,74],[79,-41],[97,1],[90,-68],[89,-8],[22,33],[38,-4],[124,29],[30,53],[71,49],[39,-3],[31,26],[93,36],[78,-15],[62,48],[63,31],[99,-34],[36,59],[120,12],[79,-19],[65,34],[70,8],[48,43],[27,94],[68,35],[33,40],[6,82],[58,57],[-1,34],[31,48],[89,52],[43,62],[159,51],[68,50],[79,3],[162,55],[107,-37],[0,34],[78,19],[49,-12],[79,-51],[29,-2],[-30,96],[23,65],[-9,17],[4,131],[29,74],[-1,54],[-21,49],[1,105],[17,49],[-15,61],[5,76],[67,112],[74,-13],[46,-24],[30,-34],[21,-55],[0,-49],[30,-62],[-9,-60],[29,-64],[55,-74],[-5,-59],[16,-35],[90,-63],[98,-45],[129,-5],[40,7],[72,-20],[66,15],[85,-1]],[[5162,1483],[-338,-140],[-30,75],[-40,2],[-68,-57],[-37,-7],[-82,-42],[-59,-51],[-65,-34],[-21,-43],[-25,21],[-92,-99],[-16,-42],[-191,47],[-100,-6],[-280,-69],[-143,79],[-350,-108],[-84,135],[-74,20],[-122,173],[46,167],[-113,116],[26,179],[-133,51],[-84,62],[-172,-44],[12,160],[-77,64],[-92,2],[-72,167],[-211,-136],[-28,-25],[-100,-61],[-144,69],[-161,92],[30,20],[2,35],[35,57],[10,130],[-12,12],[-13,85],[-188,171],[-48,50],[-6,-25],[-37,-13],[-40,-56],[-12,-42],[-45,-6],[-56,-67],[-41,-83],[-44,-49],[-67,-108],[-22,-17],[-61,176],[17,79],[-7,53],[6,98],[-24,67],[47,195],[-4,95],[42,137],[-16,35],[0,108],[11,108],[-29,41],[10,39],[-19,27],[-2,137],[-27,107],[-2,50],[-20,32],[-18,-22],[-132,-6],[-68,25],[-13,22],[-59,16],[-92,60],[-44,10],[-53,51],[-50,94],[-73,-26],[-77,-12],[-116,15],[-49,-4],[-146,55],[-20,21],[26,31],[63,6],[29,43],[-27,56],[-1,63],[62,111],[62,46],[58,15],[67,-17],[19,69],[-3,57],[23,14],[61,92],[10,68],[26,72],[-5,108],[16,78],[-11,64],[206,89],[27,47],[217,20],[76,2],[103,-34],[42,56],[98,29],[40,35],[31,-1],[29,27]],[[13347,4898],[57,-8],[135,-80],[57,-8],[62,-32],[73,-111],[90,-44],[75,-5],[40,-35],[32,-48],[42,-13],[49,-97],[79,-81],[81,7],[36,-12],[-4,-62],[26,-47],[46,-18],[31,5],[70,-53],[32,24],[52,7],[27,42],[37,-45],[51,15],[55,-8],[-6,-31],[32,-41],[49,3],[76,-16]],[[14829,4106],[5,-92],[18,-49],[48,-48],[37,4],[35,-34],[15,-66],[57,14],[31,-7],[38,-61],[59,-18],[-22,-38],[42,-63],[50,12],[63,46],[24,-32],[31,-4],[1,-46],[29,-60],[-7,-35],[81,21],[37,-32],[53,-10],[72,37],[19,28],[46,-2],[83,41],[32,-6],[35,-48],[39,-15],[37,12],[80,-61],[6,-27],[69,-72],[-10,-48],[12,-24],[-30,-40],[-10,-77],[14,-55],[27,-24],[76,-26],[-16,-71],[-3,-99],[52,-141],[-32,-48],[16,-21],[-33,-15],[-45,-57],[42,-65],[6,-99],[67,-28],[-3,-27],[-48,-48],[-22,-49],[-54,-39],[-28,-68],[-110,-79],[-48,-76],[-17,-116],[-46,-23],[-39,-57],[-51,-48],[-10,-53],[-95,-63],[-49,-82],[31,-93],[-12,-41],[21,-19],[-27,-83],[63,10],[80,-19],[47,-27],[42,0],[57,-30],[40,12],[59,-17],[92,9],[17,-36],[55,-40],[67,-10],[35,-46],[16,-46],[0,-50],[30,-13],[22,-40],[93,30],[33,-19],[45,23],[37,-5],[74,31],[30,55],[33,-19],[11,-44],[67,67],[20,6],[34,-131],[-23,-77],[26,-65],[-8,-57],[79,-137]],[[16871,708],[-282,-4],[-217,-66],[-194,17],[-146,131],[-249,-73],[-99,166],[-407,92],[-325,124],[-1075,826],[-498,-35],[-53,-110],[-19,-131],[-396,-254],[-142,41],[-286,61],[-153,-1],[-245,-224],[-110,-267],[59,-316],[-467,-189],[-741,-213],[-328,15]],[[10822,1183],[66,-24],[83,-57],[151,54],[0,67],[22,54],[-2,36],[113,74],[71,8],[11,-32],[89,-27],[30,17],[4,31],[66,14],[27,23],[47,-6],[14,27],[-16,44],[19,47],[-17,35],[17,35],[-32,12],[2,54],[35,32],[25,102],[21,21],[-2,46],[17,35],[60,39],[22,37],[94,56],[-7,67],[77,84],[73,41],[39,-33],[67,77],[8,34],[-39,52],[29,102],[69,83],[36,29],[35,51],[1,38],[41,47],[31,-31],[105,152],[27,71],[2,147],[25,47],[-24,88],[-23,25],[55,75],[75,20],[53,39],[-1,104],[12,37],[-13,78],[100,102],[3,32],[-20,81],[-21,39],[27,82],[21,30],[82,20],[41,60],[22,52],[30,9],[39,56],[36,-1],[130,105],[55,8],[30,-31],[54,-25],[15,8],[7,91],[33,33],[-40,99],[5,45],[-82,19],[-41,45]],[[13138,4520],[-26,82],[2,70],[38,67],[52,29],[105,86],[38,44]],[[8436,7218],[-2,-103],[-51,-70],[12,-23],[-25,-107],[-2,-89],[45,-22],[39,-66],[18,-66],[-69,-31],[-103,-94],[-8,-38],[-38,-12],[-36,-35],[-65,-29],[-35,14],[-45,-87],[-84,-68],[29,-60],[53,-36],[31,-46],[76,-21],[2,-40],[-31,-72],[-28,-36],[32,-119],[-6,-41],[17,-64],[1,-122],[-15,-21],[8,-173],[-28,-76]],[[3986,10208],[49,22],[38,78],[-2,55],[55,2],[86,46],[117,94],[1,58],[68,96],[61,58],[50,30],[21,43],[67,64],[81,32],[184,-33],[60,94],[77,32],[99,57],[90,9],[32,79],[107,77],[29,36],[8,74],[50,68],[8,80],[30,28],[85,39],[-13,70],[50,54],[27,58],[114,34],[27,49],[2,67],[28,50],[19,5],[53,63],[22,74],[-12,45],[24,111],[-9,35]],[[22258,6732],[18,-7],[71,20],[109,-46],[25,-20],[78,-13],[98,-83],[68,-24],[30,-30],[39,12],[85,-30],[43,-32],[54,4],[60,-28],[85,-15],[123,-71],[47,-17],[70,12],[23,28],[79,40],[155,46],[24,45],[53,63],[35,65],[104,102],[46,11],[180,-11],[91,18],[50,44],[33,52],[21,5],[61,54],[33,0],[54,-27],[36,2],[8,29],[105,32],[58,9],[94,44],[43,38],[72,5],[53,-39],[49,19],[86,1],[33,60],[37,40],[23,56]],[[25100,7195],[86,0],[86,43],[50,3],[32,31],[132,5],[54,-23],[38,-35],[41,12],[108,86],[38,77],[65,-38],[45,13],[57,-37],[24,-77],[38,-2],[30,32],[67,7],[68,-36],[65,-1],[45,13],[27,-10],[102,25],[72,-88],[18,15],[71,-63],[28,20],[25,-18],[84,-1],[33,26],[49,11],[20,23],[51,-36],[91,43],[28,78],[40,34],[100,-4],[81,17],[7,-25],[15,-160],[-6,-62],[16,-78],[35,-51],[73,-4],[48,-44],[20,-104],[-22,-43],[42,-91],[83,-89],[-9,-48],[-3,-120],[-40,-42],[-13,-43],[0,-88],[-10,-33],[64,-77],[-13,-11],[61,-61],[24,-69],[15,-107],[67,-70],[30,-54],[104,-86],[106,-25],[37,-38],[82,-48],[52,-54],[15,-39],[-9,-68],[-31,-38],[-53,-15],[-45,9],[-30,-23],[-76,17],[-68,-7],[-60,40],[-37,46],[-46,-22],[-30,8],[-38,-38],[-91,-14],[-47,-22],[1,-49],[-34,-28],[-22,-56],[44,6],[130,-31],[38,-64],[35,-30],[24,-59],[-2,-91],[-17,-96],[-56,-48],[-30,-98],[4,-59],[-70,-100],[-90,-16]],[[16533,6326],[92,-77],[19,-125],[-21,-119],[-28,-23],[-37,-86],[-33,-25],[-80,-221],[1,-47],[29,-44],[-2,-93],[-24,-37],[24,-35],[-4,-75],[-90,-66],[-38,-52],[-89,-59],[-68,-18],[-63,-5],[-26,-24],[-80,-19],[-51,-27],[-158,-39],[-86,-67],[-78,-18],[-70,-53],[24,-28],[49,-105],[106,-128],[18,-41],[36,-5],[5,-33],[59,-82],[17,-71],[44,-27],[-66,12],[-97,35],[-107,-27],[-89,-46],[-54,30],[-79,5],[-78,96],[-51,28],[-40,0],[-56,-70],[-44,-2],[-80,-35],[8,-89],[-18,-51],[-115,13],[-105,-59],[-30,-86]],[[13347,4898],[-5,74],[122,103],[15,34],[54,36],[-17,75],[27,62],[-25,76],[42,28],[-5,20],[-53,9],[-21,39],[-65,25],[23,64],[-5,40],[-27,42],[-9,62],[-24,60],[32,46],[-55,41],[-47,97],[-65,30],[-25,43],[-44,31],[-20,-5],[-67,59],[-76,89],[2,77],[43,70],[-14,35],[-27,2],[-19,34],[-30,6],[-6,39],[-30,24],[-13,62],[-23,44],[-52,33],[-43,76],[-29,73],[52,171],[-30,107],[-71,55],[-72,42],[-6,130],[-49,43],[16,28],[56,46],[100,-3],[47,12],[61,-12],[81,25],[30,21],[41,57],[-12,29],[29,25],[32,57],[78,33],[130,1],[55,19],[18,40],[66,-37],[39,-45],[28,-6],[16,44],[36,40],[102,73],[27,30],[-40,63],[-53,41],[-35,7],[-92,-18],[-38,33],[-63,-6],[21,71],[-29,56],[-40,35],[6,64],[-43,30],[-4,84],[-36,19],[-12,49],[-25,25],[-4,73],[-27,21],[-16,56],[15,28],[-26,40],[-15,71],[-63,51],[-14,86],[15,21],[68,24],[29,27],[17,47],[59,45],[-2,54],[28,23],[-28,69],[37,82],[6,94],[107,86],[77,-35],[22,-28],[47,5],[54,28],[49,-24],[50,34],[103,41],[65,-101],[79,-12],[36,46],[51,-11],[53,48],[65,35],[126,34],[62,-2],[48,26],[52,61],[30,-1],[27,56],[4,44],[20,18],[4,116],[21,124],[17,21],[34,89],[-9,35],[21,115],[18,41],[-1,118]],[[10997,3888],[17,77],[-58,82],[18,37],[-11,29],[10,67],[48,71],[-31,47],[12,62],[-5,85],[-14,23],[13,83],[99,45],[32,31],[140,-48],[123,-62],[19,-33],[101,-38],[20,-22],[46,-8],[38,-61],[70,1],[55,18],[40,38],[60,-8],[55,10],[117,-24],[33,17],[27,52],[50,-4],[43,28],[39,-67],[93,-52],[2,-33],[50,-28],[27,13],[74,-73],[42,-63],[49,20],[51,72],[12,35],[35,25],[84,-46],[28,-1],[52,70],[58,23],[47,-30],[116,79],[22,4],[41,99],[52,-10]],[[14230,12720],[41,-30],[104,21]],[[22685,12050],[83,-27],[22,-29],[22,-89],[-42,-99],[-7,-79],[14,-19],[85,-46],[48,1],[59,-25],[53,-62],[55,-27],[47,-39],[42,-2],[104,-29],[25,-84],[25,-34],[5,-99],[69,15],[41,-10],[54,23],[17,37],[92,27],[67,69],[5,-89],[34,-36],[105,-54],[65,-2],[50,-27],[-4,-104],[-32,-80],[-4,-46],[-24,-37],[-59,-44],[-60,37],[-27,-6],[-49,-53],[-40,5],[-60,54],[-49,0],[-15,-23],[-18,-80],[-21,-31],[-77,43],[-51,-30],[8,-44],[43,-69],[17,-80],[70,-113],[47,-39],[43,0],[43,44],[62,3],[51,36],[80,13],[50,-33],[21,-39],[64,-41],[52,-58],[19,-53],[27,-137],[-1,-92],[61,-75],[-35,-128],[-44,-45],[-14,-39],[34,-73],[5,-38],[-25,-44],[-26,-83],[-2,-45],[-22,-53],[-14,-93],[-37,-37],[-107,-36],[-36,-23],[-16,-47],[-62,-35],[-31,-90],[-102,-73],[-65,-20],[-20,-72],[-65,-131],[-5,-64],[30,-77],[62,-44],[83,-96],[-26,-69],[-68,-46],[-48,-103],[31,-55],[17,-57],[26,-32],[62,-46],[-2,-87],[43,-43],[47,-84],[29,-16],[126,14],[13,-101],[74,-140],[5,-32],[105,-46],[87,-84],[14,-77],[27,-75],[76,7],[84,74],[51,1],[58,25],[38,77],[50,19],[53,-56],[76,-35],[25,-25],[34,-79],[-24,-99],[125,-54],[48,5],[103,28],[37,40],[117,-21],[11,-17],[-1,-73]],[[18883,810],[-228,39],[-290,-88],[20,31],[-22,30],[-1162,-110],[-330,-4]]],"transform":{"scale":[0.00012037168923011012,0.00010622245015106242],"translate":[88.7460414140001,26.700655537000102]},"objects":{"btn_admin1":{"type":"GeometryCollection","geometries":[{"arcs":[[0,1,2,3,4,5]],"type":"Polygon","properties":{"id":"BT001","name":"Bumthang","parent_id":"BT","parent_name":"Bhutan","area_sqkm":2716.96138097,"center_lat":27.70788352,"center_lon":90.76914865},"id":"BT001"},{"arcs":[[6,7,8,9,10,11]],"type":"Polygon","properties":{"id":"BT002","name":"Chhukha","parent_id":"BT","parent_name":"Bhutan","area_sqkm":1879.66775002,"center_lat":27.01611692,"center_lon":89.54413605},"id":"BT002"},{"arcs":[[12,13,14,-7,15,16]],"type":"Polygon","properties":{"id":"BT003","name":"Dagana","parent_id":"BT","parent_name":"Bhutan","area_sqkm":1722.82187862,"center_lat":26.99092699,"center_lon":89.92427117},"id":"BT003"},{"arcs":[[17,18,19,20]],"type":"Polygon","properties":{"id":"BT004","name":"Gasa","parent_id":"BT","parent_name":"Bhutan","area_sqkm":3134.40177179,"center_lat":27.98559633,"center_lon":89.86149535},"id":"BT004"},{"arcs":[[-10,21,22,23]],"type":"Polygon","properties":{"id":"BT005","name":"Haa","parent_id":"BT","parent_name":"Bhutan","area_sqkm":1904.53675727,"center_lat":27.32281183,"center_lon":89.19093733},"id":"BT005"},{"arcs":[[24,25,-1,26]],"type":"Polygon","properties":{"id":"BT006","name":"Lhuentse","parent_id":"BT","parent_name":"Bhutan","area_sqkm":2857.81214383,"center_lat":27.73205253,"center_lon":91.13527769},"id":"BT006"},{"arcs":[[27,28,29,-2,-26,30]],"type":"Polygon","properties":{"id":"BT007","name":"Monggar","parent_id":"BT","parent_name":"Bhutan","area_sqkm":1943.55565971,"center_lat":27.26922692,"center_lon":91.21170123},"id":"BT007"},{"arcs":[[-11,-24,31,32]],"type":"Polygon","properties":{"id":"BT008","name":"Paro","parent_id":"BT","parent_name":"Bhutan","area_sqkm":1287.0004075,"center_lat":27.4866426,"center_lon":89.37263438},"id":"BT008"},{"arcs":[[33,34,35,-29,36]],"type":"Polygon","properties":{"id":"BT009","name":"Pemagatshel","parent_id":"BT","parent_name":"Bhutan","area_sqkm":1021.6777095,"center_lat":26.98063542,"center_lon":91.31840666},"id":"BT009"},{"arcs":[[37,38,-19]],"type":"Polygon","properties":{"id":"BT010","name":"Punakha","parent_id":"BT","parent_name":"Bhutan","area_sqkm":1109.5600579,"center_lat":27.66536146,"center_lon":89.85861615},"id":"BT010"},{"arcs":[[39,-34,40]],"type":"Polygon","properties":{"id":"BT011","name":"Samdrupjongkhar","parent_id":"BT","parent_name":"Bhutan","area_sqkm":1875.6135158,"center_lat":27.02068023,"center_lon":91.80070737},"id":"BT011"},{"arcs":[[-22,-9,41]],"type":"Polygon","properties":{"id":"BT012","name":"Samtse","parent_id":"BT","parent_name":"Bhutan","area_sqkm":1304.56204706,"center_lat":27.0422304,"center_lon":88.9902666},"id":"BT012"},{"arcs":[[42,43,44,-14,45,46]],"type":"Polygon","properties":{"id":"BT013","name":"Sarpang","parent_id":"BT","parent_name":"Bhutan","area_sqkm":1655.30638427,"center_lat":26.97561218,"center_lon":90.4521823},"id":"BT013"},{"arcs":[[-39,47,-16,-12,-33,48,-20]],"type":"Polygon","properties":{"id":"BT014","name":"Thimphu","parent_id":"BT","parent_name":"Bhutan","area_sqkm":1795.7714073,"center_lat":27.57269593,"center_lon":89.58291959},"id":"BT014"},{"arcs":[[-41,-37,-28,49,50]],"type":"Polygon","properties":{"id":"BT015","name":"Trashigang","parent_id":"BT","parent_name":"Bhutan","area_sqkm":2202.32791376,"center_lat":27.25144519,"center_lon":91.73493239},"id":"BT015"},{"arcs":[[51,-43,52,-4]],"type":"Polygon","properties":{"id":"BT017","name":"Trongsa","parent_id":"BT","parent_name":"Bhutan","area_sqkm":1813.59653761,"center_lat":27.46335432,"center_lon":90.42998313},"id":"BT017"},{"arcs":[[-46,-13,53]],"type":"Polygon","properties":{"id":"BT018","name":"Tsirang","parent_id":"BT","parent_name":"Bhutan","area_sqkm":637.83016762,"center_lat":27.00502184,"center_lon":90.15587241},"id":"BT018"},{"arcs":[[-5,-53,-47,-54,-17,-48,-38,-18,54]],"type":"Polygon","properties":{"id":"BT019","name":"Wangduephodrang","parent_id":"BT","parent_name":"Bhutan","area_sqkm":4035.59282551,"center_lat":27.58269859,"center_lon":90.15445451},"id":"BT019"},{"arcs":[[55,-50,-31,-25]],"type":"Polygon","properties":{"id":"BT016","name":"Yangtse","parent_id":"BT","parent_name":"Bhutan","area_sqkm":1448.26632002,"center_lat":27.67755987,"center_lon":91.47219914},"id":"BT016"},{"arcs":[[-30,-36,56,-44,-52,-3]],"type":"Polygon","properties":{"id":"BT020","name":"Zhemgang","parent_id":"BT","parent_name":"Bhutan","area_sqkm":2416.15692722,"center_lat":27.08209871,"center_lon":90.84191348},"id":"BT020"}]}}}