{"type":"Topology","arcs":[[[4132,8580],[70,9],[24,-18],[41,-64],[84,24],[36,-44],[27,-69],[43,-44],[1,-28],[35,-67],[43,-13],[29,29],[109,22],[-23,-64],[19,-46],[29,15],[39,82],[63,23],[58,-41],[29,-59],[61,-24],[39,-39],[9,-74],[57,-59],[34,29],[16,48],[34,26],[50,-11],[34,10],[72,-97],[37,-14],[54,23],[-6,67],[-24,30],[0,43],[28,68],[-26,88],[79,3],[29,-22],[63,-4],[26,-34],[52,-20],[25,-39],[-6,-64],[59,-49],[72,-25],[70,-35],[75,-4],[53,80],[77,7],[25,-11],[9,-77],[31,-73],[19,-14],[69,-7],[25,-18],[41,-84],[26,-7],[38,-50],[41,-177],[37,-27],[60,21],[13,35],[50,-27],[45,10],[68,-37],[31,-5],[54,-68],[62,15],[54,71],[51,24],[66,-29],[48,-44],[89,-35],[49,-43],[14,-42],[66,-48],[33,27],[61,100],[49,-18],[67,47],[89,42],[17,38],[65,56],[43,6],[21,-46],[78,-4],[15,-40],[87,-64],[40,1],[26,-20],[17,26],[14,-36],[48,-7],[52,87],[14,61],[31,5],[12,-25],[61,-20],[-15,-40],[15,-27],[74,-17],[57,11],[31,-29],[100,-34],[-2,-66],[59,-6],[28,36],[-3,38],[45,18],[84,-66],[21,-49],[2,-44],[87,-70],[37,26],[23,82],[107,16],[35,-62],[41,-38],[32,6],[15,-61],[70,-20],[9,62],[45,-10],[34,-26],[27,29],[45,-60],[47,18],[90,-11],[56,-50],[9,22],[69,27],[40,-30],[61,3],[108,82],[32,44],[42,11],[31,35],[81,27],[-2,26],[47,56],[48,77],[15,66],[88,12],[38,-27],[1,-68],[90,-12],[60,-76],[64,-14],[32,-54],[66,-7],[62,-42],[109,-38],[25,-134],[51,-22],[21,-71],[-23,-105],[46,-39],[51,-13],[25,-37],[48,-40],[69,-18],[23,-69],[3,-60],[51,3],[34,36],[43,16],[31,41],[3,-53],[66,-53],[54,-17],[-2,-62],[-28,-97],[-28,-26],[-28,22],[-36,-34],[-47,34],[-23,0],[-26,-79],[-36,25],[-24,-17],[32,-115],[33,-67],[42,-23],[20,26],[91,31],[88,-101],[22,-113],[-1,-54],[29,-45],[-16,-76],[-28,-49],[19,-66],[-12,-26],[-30,-163],[-18,-21],[-67,-36],[-36,-48],[-15,-53],[-79,-55],[-40,-121],[12,-83],[68,-83],[-12,-41],[-32,-27],[-23,-61],[23,-67],[41,-46],[0,-51],[55,-85],[60,8],[6,-60],[37,-102],[50,-27],[40,-50],[20,-90],[36,5],[39,44],[51,15],[19,45],[23,12],[72,-69],[16,-47],[-11,-58],[59,-33],[71,20],[18,23],[55,-12],[4,-53],[41,0],[79,45],[62,3],[44,-34],[70,58],[18,46],[78,-37],[12,-46],[64,22],[32,-21],[64,2],[48,14],[34,-52],[42,-29],[65,1],[47,36],[24,-22],[43,26],[32,66],[85,8],[16,-193],[16,-30],[34,-3],[23,-25],[9,-62],[-10,-26],[20,-53],[39,-53],[-6,-99],[-19,-25],[-10,-97],[53,-89],[18,-104],[45,-74],[50,-51],[49,-14],[57,-51],[31,-55],[-19,-63],[-60,-17],[-68,6],[-46,50],[-53,-30],[-66,-22],[1,-29],[-26,-49],[82,-16],[46,-90],[-9,-111],[-27,-28],[-12,-93],[-33,-60],[-41,-7],[-49,-64],[0,-53],[32,-118],[-14,-96],[-31,-65],[28,-113],[-1,-59],[23,-62],[0,-39],[27,-59],[37,0],[82,-55],[28,-3],[-13,-132],[58,-25],[32,-35],[23,-93],[-8,-47],[57,-47],[7,-92],[-26,-25],[11,-51],[-7,-40],[3,-108],[14,-40],[-13,-73],[-55,-83],[0,-78],[-64,-44],[-117,-67],[-155,14],[-132,46],[-51,68],[-25,68],[-84,72],[-196,131],[-28,-14],[-101,-17],[-138,-275],[-404,-292],[-61,7],[-60,-35],[-251,79],[-134,-90],[-184,-34],[-194,-42],[-122,63],[-86,67],[-134,139],[-124,-246],[-150,-80],[-160,34],[-77,75],[-156,65],[-175,7],[-182,-14],[-189,62],[-164,-222],[-66,7],[-184,40],[-137,-52],[-1,36],[-547,-65],[-288,-5],[-103,-39],[-91,10],[-69,78],[-117,-44],[-47,99],[-191,54],[-153,74],[-507,489],[-235,-20],[-24,-66],[-9,-77],[-187,-151],[-67,24],[-135,37],[-71,-1],[-116,-133],[-52,-158],[28,-187],[-220,-112],[-349,-126],[-160,9],[-161,-48],[-273,4],[-135,72],[6,-38],[-9,-78],[14,-59],[-10,-30],[-87,29],[-112,29],[-157,-49],[-21,13],[-21,60],[-28,25],[14,60],[-21,28],[-31,-30],[-81,-37],[-23,35],[-34,6],[-35,35],[-46,-21],[-43,34],[-27,1],[-5,-41],[-36,-72],[-44,-9],[-15,25],[-44,12],[-11,-31],[-29,-1],[-24,56],[22,60],[68,44],[19,29],[-6,44],[37,36],[-9,53],[-75,38],[-43,-29],[-21,46],[-63,12],[-134,65],[-30,78],[-49,-18],[-44,17],[-94,-9],[-138,-54],[-52,18],[-42,68],[-2,73],[-44,53],[-63,-25],[-35,25],[-94,7],[-23,96],[-19,18],[-204,-106],[-14,44],[-107,-62],[-80,-63],[-51,-83],[-90,28],[-47,-4],[-132,-41],[-67,47],[-165,-64],[-40,80],[-34,12],[-58,102],[22,99],[-54,69],[13,106],[-63,30],[-39,37],[-81,-26],[5,94],[-36,39],[-43,1],[-34,98],[-160,-131],[-144,95],[32,67],[4,77],[-11,57],[-112,131],[-92,-124],[-19,-49],[-63,-103],[-29,104],[9,47],[-1,90],[-11,39],[22,116],[-2,56],[20,81],[-8,21],[5,128],[-13,24],[-5,121],[-23,112],[-9,-13],[-62,-4],[-32,15],[-123,94],[-24,55],[-70,-22],[-78,7],[-69,32],[3,31],[43,29],[-13,71],[29,65],[57,36],[31,-9],[8,74],[39,63],[18,83],[0,148],[97,53],[13,28],[137,13],[49,-20],[20,33],[46,17],[47,36],[26,75],[-21,76],[41,96],[-1,41],[27,9],[10,34],[30,9],[82,-135],[51,-44],[58,72],[57,29],[15,25],[-22,82],[-82,78],[9,36],[-12,80],[-32,152],[44,105],[-17,48],[16,49],[23,13],[28,102],[-14,65],[-42,79],[61,66],[47,-5],[10,18],[-45,83],[2,33],[39,46],[76,60],[29,48],[-9,60],[24,32],[-15,73],[12,46],[27,7],[44,59],[28,7],[58,53],[50,-1],[60,-37],[17,45],[72,55],[15,36],[-14,28],[55,49],[-16,50],[13,31],[46,45],[24,50],[13,-30],[27,7],[24,108],[5,52],[55,15],[23,120],[57,-6],[43,59],[7,127],[-20,13],[22,138],[27,32],[17,79],[67,29],[55,55],[0,34],[32,57],[53,52],[41,64],[38,19],[87,-20],[28,56],[83,53],[42,5],[15,47],[65,67],[3,44],[24,40],[3,48],[55,39],[-6,42],[36,66],[54,20],[14,69],[46,70],[16,136],[-7,65],[63,28],[13,48],[-39,50],[-3,32],[55,42],[37,101],[38,37],[44,67],[23,84],[91,-41],[67,88],[10,74],[58,24],[35,51],[7,35],[33,32],[29,67],[-7,49],[81,33],[53,-22],[59,43],[60,-22],[50,30],[38,55],[42,-20],[69,-9],[40,-33],[32,7],[25,38],[6,59],[81,-22],[43,30],[26,41],[4,64],[-23,64],[25,6],[55,49],[17,66],[16,7],[27,-49]]],"transform":{"scale":[0.0002555528472600703,0.0001792819288446023],"translate":[88.74839014100002,26.700655537000102]},"objects":{"btn_admin0":{"type":"GeometryCollection","geometries":[{"arcs":[[0]],"type":"Polygon","properties":{"id":"BT","name":"Bhutan","parent_id":null,"parent_name":null,"area_sqkm":38763.01956328,"center_lat":27.47409283,"center_lon":90.35171152},"id":"BT"}]}}}