{"type":"Topology","arcs":[[[34442,113543],[45,-1],[44,-14],[91,-13],[111,-122],[154,-19],[67,-68],[88,-69],[40,-22],[121,-40],[76,-56],[73,-10],[101,-72],[74,-14],[21,-11],[108,-3],[112,-31],[57,0],[131,-52],[35,-47],[56,-59],[58,-42],[101,-32],[87,-92],[84,-55],[103,-9],[61,1],[53,9],[57,-14],[53,-59],[12,-129],[-10,-65],[27,-67],[24,-41],[69,-29],[58,-39],[38,-67],[76,0],[45,-9],[39,-26],[37,-67],[65,-27],[118,-5],[125,14],[50,-42],[40,-16],[45,-4],[21,-19],[48,-13],[15,-20],[42,-17],[104,27],[31,-9],[59,11],[49,33],[82,34],[41,32],[123,-45],[34,-19],[27,6],[69,-15],[45,-2],[99,27],[36,-63],[26,-22],[72,-9],[44,-57],[10,-43],[24,-34],[38,-33],[123,-75],[31,-3],[51,21],[46,-24],[72,21],[43,-2],[82,28],[49,-45],[59,-28],[54,-7],[43,-16],[-2,86],[43,59],[47,27],[27,4],[44,-12],[74,-39],[35,-10],[125,0],[75,-53],[40,-82],[54,-42],[41,-22],[31,-45],[-5,-81],[25,-55],[25,-24],[30,-53],[47,-11],[51,13],[39,0],[26,-21],[30,-51],[25,-23],[79,-17],[112,-68],[77,-31],[83,13],[33,-1],[48,-67],[54,-33],[43,-3],[63,32],[29,-6],[47,-46],[20,-8],[85,2],[64,-22],[63,-11],[133,-10],[124,60],[0,49],[15,60],[15,99],[56,46],[15,4],[39,-66],[96,-82],[98,-10],[32,-27],[17,-42],[7,-102],[-30,-63],[-78,-67],[-13,-37],[40,-21],[103,-39],[24,1],[101,-30],[40,-50],[53,-89],[13,-58],[29,-28],[29,4],[126,-14],[28,-64],[66,-42],[17,-73],[-2,-51],[29,-8],[56,13],[56,28],[42,-45],[54,1],[31,41],[25,56],[74,110],[29,24],[62,25],[51,-2],[36,-16],[-5,20],[16,71],[-25,125],[-8,133],[5,22],[101,40],[80,3],[35,7],[33,-59],[45,-33],[53,-26],[73,-71],[42,3],[50,40],[87,51],[60,-4],[51,-27],[138,-94],[115,-68],[18,-39],[2,73],[11,48],[-1,86],[57,41],[10,86],[16,19],[34,7],[75,45],[-19,103],[6,43],[26,78],[40,43],[41,-19],[84,69],[77,18],[70,5],[34,9],[43,-17],[38,-2],[19,-16],[50,-66],[25,-19],[7,-46],[25,-30],[9,-33],[68,-46],[73,-15],[42,-37],[25,40],[87,2],[89,-83],[39,-50],[12,-34],[-21,-132],[12,-111],[51,-138],[16,-21],[56,-17],[48,-44],[8,-36],[45,-101],[-69,-56],[45,-26],[12,-79],[14,-29],[36,-136],[27,-36],[9,-47],[21,-50],[30,-48],[31,-29],[-60,-20],[-76,-80],[-17,-35],[-83,-70],[-28,-38],[39,-71],[-34,-142],[-51,-44],[-11,-44],[3,-54],[-28,-70],[-19,-19],[-47,-16],[17,-39],[28,-16],[48,0],[37,-40],[17,-36],[24,-87],[-39,-141],[63,-61],[3,-70],[-29,-52],[-41,-17],[-55,1],[-77,-30],[-48,-37],[13,-37],[-5,-42],[-40,-47],[-21,-45],[13,-99],[-7,-23],[-53,-58],[-46,-24],[-45,-49],[44,-95],[37,-30],[87,-84],[54,-92],[4,-53],[89,-47],[95,16],[71,1],[30,15],[68,-2],[39,11],[24,-23],[8,-46],[60,-46],[34,-60],[23,-19],[2,-34],[-19,-58],[-31,-38],[26,-48],[12,-95],[-15,-49],[10,-20],[67,-57],[44,-27],[45,-43],[-36,-49],[23,-47],[60,-38],[62,-22],[69,-36],[40,-30],[56,-5],[20,-63],[46,-36],[32,6],[46,-43],[84,1],[144,30],[48,16],[167,41],[62,-31],[60,-14],[56,-138],[-2,-38],[-21,-16],[-38,-79],[-7,-26],[8,-44],[19,-39],[27,-22],[0,-116],[-21,-68],[-30,-45],[-49,-48],[-9,-50],[13,-96],[9,-11],[115,-11],[100,-5],[39,-14],[28,-47],[79,-16],[80,-41],[16,-25],[50,-29],[-4,-50],[-23,-57],[-21,-20],[-31,-66],[-34,-57],[-50,-42],[-13,-27],[0,-55],[-13,-37],[15,-48],[29,-26],[-35,10],[-60,-36],[-76,-15],[-91,-31],[-41,-54],[-71,-21],[-53,-44],[-30,-63],[-25,-96],[-2,-41],[-35,-22],[-97,14],[4,-79],[16,-42],[104,12],[61,-23],[47,-72],[73,-69],[38,-28],[-35,-20],[-54,-90],[-27,-33],[-12,-57],[-24,-38],[-10,-64],[19,-60],[37,-38],[0,-24],[-26,-37],[-74,-153],[-30,-35],[-53,-28],[-57,4],[-48,-23],[-11,-42],[-46,-81],[11,-94],[-4,-58],[46,-58],[5,-55],[32,-69],[19,-80],[22,-38],[86,29],[61,29],[82,-2],[109,48],[18,20],[61,-19],[48,-6],[105,-22],[27,-29],[50,-6],[45,24],[74,-4],[97,-37],[65,44],[73,3],[33,15],[54,-11],[46,-41],[55,-11],[49,0],[70,-32],[41,122],[32,24],[89,47],[34,44],[34,30],[48,23],[58,-6],[30,-19],[27,-1],[38,-36],[32,-65],[2,-73],[47,27],[40,-31],[48,-82],[63,-14],[95,-70],[79,8],[46,-10],[46,19],[109,3],[56,-43],[39,-47],[-2,-101],[30,-48],[26,-77],[-7,-64],[2,-50],[42,-30],[14,-40],[38,-39],[35,-12],[63,-43],[71,-30],[31,-66],[47,32],[55,-32],[41,-12],[89,4],[42,9],[32,32],[69,35],[64,88],[-5,39],[8,82],[23,43],[21,2],[114,-42],[23,-24],[58,18],[99,-24],[24,-57],[25,-30],[31,-74],[26,-27],[48,-23],[55,-68],[11,-55],[3,-136],[11,-29],[65,-47],[17,-42],[29,-25],[39,38],[69,-12],[52,-68],[57,-54],[8,-54],[40,-56],[10,-51],[-3,-51],[18,-89],[33,15],[83,75],[104,54],[27,-58],[25,-32],[53,-34],[-15,63],[0,34],[-31,59],[9,39],[33,62],[-36,80],[-2,84],[88,14],[30,15],[33,-29],[20,-86],[33,-42],[47,-35],[12,23],[66,73],[44,18],[58,-16],[52,-38],[48,-82],[21,-99],[33,-43],[31,28],[59,-10],[18,-36],[27,-81],[36,-30],[44,-12],[49,-24],[49,-83],[40,-27],[47,-12],[18,-61],[4,-55],[43,-116],[25,-32],[50,-34],[26,-32],[34,-25],[7,-23],[44,-43],[62,20],[36,-45],[43,16],[35,-54],[80,-33],[35,-41],[33,-53],[37,-9],[121,-67],[27,-28],[21,-41],[23,83],[59,9],[38,15],[32,36],[21,-70],[19,-21],[115,-75],[76,-27],[54,-40],[26,-99],[-5,-30],[-53,-67],[-19,-37],[59,-67],[46,-23],[18,-42],[37,-39],[66,-28],[39,-26],[54,-106],[30,-25],[110,-42],[63,-98],[36,-37],[27,8],[81,53],[92,21],[54,35],[93,77],[41,66],[40,25],[52,92],[10,34],[34,26],[9,35],[52,116],[45,73],[30,31],[48,5],[35,-19],[58,-57],[79,-37],[67,-53],[39,-20],[110,-31],[44,-84],[23,-21],[63,-35],[35,-3],[98,-68],[43,-14],[-9,-58],[-4,-74],[6,-28],[44,-84],[-28,-87],[3,-37],[39,-69],[30,-133],[-2,-60],[40,-41],[38,-24],[33,-87],[40,-34],[73,-31],[14,-33],[53,-55],[64,14],[43,-19],[20,-68],[60,-124],[18,-102],[18,-47],[81,-76],[45,-80],[1,-78],[46,-87],[82,-127],[-5,-48],[21,-56],[136,-127],[127,-83],[61,-26],[73,-41],[80,-9],[82,-26],[62,-2],[66,-27],[89,-52],[44,-40],[43,-56],[18,-35],[6,-82],[-33,-58],[-16,-60],[-31,-29],[-130,-87],[-28,-36],[-19,-43],[-4,-49],[23,-87],[0,-28],[-30,-34],[-34,-7],[-34,13],[-100,-29],[-25,-16],[-57,-122],[-6,-25],[22,-107],[50,-38],[92,-8],[100,-34],[182,-39],[26,7],[45,34],[85,22],[45,57],[162,4],[25,25],[18,49],[65,36],[37,7],[80,-42],[33,56],[54,25],[62,5],[57,-26],[15,3],[178,100],[10,14],[6,57],[35,72],[42,12],[49,41],[68,-12],[57,47],[20,2],[41,-42],[32,-20],[38,-83],[15,-69],[21,-64],[31,-48],[73,-66],[43,-66],[39,-17],[65,-8],[90,31],[60,-7],[51,-35],[56,-80],[1,-116],[23,-86],[33,-77],[6,-49],[35,-66],[31,-78],[39,-53],[58,-32],[-4,-27],[-54,-61],[-93,-71],[-29,-6],[15,-44],[-19,-91],[-58,-47],[-139,-49],[-108,-88],[-45,-74],[-58,-42],[-29,-13],[-66,2],[-41,17],[-69,47],[-71,-40],[-81,-60],[-3,-15],[36,-124],[12,-68],[-1,-53],[-37,-61],[-174,-169],[39,-47],[20,-46],[0,-85],[19,-109],[70,-54],[98,14],[65,42],[47,9],[98,45],[80,105],[107,-12],[67,-65],[68,75],[28,41],[18,5],[83,-36],[18,17],[67,20],[57,2],[73,-46],[37,-7],[88,10],[32,11],[71,-89],[93,-19],[31,-43],[76,-53],[33,-56],[5,-93],[14,-62],[17,-17],[38,-109],[-10,-68],[74,-78],[41,-62],[3,-164],[-13,-76],[-33,-51],[-40,-21],[168,-79],[80,-19],[73,-43],[30,-27],[70,14],[140,-79],[96,-74],[105,-29],[43,9],[59,30],[82,27],[108,10],[96,-5],[31,7],[26,-20],[46,-71],[28,-68],[3,-64],[-24,-84],[-26,-41],[-93,-109],[18,-84],[26,-50],[17,-81],[21,-39],[55,-41],[65,-82],[52,-52],[105,-20],[45,4],[53,19],[21,24],[44,26],[124,-51],[51,1],[65,-62],[37,-12],[113,-22],[33,-53],[62,-1],[167,47],[99,76],[55,62],[42,23],[72,-15],[31,2],[94,31],[28,58],[0,102],[26,53],[64,32],[164,29],[85,-43],[82,-18],[39,0],[36,19],[38,42],[21,44],[49,61],[101,-10],[71,-84],[87,-66],[56,51],[113,55],[22,28],[9,-65],[30,-46],[66,-79],[61,-104],[86,-51],[33,-40],[-4,-58],[-15,-61],[-45,-45],[-17,-32],[-9,-95],[-41,-109],[-6,-33],[-27,-51],[77,-8],[52,-16],[11,-61],[-3,-40],[10,-29],[35,-23],[48,-59],[49,-25],[45,-57],[32,-10],[173,6],[115,47],[9,50],[54,31],[53,9],[120,-3],[45,25],[43,6],[29,-7],[87,-90],[30,-44],[98,42],[41,3],[56,-11],[28,23],[33,69],[55,49],[55,82],[22,-30],[7,-47],[44,-88],[47,-48],[9,-54],[-3,-69],[19,-12],[86,-27],[44,-30],[6,-15],[-13,-92],[12,-96],[31,-13],[32,3],[124,58],[86,50],[87,-130],[29,-75],[2,-78],[22,-24],[13,-68],[25,-77],[3,-75],[11,-68],[25,-53],[69,-17],[51,0],[31,-10],[62,-63],[34,-24],[53,-1],[112,22],[78,-44],[14,-203],[-17,-65],[50,-58],[33,-83],[1,-33],[73,-28],[34,-2],[100,-32],[71,-35],[46,-80],[47,-23],[35,19],[28,34],[70,22],[-18,13],[-43,71],[3,85],[11,13],[63,17],[49,2],[131,48],[5,28],[26,36],[61,46],[70,-42],[48,2],[71,-23],[55,9],[8,141],[-1,90],[14,35],[62,70],[50,-34],[35,-49],[17,-44],[55,-66],[52,-41],[38,-62],[12,7],[28,65],[52,56],[88,35],[51,30],[59,-59],[18,-4],[90,36],[46,-28],[46,-17],[83,-62],[94,-45],[56,-41],[16,-33],[-30,-64],[4,-67],[-10,-53],[-38,-58],[-43,-110],[8,-40],[-28,-95],[1,-46],[33,-4],[76,-55],[56,36],[45,0],[45,-25],[65,-48],[40,-20],[55,-1],[104,51],[52,39],[52,27],[24,28],[8,93],[-21,43],[5,20],[-39,70],[3,25],[39,60],[69,-10],[39,43],[81,34],[31,-74],[1,-40],[23,-22],[83,33],[45,4],[53,-11],[120,-41],[110,-5],[-7,-45],[6,-82],[-28,-50],[-9,-40],[10,-73],[-8,-49],[-41,-110],[22,-24],[91,-59],[98,-55],[27,-26],[91,-53],[34,-32],[22,-68],[55,-5],[126,-1],[40,17],[98,-42],[95,23],[70,-6],[109,-2],[40,10],[15,-9],[-9,-26],[0,-55],[18,-31],[94,-64],[66,-70],[32,-13],[52,2],[107,25],[85,-100],[49,-68],[-28,-50],[-4,-76],[-12,-23],[-58,13],[-93,-67],[-23,-29],[-96,55],[-57,6],[-40,-41],[-32,-7],[-45,38],[-63,24],[-59,8],[-19,-20],[5,-44],[70,-112],[-5,-24],[-86,-134],[-10,-22],[45,-94],[-8,-54],[80,-44],[35,-35],[60,-97],[25,-116],[6,-83],[61,-69],[16,-32],[-17,-80],[22,-52],[-51,-109],[34,-51],[5,-61],[-22,-50],[47,14],[39,-4],[36,-38],[39,-97],[21,-22],[50,-21],[29,-34],[61,-43],[87,48],[34,10],[46,38],[51,17],[30,42],[69,-37],[21,-23],[108,-67],[49,45],[51,11],[43,20],[40,43],[18,64],[30,35],[64,36],[22,-33],[36,-27],[41,-60],[64,-22],[56,-13],[77,7],[61,-99],[65,-31],[36,-30],[105,-43],[85,-54],[40,-48],[2,-15],[-40,-77],[35,-56],[20,-68],[-11,-64],[-3,-71],[9,-37],[-41,-54],[-73,-36],[-9,-13],[32,-51],[11,-135],[-37,-63],[64,-53],[62,-73],[17,-35],[61,-37],[22,-114],[21,-83],[31,-21],[63,-2],[65,27],[24,3],[94,-50],[-15,-57],[-51,-43],[-4,-19],[33,-177],[32,-23],[104,-115],[10,-57],[-1,-70],[6,-35],[113,-26],[34,-29],[45,-82],[22,-11],[73,-5],[15,8],[55,-24],[74,12],[59,-25],[68,-13],[47,1],[68,16],[19,-5],[39,14],[72,-7],[43,-21],[54,16],[20,-6],[31,-42],[11,-122],[19,-103],[2,-56],[44,-44],[44,-75],[25,-21],[76,-30],[30,-37],[-40,-53],[-30,-21],[-54,-70],[18,-159],[30,-55],[21,-77],[-21,-63],[-35,-38],[-124,-59],[-78,-22],[42,-80],[37,-40],[1,-95],[-11,-58],[-40,-94],[6,-16],[74,-46],[11,-22],[-10,-72],[-38,-68],[28,-63],[19,-14],[114,10],[29,-15],[73,-94],[34,-80],[50,-5],[131,24],[46,-27],[31,-46],[99,-206],[-12,-53],[-37,-59],[3,-39],[66,-111],[16,-52],[-17,-51],[-29,-44],[-25,-125],[-10,-24],[-40,-39],[-37,-54],[-5,-37],[19,-71],[-17,-64],[-23,-44],[38,-34],[84,-27],[17,-33],[0,-54],[-23,-76],[5,-35],[33,-10],[69,-4],[29,-14],[42,-48],[-25,-73],[15,-33],[61,-25],[44,-47],[-26,-82],[8,-35],[108,-6],[9,-59],[39,-43],[8,-157],[59,-63],[35,-22],[57,-5],[55,23],[18,52],[39,54],[94,78],[28,2],[124,-18],[46,-20],[-14,-51],[3,-48],[39,-16],[64,-10],[33,-40],[2,-24],[-17,-105],[-40,-71],[5,-36],[40,-37],[17,-30],[64,-3],[25,-31],[52,-37],[45,-14],[26,-33],[7,-68],[9,-16],[35,7],[58,33],[87,-40],[54,7],[-15,-54],[11,-71],[31,-89],[19,-37],[57,-47],[-9,-34],[-34,-75],[5,-15],[101,-37],[9,-27],[-29,-81],[-79,-67],[-31,-42],[-29,-94],[44,-11],[19,-16],[3,-51],[-13,-104],[29,-82],[30,-37],[63,-13],[88,-43],[73,-49],[8,-22],[-16,-82],[18,-37],[73,-49],[14,-39],[26,-35],[96,-42],[110,-22],[52,-2],[51,-32],[50,-5],[29,28],[39,80],[28,9],[73,4],[68,44],[48,-50],[147,-48],[9,-51],[-5,-42],[-24,-35],[-37,-33],[-4,-90],[16,-42],[-1,-41],[101,-45],[33,-40],[19,-77],[-1,-55],[-20,-57],[56,-50],[221,-119],[35,-9],[131,21],[146,74],[36,14],[67,82],[73,-16],[56,-130],[23,-28],[7,-95],[112,-44],[66,-40],[24,-44],[61,-34],[6,-52],[58,-86],[83,-57],[116,61],[43,0],[71,64],[13,32],[-18,55],[8,25],[47,50],[67,-13],[18,13],[51,75],[57,34],[18,64],[62,47],[19,34],[61,84],[30,84],[-76,48],[-43,46],[0,88],[-8,59],[17,66],[-17,93],[-40,42],[-1,109],[19,7],[73,-8],[66,39],[78,30],[28,23],[57,-6],[70,9],[29,10],[97,68],[105,82],[67,71],[35,44],[107,153],[23,49],[42,49],[36,72],[33,85],[23,74],[42,43],[78,27],[27,27],[31,50],[35,72],[15,56],[31,-3],[123,-40],[79,-41],[51,14],[31,20],[51,15],[59,44],[45,0],[85,-21],[44,-1],[46,37],[127,-57],[68,19],[58,-16],[52,-34],[49,7],[46,-22],[56,-46],[59,1],[78,20],[65,81],[12,85],[44,-7],[78,32],[39,-13],[25,-60],[40,-20],[117,43],[27,23],[57,19],[34,42],[112,29],[7,34],[-9,48],[18,28],[35,10],[50,37],[5,44],[-38,46],[-13,49],[-14,96],[-34,90],[-15,23],[-34,100],[-31,45],[14,109],[52,67],[10,56],[73,-5],[41,17],[32,51],[85,49],[38,94],[29,43],[-20,42],[-45,64],[30,20],[56,64],[18,36],[-10,45],[12,40],[98,20],[130,0],[21,-14],[42,-70],[56,-33],[35,-12],[30,14],[77,63],[70,-70],[17,-6],[90,21],[33,0],[62,-38],[37,13],[47,38],[64,62],[20,81],[5,68],[17,66],[28,19],[66,11],[83,38],[141,15],[66,55],[145,49],[103,86],[57,25],[32,1],[53,-14],[72,-8],[76,-15],[24,60],[37,70],[50,41],[37,20],[65,-31],[50,-32],[111,-23],[104,18],[93,-81],[76,-52],[110,33],[25,2],[101,-52],[63,-42],[41,-2],[83,7],[39,15],[34,47],[19,46],[57,68],[17,45],[32,45],[40,24],[46,49],[32,49],[34,22],[49,-8],[158,-41],[83,-25],[121,-85],[121,-77],[34,-53],[61,-7],[23,-14],[47,-74],[25,-27],[52,-21],[29,-28],[38,-76],[3,-71],[-40,-86],[-63,-48],[-80,-34],[-68,-2],[-41,-77],[45,-57],[97,-26],[80,-45],[0,-21],[42,-5],[100,27],[76,-19],[65,-26],[36,-35],[42,-81],[31,-31],[80,15],[73,-6],[36,-17],[25,-34],[20,-52],[68,194],[70,63],[127,83],[86,82],[33,-1],[97,-40],[107,-57],[-5,-72],[18,-38],[27,-16],[27,-60],[41,-21],[43,-6],[42,11],[40,-12],[58,-55],[47,-59],[35,-9],[165,57],[72,42],[63,104],[44,59],[44,0],[53,-13],[69,-36],[51,-18],[101,-55],[24,-33],[20,-55],[34,-23],[106,-30],[120,-127],[54,-30],[77,-7],[-56,-44],[6,-40],[35,-41],[54,-31],[-4,-89],[-41,-80],[-9,-45],[-34,-33],[-104,-44],[-5,-65],[41,-47],[2,-25],[-38,-78],[-26,-36],[0,-24],[38,-35],[-28,-88],[17,-45],[70,-80],[57,31],[18,0],[95,-44],[44,-3],[61,-20],[84,-46],[52,-49],[46,-16],[67,-60],[31,-13],[175,106],[93,38],[57,7],[74,0],[80,-12],[96,-6],[91,-28],[19,-31],[108,-32],[37,1],[41,74],[49,38],[65,22],[40,21],[96,23],[47,-9],[24,-51],[66,-25],[48,-29],[15,-60],[27,-36],[-88,-156],[-19,-79],[-6,-76],[12,-76],[-17,-53],[17,-20],[18,-53],[4,-72],[8,-43],[-72,-33],[-35,-27],[-64,-64],[-40,-70],[-39,-33],[-63,12],[-94,46],[-81,-29],[-11,-45],[-75,-100],[-22,-23],[-40,-16],[-49,-8],[-103,-160],[65,-105],[-25,-62],[-42,-52],[-32,-26],[50,-124],[11,-42],[43,-50],[-3,-94],[52,-54],[-40,-134],[-4,-27],[-29,-60],[26,-105],[6,-66],[11,-29],[63,-72],[12,-45],[32,-45],[14,-35],[2,-82],[11,-73],[-26,-88],[5,-35],[29,-90],[-10,-71],[20,-86],[32,-33],[196,-82],[84,-27],[89,-18],[165,-19],[-1,-98],[-8,-175],[-6,-51],[26,-92],[16,-103],[-2,-52],[-52,-61],[-27,-57],[-46,-12],[-18,-69],[19,-61],[-6,-39],[-69,-153],[-42,-77],[-44,-52],[-58,-58],[39,-82],[-33,-92],[8,-124],[-1,-68],[34,-38],[10,-40],[1,-147],[-7,-61],[22,-105],[10,-114],[-5,-65],[120,-14],[29,3],[113,88],[132,66],[31,43],[62,-7],[99,9],[99,-5],[66,-16],[71,-44],[53,-46],[68,-83],[86,-66],[31,-2],[46,17],[34,-6],[51,-53],[68,-136],[20,-16],[0,-128],[-27,-96],[27,-40],[0,-418],[-89,-99],[-21,-52],[-19,-100],[-25,-98],[-30,-74],[3,-40],[30,-67],[1,-35],[-52,-99],[-8,-53],[20,-49],[-13,-65],[8,-41],[52,-96],[10,-44],[-21,-36],[-14,-54],[-26,-40],[6,-67],[-22,-17],[-60,3],[-20,-75],[14,-44],[-23,-35],[-45,-44],[-32,-110],[8,-93],[-13,-102],[-50,-178],[-23,-47],[-35,-14],[9,-36],[-20,-137],[-5,-69],[4,-135],[-16,-76],[-39,-55],[12,-74],[-16,-54],[-20,-31],[-22,-56],[-1,-42],[10,-56],[42,-117],[42,-71],[17,-49],[3,-66],[-20,-105],[11,-56],[15,-38],[32,-34],[51,-13],[81,9],[38,-4],[55,-34],[92,2],[77,-24],[91,5],[76,-10],[37,6],[26,56],[55,84],[110,58],[61,0],[37,-44],[21,-43],[61,-33],[18,-23],[7,-81],[31,-79],[102,-33],[83,-52],[82,-73],[27,-106],[113,-77],[53,-24],[67,-20],[22,-20],[122,-26],[41,-32],[63,-21],[47,-3],[92,19],[59,-40],[56,-26],[23,-46],[12,-47],[26,-39],[68,-7],[50,34],[82,22],[45,41],[8,73],[56,55],[66,53],[41,15],[44,-25],[32,-64],[32,-39],[114,-102],[42,-48],[45,-71],[4,-25],[81,0],[114,62],[57,-25],[29,4],[44,44],[24,8],[45,42],[52,-8],[56,-26],[61,-40],[46,-11],[96,-2],[74,-21],[109,-53],[117,-97],[44,-28],[89,-11],[18,-22],[-13,-71],[6,-42],[-2,-70],[-19,-33],[-1,-35],[-27,-50],[-55,-32],[-31,-5],[-67,-72],[-14,-36],[26,-52],[4,-128],[73,-10],[40,-31],[80,1],[107,42],[35,27],[54,9],[47,-20],[14,-30],[32,-34],[57,-90],[70,-62],[38,-3],[104,-55],[11,-13],[-91,-141],[-26,-73],[6,-54],[22,-105],[-1,-68],[18,-88],[56,-68],[44,-30],[50,-52],[143,-79],[-26,-90],[-6,-91],[40,-75],[4,-40],[-47,-72],[-88,-96],[-50,-101],[-20,-95],[110,-58],[102,-22],[108,-47],[16,0],[57,-127],[69,-73],[3,-62],[23,-64],[35,-47],[17,-5],[80,25],[78,-28],[35,-29],[69,-33],[55,-51],[103,5],[38,-51],[4,-42],[32,-71],[63,-35],[21,-48],[45,-78],[52,-19],[53,29],[69,136],[54,60],[52,39],[74,16],[99,13],[22,30],[46,29],[32,32],[63,-40],[73,-57],[65,-39],[23,-41],[89,21],[54,46],[50,21],[58,-5],[75,-30],[102,43],[31,20],[39,42],[87,73],[70,10],[50,35],[-6,-68],[12,-76],[41,-46],[181,-105],[48,-70],[47,-105],[152,-13],[59,3],[54,-7],[67,0],[79,41],[43,15],[75,-12],[36,-13],[49,-35],[135,-28],[92,50],[47,6],[71,34],[53,-23],[47,0],[65,13],[77,5],[17,-14],[50,-92],[73,-21],[31,-27],[48,-22],[79,-55],[31,-50],[49,-31],[8,-18],[12,-128],[72,-35],[55,-85],[11,-33],[-15,-124],[-1,-133],[13,-76],[25,-25],[87,-33],[60,0],[67,-43],[28,-67],[34,-45],[48,-13],[46,-89],[5,-54],[-16,-25],[-9,-69],[14,-64],[47,-40],[93,-57],[30,-24],[80,-17],[56,-1],[75,17],[56,-5],[75,-53],[32,-59],[74,-82],[19,-6],[82,5],[39,-11],[37,1],[11,-20],[-54,-98],[-31,-84],[-7,-115],[-32,-93],[-44,-74],[1,-27],[29,-66],[62,-63],[5,-26],[-19,-74],[-36,-50],[-22,-53],[-4,-40],[-48,-68],[-25,-18],[71,-33],[61,-22],[39,-1],[55,-14],[43,3],[149,-29],[45,-56],[91,-54],[60,-86],[8,-67],[46,-79],[104,-17],[22,5],[43,-47],[95,-48],[65,-3],[56,11],[46,34],[46,1],[90,-60],[69,-61],[26,-11],[83,-1],[53,-28],[51,6],[36,-38],[46,-22],[67,-13],[52,11],[89,-11],[78,-16],[20,-11],[339,-216],[333,-216],[408,-261],[15,-16],[127,-74],[28,-41],[19,11],[388,-250],[8,47],[104,141],[41,21],[31,58],[25,25],[54,31],[30,-20],[47,-8],[35,-18],[63,9],[59,39],[79,0],[64,5],[90,163],[51,27],[88,0],[49,7],[18,12],[15,64],[18,21],[63,-68],[32,-56],[51,-16],[60,11],[65,40],[49,48],[47,35],[22,54],[38,6],[83,-23],[68,-1],[46,-12],[62,-4],[86,16],[58,37],[75,-8],[69,-20],[44,-115],[-8,-61],[25,-133],[16,-59],[1,-34],[90,38],[54,43],[81,44],[67,26],[57,32],[69,-17],[58,19],[28,-3],[23,51],[52,38],[48,-1],[75,11],[56,30],[67,59],[27,17],[41,48],[25,53],[37,36],[10,53],[-30,26],[-77,36],[-39,45],[-8,38],[12,44],[23,43],[0,26],[31,72],[20,15],[31,48],[38,17],[27,53],[96,113],[43,39],[16,67],[38,53],[16,66],[30,6],[65,128],[21,65],[39,-2],[48,34],[94,33],[46,84],[52,121],[31,58],[71,48],[90,123],[35,43],[185,37],[15,74],[0,107],[12,78],[-3,37],[56,17],[117,2],[43,8],[24,29],[3,46],[36,93],[10,46],[-20,84],[54,36],[54,20],[36,-15],[34,-39],[59,-19],[88,-4],[93,-53],[47,-63],[122,-109],[78,-16],[17,12],[90,7],[11,28],[41,55],[16,50],[46,46],[100,54],[73,48],[61,21],[88,21],[38,2],[58,65],[32,27],[19,-4],[36,-40],[33,-17],[63,-52],[53,-27],[32,-35],[43,-27],[42,-15],[76,-89],[12,-54],[29,-59],[5,-47],[-5,-58],[13,-33],[34,-16],[71,-9],[79,-96],[50,-34],[-15,-75],[3,-49],[53,-48],[70,-80],[33,-53],[47,-34],[26,-62],[35,-45],[-2,-48],[45,7],[98,-17],[26,18],[55,17],[84,-12],[115,35],[52,5],[17,-23],[38,6],[41,-46],[105,-29],[14,-26],[-15,-34],[-23,-100],[-42,-103],[32,-34],[40,-10],[61,5],[43,-23],[114,-92],[-14,-83],[-1,-80],[-26,-29],[-28,-54],[-11,-86],[-26,-68],[-29,-18],[-48,-66],[-9,-104],[-38,-28],[-96,-50],[-18,-31],[-83,-71],[-71,-34],[-37,-9],[9,-68],[25,-78],[15,-19],[56,-25],[61,-78],[29,-126],[-22,-39],[-4,-71],[37,-55],[30,-61],[64,-58],[41,-25],[10,-36],[42,-48],[1,-20],[-37,-38],[-21,-53],[-46,-70],[-47,-31],[2,-31],[41,-99],[37,-77],[-8,-35],[21,-170],[-4,-53],[-52,-122],[-3,-24],[16,-106],[-11,-53],[-23,-14],[-135,-2],[-22,-12],[-73,6],[-73,15],[-60,4],[-62,-39],[-3,-48],[-21,-112],[26,-113],[-2,-25],[-67,-64],[0,-50],[-21,-61],[-63,-97],[-31,-26],[-22,-44],[14,-140],[-24,-70],[14,-72],[-7,-42],[-44,-73],[-10,-59],[-30,-55],[-62,-47],[-97,-84],[-64,-4],[-30,21],[-62,-13],[-101,-10],[-71,8],[-31,12],[-12,34],[-93,8],[-25,-10],[-31,-35],[-62,-10],[-29,-22],[-9,-65],[-16,-39],[-64,-29],[-17,-41],[-11,-121],[3,-84],[-30,-38],[-29,-61],[-75,-110],[-49,-104],[-72,-47],[-33,-42],[-3,-49],[19,-96],[37,-79],[68,-67],[56,-35],[60,-20],[58,-10],[30,-23],[0,-57],[-23,-88],[-1,-47],[-12,-81],[18,-86],[-2,-43],[17,-87],[28,-76],[10,-66],[34,-128],[2,-69],[-36,-92],[-2,-32],[15,-71],[32,-51],[22,-62],[23,-41],[77,-71],[30,-35],[21,-44],[18,-80],[-5,-39],[-26,-27],[-59,-82],[-12,-31],[2,-78],[-21,-96],[8,-87],[16,-48],[-8,-58],[-22,-38],[-58,-22],[-42,-38],[-38,-88],[-6,-115],[-29,-129],[-48,-118],[-5,-27],[-35,-63],[-23,-86],[11,-33],[118,-104],[97,-116],[56,-47],[74,12],[62,46],[37,6],[81,-59],[31,-63],[38,-36],[32,3],[68,-51],[17,-5],[47,24],[71,1],[113,-10],[75,3],[37,19],[35,5],[84,-7],[70,4],[40,-7],[48,-33],[26,-42],[45,-21],[42,-6],[32,-28],[89,-34],[35,-39],[21,7],[73,93],[109,103],[68,44],[19,61],[24,41],[61,68],[42,31],[48,6],[35,-17],[137,-105],[65,-74],[48,-43],[77,-34],[86,-71],[61,-59],[66,-29],[34,-55],[25,-17],[77,-21],[34,-17],[112,-91],[15,-36],[44,-66],[14,-78],[27,-75],[16,-70],[8,-79],[17,-25],[70,-57],[34,-35],[33,-63],[15,-63],[31,11],[60,5],[109,46],[55,39],[57,0],[33,-20],[55,-69],[13,-30],[2,-61],[-18,-47],[1,-59],[308,5],[109,-14],[23,2],[44,56],[36,10],[48,25],[97,-25],[23,5],[38,36],[36,-7],[80,22],[130,53],[31,6],[44,34],[51,20],[55,87],[48,2],[27,20],[61,8],[45,20],[57,43],[79,39],[39,-13],[18,-21],[50,-9],[43,1],[34,-19],[-7,-65],[8,-41],[-1,-133],[-23,-47],[9,-60],[16,-21],[71,-41],[25,-8],[66,7],[95,-30],[88,-6],[31,10],[59,2],[60,-15],[63,-42],[41,-35],[42,-114],[15,3],[54,45],[24,36],[51,45],[55,39],[21,49],[62,47],[37,9],[26,37],[25,53],[54,66],[21,115],[62,37],[35,38],[29,15],[49,43],[27,39],[41,32],[12,35],[37,17],[30,38],[23,92],[15,106],[-3,72],[-19,127],[9,51],[41,57],[66,8],[68,51],[69,26],[52,5],[41,-10],[30,7],[48,33],[54,61],[55,31],[61,15],[53,-2],[77,11],[27,-12],[112,4],[57,27],[67,19],[69,-9],[32,-16],[60,-8],[69,-35],[96,-17],[56,-16],[72,-12],[107,7],[71,-53],[88,-2],[94,31],[32,1],[31,35],[50,-8],[97,19],[42,-1],[113,-56],[148,-29],[100,-53],[68,-18],[96,-75],[107,-68],[77,-88],[30,-16],[66,-9],[36,-30],[54,-72],[32,-17],[65,-11],[71,-40],[64,-45],[35,-7],[61,-37],[79,16],[49,-21],[53,-2],[120,23],[56,-32],[43,-79],[29,3],[88,41],[51,13],[85,7],[25,-5],[88,-57],[77,-57],[-25,-52],[-52,-72],[-10,-24],[6,-180],[35,-92],[7,-119],[-4,-98],[8,-58],[52,-185],[7,-69],[24,-62],[19,-89],[39,-45],[19,-53],[13,-100],[9,-20],[31,2],[65,47],[167,102],[33,32],[107,75],[29,29],[47,76],[31,34],[139,114],[28,62],[68,101],[21,42],[10,43],[43,110],[12,46],[23,29],[62,48],[32,36],[43,68],[72,76],[111,107],[20,52],[-42,102],[-20,17],[-61,93],[-52,110],[23,105],[57,119],[17,22],[72,25],[27,77],[40,76],[0,108],[29,80],[1,131],[12,68],[-16,48],[20,33],[70,24],[143,33],[33,-13],[84,-15],[49,-66],[35,-24],[19,14],[-6,64],[-13,290],[-8,95],[-22,403],[-4,127],[12,13],[82,24],[30,14],[70,13],[59,31],[47,-7],[76,-23],[62,19],[82,2],[88,25],[12,-12],[10,-75],[29,-42],[54,-125],[75,-84],[25,-14],[77,-6],[-22,-36],[-66,-66],[-31,-65],[5,-40],[32,-96],[-14,-82],[41,-105],[-1,-42],[20,-25],[54,-26],[36,-77],[-3,-29],[29,-77],[10,-47],[-5,-26],[18,-27],[53,-45],[19,-32],[2,-52],[-9,-30],[-69,-88],[-27,-80],[-1,-40],[12,-23],[88,-54],[65,-47],[19,-21],[3,-59],[26,-62],[-6,-65],[4,-50],[-10,-66],[19,-52],[2,-40],[-35,-69],[8,-50],[-3,-44],[-15,-58],[16,-38],[-7,-39],[-68,-114],[6,-99],[53,-75],[25,-59],[33,-39],[15,-120],[-1,-47],[13,-71],[16,-33],[54,-70],[10,-77],[-14,-62],[-2,-85],[13,-78],[1,-128],[57,-87],[61,-129],[-7,-119],[5,-125],[12,-59],[16,-21],[92,-54],[29,-46],[25,-95],[18,-39],[37,-29],[115,-15],[58,-94],[28,-36],[95,-78],[74,-99],[8,-45],[-28,-93],[21,-25],[17,-50],[57,-13],[64,12],[17,-11],[37,-74],[79,-34],[66,-13],[80,-94],[75,-37],[26,-24],[18,-50],[51,34],[44,16],[65,5],[71,99],[47,36],[67,3],[20,-22],[-1,-86],[18,-113],[15,-40],[32,-36],[50,-71],[176,-149],[89,6],[171,-25],[36,-17],[71,7],[44,14],[13,-76],[7,-114],[-2,-64],[13,-102],[16,-78],[14,-37],[36,-55],[19,-43],[58,-56],[64,-8],[10,-85],[-2,-106],[46,-87],[28,-27],[126,-72],[32,-26],[37,-65],[9,-42],[-24,-50],[-25,-108],[-18,-51],[-1,-61],[25,-51],[-22,-60],[5,-104],[11,-46],[49,-65],[114,-98],[51,-18],[138,5],[59,-22],[26,-72],[94,-46],[67,-67],[15,-24],[28,-89],[9,-59],[-16,-136],[1,-21],[59,-173],[28,-50],[2,-48],[-44,-60],[-7,-26],[12,-74],[-7,-98],[-26,-55],[-38,-45],[-34,-16],[-6,-124],[8,-80],[11,-30],[50,-68],[30,-62],[-17,-112],[5,-72],[25,-43],[96,-48],[79,-32],[83,-8],[39,-25],[89,-139],[40,-48],[66,-101],[26,-65],[75,-139],[64,-47],[37,-70],[63,-89],[49,15],[84,-45],[83,-69],[101,-113],[79,-55],[55,-58],[38,-79],[37,-46],[26,-17],[21,-49],[55,-94],[58,-48],[80,15],[72,7],[12,-40],[58,-85],[-1,-79],[34,-70],[-1,-72],[-7,-23],[-57,-94],[-67,-78],[-28,-17],[-55,-99],[-72,-77],[-48,-91],[-57,-64],[-23,-43],[-23,-123],[-16,-52],[11,-63],[-19,-30],[-5,-55],[-34,-26],[-42,-117],[-21,-83],[-28,-61],[-75,-97],[10,-29],[77,-48],[45,-2],[58,-49],[75,-43],[15,-26],[144,-67],[42,-47],[73,-64],[36,-66],[67,-30],[110,-108],[69,-52],[38,-14],[22,-30],[83,-47],[98,-27],[22,-13],[37,-71],[46,-24],[35,6],[51,26],[53,37],[57,-11],[36,45],[39,7],[49,-63],[65,-59],[51,-60],[42,-25],[63,15],[45,-8],[120,-61],[84,-22],[50,-21],[70,44],[17,18],[64,8],[29,-8],[57,-62],[54,6],[60,-6],[49,-46],[58,-9],[95,-66],[17,9],[-2,48],[32,57],[45,33],[7,30],[-44,63],[-27,58],[29,22],[63,-2],[81,-12],[36,10],[34,51],[34,10],[19,24],[50,14],[119,59],[70,88],[63,9],[85,50],[55,19],[34,2],[61,53],[53,2],[56,-15],[66,25],[47,31],[60,12],[25,13],[110,-8],[22,17],[0,62],[10,51],[40,55],[-12,38],[0,50],[-27,40],[-18,91],[-48,16],[-44,37],[-24,4],[-30,36],[-36,15],[-7,28],[-42,87],[-45,47],[-50,88],[-37,37],[8,23],[35,38],[-6,34],[14,57],[-16,110],[-43,73],[-6,74],[-15,65],[-7,98],[-35,130],[-7,84],[-37,70],[-25,85],[-31,87],[-37,35],[-28,48],[-13,81],[-49,38],[-46,136],[-55,25],[-52,74],[-21,74],[-51,30],[-39,63],[-26,103],[-22,52],[3,48],[35,38],[116,97],[38,51],[14,49],[37,73],[3,22],[-18,57],[-15,17],[-30,79],[-3,41],[32,61],[-3,109],[-31,61],[15,36],[32,193],[44,52],[49,33],[22,33],[-25,83],[-48,124],[-39,59],[-6,35],[-41,32],[-48,154],[-15,65],[8,41],[-14,46],[-11,90],[2,56],[-29,20],[7,13],[62,51],[68,30],[51,84],[18,13],[109,-24],[40,-14],[83,-55],[23,-35],[26,-6],[68,17],[51,-54],[77,13],[88,-20],[71,70],[67,39],[23,28],[15,48],[40,44],[47,7],[15,18],[12,102],[40,50],[-24,21],[5,52],[21,47],[2,38],[-13,45],[-2,91],[43,34],[57,16],[37,-5],[31,-20],[41,80],[4,47],[-14,53],[6,42],[38,49],[100,56],[96,31],[61,85],[71,70],[42,54],[62,17],[42,-18],[25,4],[95,56],[65,27],[85,48],[35,65],[-2,129],[-27,79],[-21,20],[-17,40],[-4,52],[21,73],[-9,89],[-53,112],[6,64],[38,30],[67,33],[76,16],[47,39],[50,27],[59,-34],[-14,-33],[5,-70],[29,-40],[50,-29],[-11,-8],[-9,-56],[13,-78],[-3,-33],[36,-21],[26,-49],[52,-43],[5,-94],[-44,-45],[8,-83],[23,-69],[5,-99],[-6,-89],[6,-22],[67,-78],[21,-41],[83,-13],[26,-32],[32,-97],[33,-21],[23,-32],[45,-93],[15,-49],[14,-82],[20,-38],[35,-39],[48,-33],[36,-89],[-1,-21],[-29,-53],[19,-68],[13,-13],[4,-49],[15,-65],[26,-61],[11,-110],[-50,-14],[-159,7],[-71,-7],[-51,-33],[-9,-39],[16,-81],[-46,-91],[-27,-37],[-4,-43],[33,-121],[12,-77],[39,-37],[34,-76],[14,-101],[-13,-91],[30,-91],[17,-87],[34,-98],[30,-30],[37,-53],[12,-37],[-1,-48],[-33,-85],[42,-49],[10,-32],[-8,-60],[38,-118],[44,-43],[70,-34],[7,-13],[17,-95],[0,-31],[-55,-113],[-37,-45],[-9,-110],[5,-80],[-23,-156],[5,-49],[22,-76],[27,-65],[3,-96],[6,-12],[-14,-82],[17,-91],[-3,-36],[23,-51],[29,-99],[-2,-44],[25,-76],[11,-56],[28,-41],[44,-36],[27,-10],[22,-35],[16,-59],[41,-22],[55,-15],[57,19],[41,1],[41,14],[112,55],[0,-33],[25,13],[85,66],[34,15],[63,-1],[130,28],[50,28],[109,-14],[81,-36],[36,-6],[30,9],[23,-25],[43,-21],[114,9],[55,26],[51,-35],[36,-41],[84,-72],[8,-47],[47,-67],[18,-49],[-6,-165],[61,-53],[22,-38],[15,-64],[62,18],[22,-9],[47,-93],[31,-18],[4,-24],[37,-38],[61,-31],[59,-19],[17,26],[112,142],[235,309],[7,-13],[-11,-79],[7,-49],[41,-109],[47,-69],[-41,-114],[24,-9],[53,-70],[21,-76],[31,-27],[20,-49],[78,-99],[60,32],[32,27],[53,28],[66,19],[106,-3],[27,-18],[142,11],[69,-21],[67,-34],[78,-29],[33,-3],[50,-85],[81,-82],[79,-165],[47,0],[26,-19],[53,-21],[38,-37],[42,-79],[113,-99],[23,-58],[-2,-52],[57,-70],[10,-55],[30,-45],[44,21],[154,34],[35,14],[116,0],[57,13],[43,-8],[64,-25],[115,-19],[27,-14],[41,-40],[24,87],[33,63],[32,39],[41,29],[57,26],[86,8],[22,20],[18,95],[61,93],[156,157],[73,57],[4,118],[-13,48],[-41,73],[-26,74],[65,134],[51,19],[45,36],[128,5],[43,-12],[54,68],[49,33],[86,15],[48,15],[25,-6],[-1,49],[10,18],[84,66],[48,-15],[142,15],[142,-1],[61,-16],[15,25],[-30,27],[-33,51],[-8,125],[-19,67],[7,47],[83,26],[53,45],[14,58],[16,30],[-101,84],[-23,53],[-16,57],[-1,44],[-17,41],[35,95],[29,50],[-2,67],[5,79],[11,35],[-3,68],[-27,70],[12,26],[31,9],[56,53],[9,41],[-5,59],[24,134],[31,103],[-26,55],[26,51],[68,69],[34,5],[41,26],[21,55],[29,11],[7,43],[-19,56],[-1,48],[31,39],[12,76],[22,55],[6,45],[-8,31],[8,74],[-7,86],[70,117],[52,10],[104,2],[116,-15],[58,63],[21,52],[72,52],[38,128],[-1,24],[17,33],[97,75],[59,79],[6,35],[-10,37],[-60,42],[-27,85],[-55,35],[22,146],[53,66],[28,11],[20,27],[21,78],[35,71],[-6,71],[-100,186],[-9,45],[16,122],[29,41],[66,34],[35,54],[87,-32],[48,67],[44,-5],[38,-39],[115,-52],[110,-42],[16,-23],[7,-74],[14,-12],[76,-8],[197,-54],[41,-49],[14,-65],[41,-61],[26,-95],[-23,-48],[-39,-36],[-40,-19],[-17,-25],[28,-84],[-8,-25],[14,-49],[44,-65],[48,-97],[93,-59],[74,-10],[115,36],[95,-16],[177,-86],[44,-12],[31,45],[44,30],[53,18],[92,15],[96,7],[21,27],[85,75],[55,64],[15,7],[0,62],[31,81],[13,118],[21,47],[6,78],[30,57],[23,25],[51,33],[59,49],[90,38],[51,0],[70,14],[49,22],[142,110],[48,30],[59,-1],[109,-20],[155,-17],[28,16],[21,-35],[43,-17],[39,13],[27,-11],[46,30],[52,21],[47,-24],[74,-13],[35,-18],[33,-32],[58,-30],[64,-6],[100,7],[30,-17],[60,19],[59,-90],[9,-32],[27,-31],[72,2],[30,-49],[29,-62],[-9,-42],[-3,-80],[-12,-42],[0,-73],[33,-40],[41,-83],[56,-55],[131,-29],[62,-37],[60,-63],[-32,-52],[-87,-60],[-28,-7],[-44,-31],[-27,-39],[-40,-81],[-10,-35],[-4,-110],[-22,-133],[-17,-47],[-31,-37],[-48,-18],[-13,-67],[14,-87],[47,-33],[31,-115],[48,-67],[80,-55],[55,-24],[90,31],[92,23],[85,6],[37,21],[19,-5],[37,-39],[21,-51],[32,-40],[26,-14],[25,-33],[-10,-90],[-10,-22],[28,-29],[46,-11],[14,-27],[55,-26],[29,-52],[66,-89],[88,53],[25,2],[79,36],[50,14],[34,24],[51,-10],[35,-32],[9,-28],[51,-31],[55,-25],[21,1],[84,29],[33,3],[46,-12],[83,-56],[43,-5],[47,-65],[170,2],[33,11],[13,36],[19,17],[49,-1],[46,38],[43,-1],[53,28],[8,32],[-3,72],[12,35],[55,59],[73,28],[30,-21],[44,-6],[41,8],[51,-29],[128,-31],[33,-33],[78,-53],[7,-61],[-35,-101],[-2,-84],[42,-77],[47,-26],[32,-41],[49,-33],[14,-38],[40,-67],[67,-47],[87,-32],[15,-14],[9,-65],[11,-12],[94,-23],[90,-33],[29,-16],[147,-19],[70,-18],[38,-31],[58,-12],[46,-22],[22,-35],[23,-10],[73,1],[32,-18],[56,-15],[12,-97],[31,-40],[43,-16],[60,-67],[26,-64],[-9,-145],[4,-80],[-10,-105],[22,-87],[20,-16],[63,-16],[88,-41],[25,-22],[54,-28],[101,-36],[86,-2],[103,-9],[97,-15],[48,-3],[35,-23],[29,-5],[43,11],[79,-23],[70,-53],[69,-37],[64,-43],[20,-2],[99,40],[50,49],[47,59],[108,-6],[63,4],[60,-8],[65,-30],[84,6],[85,66],[52,48],[27,-16],[32,-86],[69,-76],[70,-39],[91,10],[75,-25],[76,34],[74,-4],[89,-160],[16,-83],[41,-90],[20,-30],[79,-85],[18,-108],[50,-104],[28,-11],[43,5],[108,-27],[11,-11],[82,-30],[100,-70],[112,-84],[39,-42],[31,-48],[4,-40],[-23,-55],[-16,-112],[12,-48],[-3,-31],[12,-63],[50,-31],[38,-53],[48,-126],[19,-67],[23,-46],[55,-35],[-14,-59],[-3,-55],[10,-58],[13,-21],[122,-73],[106,-33],[101,-19],[21,-11],[53,-77],[7,-28],[7,-141],[-5,-30],[10,-70],[2,-107],[14,-80],[-14,-103],[3,-22],[35,-66],[-5,-68],[8,-30],[36,-76],[68,-90],[26,-48],[50,1],[82,-30],[65,-71],[32,-70],[25,33],[39,21],[73,21],[76,13],[52,0],[56,-12],[84,-76],[105,-84],[42,-15],[57,-66],[27,-67],[32,-37],[65,-10],[115,-31],[73,-36],[39,2],[41,-18],[20,6],[47,-12],[90,-6],[28,8],[62,36],[48,-11],[53,-33],[119,-20],[55,17],[90,43],[55,7],[55,-39],[30,26],[42,0],[71,12],[43,17],[100,17],[63,-28],[65,6],[16,-53],[33,-29],[39,80],[21,82],[16,29],[111,152],[32,33],[27,59],[7,59],[28,51],[25,13],[59,52],[91,33],[19,14],[43,-15],[96,69],[57,67],[8,31],[55,47],[43,6],[56,-35],[31,33],[47,-23],[106,-38],[75,-42],[98,-22],[42,-16],[63,-35],[46,18],[22,23],[52,-20],[48,-37],[37,-5],[26,11],[94,-25],[48,-3],[24,10],[28,-9],[5,-42],[-4,-125],[6,-46],[40,-54],[57,-17],[55,-53],[92,-60],[47,-65],[3,-21],[52,17],[47,2],[29,17],[41,-16],[31,22],[67,-3],[54,27],[79,19],[47,31],[88,-47],[73,-10],[54,71],[52,-23],[23,-45],[27,-10],[58,-5],[52,11],[67,29],[36,70],[4,32],[49,89],[22,30],[36,19],[26,36],[18,59],[65,93],[33,27],[45,18],[79,4],[76,48],[103,37],[77,-17],[113,51],[32,31],[91,4],[40,33],[81,105],[44,25],[103,27],[26,16],[73,95],[14,-54],[106,-18],[35,-31],[16,-129],[-9,-55],[86,-41],[56,-87],[17,-37],[-5,-40],[-40,-85],[-26,-16],[-77,-22],[-98,23],[-30,-14],[-30,4],[-41,-14],[-148,-27],[-110,-47],[-26,-23],[-22,-51],[3,-24],[81,-10],[96,3],[36,-20],[112,-29],[70,-7],[72,-22],[116,-58],[90,-51],[30,-5],[72,-45],[43,-10],[103,-50],[94,-22],[26,7],[163,80],[42,33],[37,45],[58,39],[28,39],[64,47],[52,50],[25,5],[53,43],[22,95],[14,10],[73,11],[52,56],[84,37],[45,43],[57,31],[4,-33],[28,-27],[44,-12],[35,34],[61,-3],[41,32],[26,5],[55,-26],[19,0],[69,46],[21,0],[79,-24],[75,-4],[50,-44],[58,-26],[78,4],[69,41],[36,-8],[21,11],[46,3],[56,-64],[15,-4],[44,24],[44,57],[105,86],[10,46],[67,71],[26,78],[37,51],[34,202],[21,13],[59,13],[30,16],[116,10],[38,-28],[77,-35],[39,-29],[42,-65],[59,4],[56,23],[49,-9],[30,-46],[53,-124],[83,-84],[-10,-36],[2,-49],[25,-77],[22,-168],[46,-82],[7,-98],[12,-66],[-10,-43],[-38,-75],[2,-66],[16,-86],[-5,-53],[35,-26],[49,16],[40,36],[127,-2],[29,-15],[30,-34],[66,-46],[56,-90],[7,-45],[32,-59],[27,-9],[33,17],[11,22],[14,109],[35,74],[21,21],[130,74],[34,-2],[40,-17],[16,5],[31,44],[63,39],[20,28],[-4,57],[3,141],[31,8],[42,42],[37,9],[102,8],[107,-35],[40,21],[63,22],[94,18],[66,20],[58,-23],[37,-2],[39,18],[39,-19],[48,-11],[10,-12],[-2,-59],[7,-75],[-25,-38],[-32,-28],[-13,-33],[-64,-78],[-13,-30],[48,-71],[-33,-73],[7,-84],[29,-48],[-7,-65],[-10,-22],[19,-73],[178,22],[29,33],[13,38],[32,-11],[67,1],[52,21],[28,34],[77,15],[56,-8],[66,-36],[72,15],[59,24],[79,-31],[32,-23],[23,3],[54,36],[79,-15],[55,-25],[35,-6],[86,-31],[35,-47],[67,-48],[42,-4],[28,27],[43,11],[45,29],[22,37],[23,0],[26,30],[15,40],[39,40],[-8,48],[-38,77],[-8,44],[28,59],[18,73],[34,36],[31,61],[63,68],[13,29],[-3,28],[23,74],[37,44],[91,-14],[23,-12],[71,19],[17,22],[43,140],[25,32],[24,88],[0,34],[16,40],[38,54],[84,144],[33,100],[40,41],[46,16],[76,37],[45,58],[68,25],[-32,44],[-3,28],[29,61],[5,32],[-30,70],[-39,31],[-2,68],[46,98],[12,101],[29,57],[17,76],[52,64],[26,103],[9,68],[39,52],[92,46],[82,27],[24,37],[53,45],[48,21],[92,55],[48,61],[-7,73],[7,27],[36,29],[43,73],[91,93],[26,0],[39,-17],[51,22],[25,-50],[19,-17],[46,-8],[28,20],[20,36],[12,60],[3,92],[31,76],[-4,70],[-14,34],[-42,43],[18,115],[17,32],[22,76],[24,43],[27,90],[43,39],[7,21],[-3,91],[57,-34],[36,-4],[80,-28],[36,0],[58,-46],[34,-45],[39,-22],[35,43],[35,18],[98,4],[39,-9],[18,-36],[1,-68],[16,-54],[-3,-73],[26,-50],[4,-43],[-45,-122],[-23,-18],[-39,-53],[-9,-27],[75,-48],[12,-23],[52,-62],[7,-83],[25,-39],[30,-27],[9,-26],[7,-82],[12,-51],[32,-56],[138,84],[107,26],[104,-48],[134,-80],[49,4],[144,31],[56,-7],[5,14],[63,29],[29,50],[93,66],[65,-15],[54,24],[49,2],[41,-30],[56,-7],[236,56],[44,-7],[19,-14],[43,-70],[19,-59],[41,-38],[76,-37],[254,-5],[63,-24],[9,-51],[24,-17],[43,-76],[52,-104],[45,-69],[11,-57],[44,-59],[37,-24],[58,-10],[57,-28],[67,-42],[49,-22],[102,-27],[34,-47],[35,48],[59,24],[41,27],[37,43],[52,44],[58,27],[25,61],[47,49],[61,21],[83,1],[46,8],[24,-8],[101,7],[59,-12],[39,-30],[45,-11],[15,48],[75,133],[1,22],[28,37],[25,14],[37,-1],[43,-15],[101,-22],[39,-55],[74,-73],[37,-16],[25,8],[67,-23],[35,-27],[73,-26],[26,1],[15,-67],[22,-38],[16,-58],[20,-18],[27,-56],[50,-11],[87,-46],[36,33],[9,29],[31,45],[24,18],[64,80],[56,5],[51,20],[33,32],[34,5],[29,-11],[44,8],[53,-47],[-6,-35],[60,-58],[31,-93],[10,-155],[-2,-50],[12,-50],[-5,-125],[17,-65],[45,-48],[20,-9],[41,-59],[63,0],[102,16],[88,-6],[102,21],[32,15],[49,42],[31,46],[47,83],[83,89],[71,92],[31,15],[35,0],[38,-13],[92,1],[61,-51],[33,-59],[18,13],[60,6],[26,-6],[77,-40],[25,1],[37,-35],[50,-70],[24,-60],[64,1],[134,-49],[51,-37],[36,-53],[126,-70],[33,-41],[6,-29],[36,-32],[18,-47],[40,-35],[103,12],[53,-18],[36,-54],[23,-17],[61,21],[100,-2],[23,-41],[14,-86],[-8,-34],[22,-85],[51,-43],[24,-41],[5,-90],[-9,-54],[-32,-31],[-57,7],[-62,-28],[-11,-34],[-50,-51],[-15,-76],[-36,-56],[-13,-37],[-30,-31],[-123,-70],[-44,5],[-96,-38],[-47,-25],[9,-90],[27,0],[28,-21],[62,-25],[27,-40],[93,-91],[16,-9],[3,-54],[19,-30],[-2,-111],[15,-58],[31,-58],[21,-8],[16,-29],[30,-8],[19,-35],[38,-11],[34,-78],[35,-32],[8,-39],[-33,-53],[-11,-67],[-77,-53],[-80,-87],[-7,-27],[-59,-92],[-69,-19],[-17,-21],[23,-46],[-20,-96],[8,-60],[35,-39],[2,-20],[-22,-30],[-18,-67],[-24,-37],[-77,-76],[-7,-21],[21,-135],[-2,-19],[26,-59],[-4,-89],[-50,-24],[-54,-78],[-90,-48],[-36,-13],[-45,7],[-40,-25],[-37,-4],[-90,12],[-1,-45],[-46,-73],[-36,-196],[-8,-108],[13,-36],[-4,-84],[19,-23],[-3,-82],[-28,-37],[-14,-70],[-49,-97],[-41,-53],[-6,-77],[-13,-35],[-24,-32],[36,-51],[22,-51],[12,-6],[9,-49],[-5,-26],[31,-34],[24,-43],[32,-81],[-51,-55],[-45,-100],[-30,-18],[-17,-82],[-33,-68],[-6,-129],[-29,-152],[-12,-90],[-20,-31],[-63,-70],[-32,-44],[-9,-30],[-39,-50],[-29,-20],[-102,-40],[-43,-71],[-29,-11],[-79,-77],[-44,-61],[-4,-23],[-47,-27],[-5,-14],[18,-156],[-17,-71],[-31,-62],[-27,-135],[8,-30],[39,-26],[3,-14],[-32,-52],[-61,-121],[0,-34],[-18,-68],[-3,-64],[-21,-84],[7,-38],[-57,-63],[-32,-46],[-23,-17],[-30,-64],[-35,-34],[-105,-42],[-81,-60],[-77,-21],[-54,-60],[-34,-22],[-22,-37],[-42,-46],[-36,-54],[-98,-212],[-18,-63],[-25,-25],[-7,-64],[-25,-37],[-12,-46],[-31,-62],[57,-71],[34,-23],[32,-69],[4,-30],[-24,-26],[-17,-58],[-22,-36],[-47,-50],[-30,-17],[-32,-35],[-50,-9],[-38,-19],[-7,-17],[5,-54],[-22,-65],[13,-42],[-4,-83],[-42,-40],[-32,-7],[-28,-37],[-18,-49],[-47,-43],[-42,-137],[1,-66],[17,-34],[39,-37],[81,-16],[42,-90],[-76,1],[-33,-12],[-50,-63],[-56,-159],[-5,-41],[18,-34],[63,-49],[15,-26],[-15,-39],[-47,-19],[-25,-26],[-32,-78],[-30,-30],[1,-25],[-49,2],[-65,-27],[-15,-42],[-45,-14],[-51,-93],[-19,-87],[17,-38],[-1,-47],[-13,-52],[2,-148],[29,-99],[-29,-80],[37,-77],[36,-31],[26,-58],[44,-10],[73,-85],[54,-31],[18,-25],[4,-31],[45,-65],[26,-69],[72,-59],[47,-5],[26,-25],[-16,-33],[-6,-51],[-31,-25],[38,-42],[19,-79],[67,-49],[14,-38],[34,-26],[-7,-28],[-21,-14],[-76,-138],[28,-56],[83,-85],[38,-22],[43,0],[47,-31],[8,-39],[25,-17],[-1,-91],[-77,0],[-102,-24],[-33,7],[-73,-23],[-12,-23],[-85,-70],[-50,-22],[-50,-74],[-36,4],[-48,-36],[-37,-74],[-46,-47],[3,-35],[-28,-133],[-35,-16],[-20,-24],[34,-117],[-3,-28],[-56,-133],[2,-81],[-23,-71],[8,-46],[-9,-65],[-15,-36],[22,-61],[-2,-66],[-59,-156],[-14,-65],[3,-52],[31,-36],[39,-83],[48,-64],[2,-38],[63,-98],[28,-14],[38,1],[36,-19],[62,-51],[22,-69],[5,-47],[62,-134],[-4,-49],[18,-42],[19,3],[34,-59],[16,-88],[23,-53],[-65,-53],[-73,-120],[-1,-42],[-65,-32],[-27,-36],[-43,-16],[-33,-26],[-10,-53],[-23,-31],[-35,-76],[4,-105],[-12,-5],[-11,-58],[-40,-50],[-36,-22],[-20,-50],[-28,-39],[-39,-93],[-2,-56],[55,-130],[11,-61],[17,-24],[-40,-58],[-39,-9],[-47,17],[-31,-16],[-20,-41],[-32,-6],[-31,-63],[-48,-32],[1,-52],[29,-74],[-21,-93],[-20,-33],[1,-52],[-21,-92],[15,-23],[4,-94],[14,-34],[-3,-57],[-22,-32],[11,-40],[-8,-42],[4,-65],[-17,-85],[21,-67],[-7,-68],[-39,-1],[-30,-17],[-18,-82],[-27,-45],[-31,-76],[13,-133],[-28,19],[-54,-13],[-41,-44],[-4,-55],[16,-52],[-14,-51],[2,-37],[-12,-76],[4,-29],[-27,-60],[-38,-19],[-45,-78],[-37,-100],[30,-58],[11,-40],[35,-38],[-10,-45],[-47,-108],[-26,-35],[36,-74],[16,-2],[27,-42],[1,-54],[11,-47],[0,-82],[-46,-67],[2,-61],[-10,-19],[3,-68],[-14,-88],[11,-36],[0,-43],[-23,-52],[41,-29],[48,-63],[47,-39],[15,-50],[-22,-5],[-62,-56],[-26,-53],[-44,1],[-30,-32],[11,-22],[1,-68],[-14,-45],[3,-52],[-24,-24],[-10,-34],[19,-55],[-25,-82],[6,-25],[-26,-37],[8,-42],[-13,-34],[-4,-63],[-19,-43],[-26,4],[-29,-20],[-5,-39],[-41,1],[-39,-28],[-6,-65],[-28,-37],[15,-46],[-25,-35],[-63,-32],[-30,-4],[-71,-42],[4,-49],[-12,-86],[-22,-45],[-20,-15],[-2,-59],[8,-22],[-20,-11],[-16,-34],[24,-15],[-1,-29],[18,-36],[-5,-26],[16,-50],[-6,-46],[31,-37],[-3,-117],[15,-26],[36,-18],[44,-37],[79,3],[42,9],[19,29],[39,-14],[18,-30],[22,-12],[66,-57],[0,-50],[20,-21],[33,-4],[31,-28],[13,-55],[0,-43],[21,-24],[10,-57],[28,-18],[19,-47],[25,4],[41,-30],[42,9],[-5,-43],[1,-104],[-60,-80],[-13,-44],[-34,-26],[8,-32],[-3,-57],[50,-98],[55,-21],[42,-127],[-8,-49],[29,-83],[36,-44],[11,-34],[-4,-74],[37,-101],[30,-30],[1,-19],[25,-14],[5,-52],[20,-8],[52,-85],[30,-8],[40,-96],[-4,-40],[22,-47],[36,-17],[32,14],[41,-8],[32,18],[38,-5],[59,-55],[62,-12],[18,-21],[127,-49],[22,-23],[10,-46],[82,23],[30,30],[107,4],[40,29],[24,30],[62,33],[21,27],[31,-4],[42,-41],[47,-64],[37,-85],[13,-100],[-1,-61],[29,-66],[50,-70],[27,-62],[0,-75],[-17,-46],[22,-56],[-10,-26],[34,-28],[58,-81],[65,-4],[82,-14],[60,-99],[55,-74],[53,-21],[16,-38],[28,-7],[5,-61],[48,-50],[30,-5],[55,-59],[69,-38],[66,-4],[72,10],[94,3],[52,-25],[73,-14],[23,-40],[-22,-33],[-59,-52],[-25,-30],[-39,-83],[-26,-32],[-56,-110],[-33,-48],[-25,-70],[-13,-85],[15,-63],[-5,-20],[15,-61],[-22,-44],[-13,-50],[-23,-169],[51,-69],[16,-45],[45,-82],[59,-74],[10,-39],[75,-36],[67,-90],[57,-44],[36,-125],[34,-52],[23,-12],[19,-56],[33,-37],[37,-59],[-27,-41],[-18,-62],[22,-48],[-34,-76],[-29,-45],[-13,-64],[-31,-26],[1,-25],[-33,-70],[11,-74],[-48,-30],[-13,-57],[58,-45],[11,-27],[51,-59],[9,-54],[16,-24],[42,-2],[17,-45],[18,-18],[42,-6],[11,-25],[27,-10],[39,-51],[21,-11],[43,14],[38,-4],[22,-25],[-1,-41],[35,-11],[15,-24],[42,-24],[12,-39],[27,-37],[18,-65],[5,-69],[49,-54],[-3,-27],[66,-38],[49,7],[10,-20],[8,-81],[19,-5],[-7,-37],[-28,-74],[1,-38],[28,2],[27,-21],[-19,-31],[6,-48],[-10,-32],[29,-51],[-24,-37],[-32,-18],[-49,-4],[-18,-25],[-38,-21],[0,-49],[17,-32],[37,-19],[16,-38],[-22,-64],[-27,-30],[3,-33],[-22,-69],[26,-36],[49,-10],[42,-26],[26,-33],[-2,-52],[-38,-51],[-10,-32],[8,-66],[17,-41],[36,-52],[20,-48],[62,-102],[14,-38],[1,-63],[-17,-40],[8,-19],[-11,-66],[7,-35],[-16,-66],[-2,-69],[39,-151],[31,-32],[10,-47],[3,-61],[21,-46],[16,-92],[56,-197],[53,-259],[0,-102],[-16,-208],[-30,-102],[27,-163],[-1,-45],[-18,-126],[5,-44],[-11,-77],[9,-52],[-10,-45],[-31,-71],[6,-92],[-54,-96],[8,-97],[-14,-126],[-33,-49],[-45,-130],[-44,-75],[-76,-62],[-77,-179],[-52,-56],[20,-57],[-12,-47],[5,-130],[-8,-62],[7,-39],[-14,-37],[17,-60],[-11,-36],[-27,-35],[-45,-80],[16,-117],[3,-111],[-3,-73],[-10,-55],[-23,-331],[-8,-85],[7,-66],[-4,-64],[-52,-95],[-37,-6],[-23,-62],[55,-98],[-51,-16],[-17,-87],[-68,-71],[-162,-19],[-56,-37],[-7,-41],[-45,-27],[-25,-85],[-11,-100],[4,-157],[-28,-66],[7,-28],[-10,-90],[-8,-16],[-68,-10],[-104,-94],[-23,-33],[40,-92],[5,-132],[-54,-160],[14,-71],[-27,-48],[-34,-35],[6,-23],[50,-41],[0,-34],[14,-52],[-7,-76],[-39,-30],[-24,53],[-3,32],[-43,54],[-40,-12],[-5,-33],[29,-12],[15,-31],[-16,-33],[-45,-29],[-1,38],[-35,59],[-70,-33],[12,-76],[24,-46],[1,-49],[-41,12],[-9,21],[-51,23],[-9,47],[-15,15],[-31,-35],[-18,-92],[28,-40],[-19,-51],[31,6],[23,48],[19,-14],[-5,-26],[-47,-61],[-34,-11],[-9,-25],[59,-55],[2,-34],[-39,-40],[-34,-6],[-30,10],[-18,45],[-7,44],[-35,-4],[-16,17],[0,-283],[47,-6],[64,-79],[23,-68],[-55,-45],[-43,-61],[-71,-46],[-47,4],[-52,-29],[-21,-28],[-6,-40],[22,-43],[41,6],[38,43],[22,-6],[3,-38],[-21,-81],[4,-53],[33,-28],[9,-32],[-19,-139],[-21,-113],[-12,-18],[-60,-6],[-70,-20],[-33,-24],[-9,-32],[34,-64],[7,-44],[-20,-30],[-79,-37],[-36,-32],[11,-54],[33,-33],[42,-2],[81,42],[14,-10],[15,-81],[0,-50],[24,-67],[-18,-52],[19,-77],[15,-23],[42,-15],[6,-58],[38,-6],[14,-22],[-7,-31],[-22,-41],[-58,-60],[-16,-26],[-18,-94],[6,-26],[25,-22],[75,-23],[36,-27],[12,-45],[-13,-50],[-39,-34],[-59,-15],[-69,30],[-24,0],[1,-23],[31,-33],[45,-20],[47,-50],[1,-39],[-11,-25],[-47,-27],[-35,-5],[-116,4],[-30,-21],[-20,-29],[17,-56],[66,-139],[27,-104],[3,-44],[-13,-116],[-1,-85],[-12,-107],[-23,-50],[-22,-19],[-97,-60],[-47,-46],[-52,-72],[-13,-86],[-13,-37],[-26,-26],[-46,-81],[-40,-62],[-46,-50],[-70,-61],[-83,-80],[-2,-55],[42,-84],[-48,-11],[-32,16],[-19,31],[-13,-23],[-31,-18],[-19,14],[6,51],[-9,8],[-66,-20],[-30,-20],[-26,-42],[-32,2],[22,-25],[-16,-20],[-31,-6],[17,-38],[-21,-52],[-26,-12],[30,-28],[-20,-17],[-57,8],[-16,-53],[-11,33],[-23,18],[-36,-13],[-14,22],[-52,-35],[20,-29],[4,-37],[-50,-12],[18,-31],[-45,8],[-12,-26],[-38,7],[3,-22],[-62,-22],[3,-51],[-23,-14],[-11,-36],[-42,48],[-3,-97],[-13,-12],[-34,9],[-19,-63],[12,-26],[-12,-14],[-17,-69],[-12,30],[-41,-13],[-23,-23],[11,-22],[13,-65],[55,3],[13,-18],[-21,-68],[-20,27],[-14,-22],[21,-55],[-25,-4],[-16,-27],[17,-20],[-34,-28],[12,-57],[65,-54],[4,-15],[-22,-50],[-122,-22],[-27,-11],[-121,-23],[-218,-49],[-47,23],[-5,45],[-26,31],[-49,16],[22,16],[-15,22],[-23,-17],[-30,14],[-41,-40],[-59,33],[-5,33],[-34,21],[15,19],[-30,35],[-19,67],[-7,554],[-568,128],[-247,219],[-466,343],[-40,24],[-58,-21],[-36,9],[-17,33],[-3,44],[13,105],[-3,41],[-16,48],[-43,42],[-58,-3],[-81,24],[-30,20],[-8,54],[15,42],[30,35],[114,67],[47,61],[10,43],[-17,92],[-22,49],[-27,6],[-530,52],[240,250],[-211,545],[-262,256],[-56,-283],[-355,-164],[-130,-72],[-6,-78],[-32,-35],[-72,0],[-11,-16],[6,-63],[31,-31],[-26,-21],[-6,-79],[33,-60],[62,-28],[-29,-44],[-7,-49],[11,-24],[-229,-100],[-51,-244],[-449,101],[30,216],[2,63],[-99,55],[-48,42],[3,17],[-33,29],[-97,103],[-126,76],[-143,78],[-60,23],[-191,86],[-34,0],[-6,-51],[-27,-6],[-1,56],[-33,19],[-53,-32],[7,-37],[64,-17],[-9,-44],[-32,-6],[-33,39],[-17,-58],[4,-16],[43,-8],[19,-36],[-30,-37],[-50,-33],[-19,-24],[-21,-51],[-10,-52],[-33,-29],[-68,16],[-12,-25],[34,-41],[-20,-25],[-58,14],[-25,-5],[-12,-28],[15,-26],[30,-10],[17,-24],[2,-82],[-24,-38],[9,-22],[24,14],[12,-17],[-71,-49],[-1,-71],[-28,-40],[7,-37],[33,4],[22,34],[19,7],[20,-21],[-24,-125],[-17,-49],[-26,7],[-23,30],[-21,-28],[4,-44],[27,-23],[30,7],[-5,-28],[-53,-2],[-36,30],[-15,-18],[16,-26],[62,-31],[42,-2],[-4,-26],[-29,-32],[-32,-55],[9,-28],[30,20],[15,35],[16,-6],[-32,-55],[-38,-16],[-21,16],[4,28],[-27,22],[-45,-86],[-29,5],[-8,-16],[4,-47],[15,-39],[-42,-30],[-15,-29],[36,-48],[-56,-31],[-238,-59],[-140,268],[-183,-7],[-120,-272],[-237,133],[22,84],[-15,44],[-22,17],[-4,45],[-14,-15],[-14,31],[-53,66],[-16,-14],[-12,22],[-24,-21],[-25,37],[-24,-7],[-1,61],[-56,60],[-278,23],[-101,153],[-40,53],[-316,-7],[14,-542],[-616,-276],[34,-342],[-535,9],[-109,-35],[-228,-67],[-108,-249],[-68,-8],[-373,34],[-3,78],[30,95],[-21,79],[11,27],[-10,19],[-62,14],[-242,74],[-184,107],[-273,161],[-104,310],[-12,45],[-44,10],[-248,75],[-389,233],[-3,25],[-459,127],[-99,24],[-255,41],[-281,70],[-161,-55],[-322,-151],[-35,4],[-335,-295],[-190,8],[-328,-55],[-179,-20],[-165,-26],[-273,-334],[-163,29],[-99,-188],[-171,-362],[-48,-310],[-19,-136],[6,-22],[103,-284],[-124,-146],[-108,-116],[-149,-107],[-88,103],[-160,114],[-171,128],[-120,134],[-67,71],[-23,107],[-242,-144],[-261,207],[-151,-30],[-51,3],[-172,-4],[-144,35],[-31,324],[1,66],[23,64],[-3,191],[17,228],[-123,109],[-69,31],[-26,19],[-31,-21],[-46,10],[-28,-25],[-33,-11],[-12,35],[-36,26],[2,63],[-28,11],[-243,-13],[-149,-4],[0,-29],[-46,-23],[-4,-74],[-45,-20],[-6,-40],[-21,-11],[8,-22],[-23,-1],[-21,-32],[-20,8],[1,-29],[-50,-14],[-27,92],[-14,0],[-121,74],[19,39],[-21,23],[8,43],[-558,31],[63,-212],[5,-30],[-368,-60],[-215,20],[-312,164],[-40,25],[-87,68],[-76,44],[-149,140],[-41,41],[-186,171],[-82,73],[-258,245],[-104,97],[-224,214],[-36,236],[-50,350],[-81,714],[-22,181],[-24,242],[-36,255],[-31,163],[-62,269],[-72,129],[-13,519],[21,460],[-28,234],[-596,42],[-51,-525],[-321,-513],[-141,-230],[-26,-39],[-106,-222],[-241,-102],[-149,-77],[-148,-69],[-232,57],[-20,-2],[-93,-141],[-206,63],[5,37],[-76,-2],[-27,6],[-29,-84],[-13,-12],[-92,20],[-63,-16],[-121,13],[-12,-38],[-36,-69],[-91,-4],[-13,-12],[-95,12],[-26,-11],[-38,6],[-25,-60],[-7,-65],[-33,-179],[-27,-247],[19,-147],[12,-54],[-90,-7],[-503,-32],[-212,-15],[17,-34],[-52,-10],[-4,-60],[-28,-59],[22,-12],[9,-54],[24,-36],[-21,-26],[7,-25],[33,3],[-30,-20],[25,-65],[-16,-37],[24,3],[-15,-34],[-6,-57],[42,6],[-10,-31],[20,-11],[-6,-46],[-21,-55],[5,-45],[-58,-24],[-18,16],[-18,-18],[-115,2],[-17,-12],[4,-37],[-35,2],[-15,-33],[-40,-15],[-13,-24],[-26,21],[-26,-26],[-38,21],[18,-52],[-34,-6],[-20,-36],[-45,-6],[-20,41],[-36,-31],[-54,12],[4,40],[-42,-8],[22,34],[-30,11],[-32,-14],[-44,13],[20,-33],[-35,-2],[-5,-49],[-29,-16],[-1,-53],[-37,-22],[5,-45],[-25,-32],[-70,-13],[-24,-12],[-46,29],[-33,-15],[-18,16],[-32,-12],[-14,-27],[10,-27],[-4,-66],[33,-31],[-14,-30],[-42,23],[-9,-36],[-24,-1],[-2,-26],[-42,16],[-34,-10],[-5,25],[-28,33],[-21,-66],[-42,24],[-19,-46],[-17,-10],[-376,119],[-261,83],[-261,103],[-272,129],[-137,60],[-71,38],[-35,34],[-62,-4],[-58,-51],[-25,-45],[38,-48],[-20,-13],[7,-28],[21,-1],[-11,-38],[-41,-10],[-11,17],[-30,3],[-3,-96],[-37,1],[-31,-13],[-29,-31],[-50,-3],[-18,-29],[15,-55],[-15,-45],[-32,5],[-44,-40],[-44,-121],[-53,-14],[-21,-26],[8,-21],[56,-4],[6,-23],[-14,-58],[16,-55],[-17,-22],[-48,-10],[-46,-43],[-31,-46],[-46,30],[-20,1],[-8,-57],[-31,-6],[-74,26],[-27,-50],[-36,-2],[-5,36],[24,51],[-4,13],[-44,16],[-24,-51],[-49,38],[-108,241],[-335,44],[-62,21],[-38,0],[-18,21],[10,35],[-22,45],[-9,53],[-60,40],[7,100],[-6,33],[-32,1],[-23,59],[-34,7],[-34,-15],[-298,89],[-413,127],[-402,133],[-27,12],[2,45],[-44,25],[-51,-12],[-12,-43],[-42,39],[-3,47],[-30,30],[-19,-14],[12,-39],[-47,2],[-1,18],[40,39],[-55,0],[-19,17],[4,78],[26,50],[2,45],[15,35],[22,15],[-27,40],[-14,-19],[-3,-36],[-30,49],[-1,59],[-50,-6],[-13,34],[-31,-4],[-2,49],[-20,24],[-45,-21],[-25,26],[-48,6],[-32,63],[-24,-4],[-20,-37],[-17,22],[-26,6],[-283,110],[-183,79],[-28,6],[-147,8],[-228,71],[4,41],[-35,-3],[14,19],[-57,40],[-14,18],[-40,11],[4,27],[-26,56],[4,45],[-41,75],[-8,35],[-18,-3],[-3,28],[-115,135],[-20,42],[6,52],[12,-27],[12,12],[-8,108],[-19,58],[-26,1],[-34,-17],[-29,95],[13,31],[-7,55],[-60,36],[-18,59],[-19,26],[-33,13],[-20,38],[-43,58],[-39,0],[-60,29],[-84,26],[-46,8],[-72,58],[-55,0],[-39,17],[-46,1],[-87,-70],[-46,-49],[-85,15],[-62,17],[-126,22],[-132,32],[-104,104],[-410,292],[-380,304],[-24,14],[-450,111],[-101,23],[-72,30],[-616,267],[-91,41],[17,80],[28,28],[-6,41],[11,29],[-7,55],[-20,0],[-454,153],[-146,51],[-282,96],[-234,31],[-95,15],[-5,22],[-36,45],[26,53],[8,40],[38,-3],[-5,38],[21,26],[15,66],[14,18],[-40,0],[-203,53],[-86,14],[-222,11],[-251,4],[-329,-186],[-379,113],[-491,-71],[-15,14],[17,26],[-26,23],[-23,-29],[-1,-23],[-32,-27],[-6,-43],[-33,-18],[27,-57],[-15,-36],[-44,0],[2,-24],[-20,0],[-17,43],[-25,-40],[16,-45],[-44,-13],[19,-74],[-6,-15],[-27,27],[-34,-3],[-9,-19],[5,-40],[-24,-8],[-36,15],[-6,-64],[-32,-14],[-28,-147],[10,-57],[-18,-18],[-3,26],[-54,38],[-13,-45],[-42,19],[-43,-46],[-42,4],[-27,20],[-55,-39],[-87,-41],[-46,41],[-11,29],[-37,9],[-20,39],[-52,-12],[-49,32],[-39,82],[-37,-7],[-22,-30],[-31,-18],[0,52],[-21,25],[-40,-79],[-19,-24],[-27,-3],[-24,28],[-4,33],[28,64],[-38,13],[20,27],[15,58],[-24,80],[-8,47],[7,57],[-24,24],[-62,28],[-30,53],[9,20],[25,-1],[31,-34],[17,41],[-36,53],[-82,15],[-64,-21],[-10,-22],[-59,1],[-143,48],[-48,-41],[-49,88],[-23,-9],[-62,-69],[-94,-8],[-46,24],[-107,-92],[-30,-45],[-72,-7],[-35,-13],[-98,-15],[-35,-41],[-5,-24],[-39,-30],[-135,35],[19,67],[20,97],[32,109],[37,8],[0,14],[-49,321],[-58,14],[-93,-2],[-201,15],[-72,8],[-20,12],[-390,184],[-289,172],[-221,127],[-89,63],[-31,94],[-47,95],[-42,25],[-332,66],[-236,73],[-259,84],[-51,23],[-23,-2],[-10,-40],[-42,-10],[-10,-24],[-40,-7],[-79,-73],[-112,-16],[-42,-35],[22,-25],[-25,-44],[-9,-62],[-30,-18],[-24,26],[-63,40],[-36,-21],[-30,11],[-35,-25],[-32,-4],[-160,30],[-34,13],[-92,14],[-123,8],[-36,23],[-57,-6],[-20,10],[-42,-31],[-2,-24],[-23,-40],[-66,6],[-1,-24],[-42,-27],[-8,-31],[-36,0],[-17,23],[-19,-5],[-29,-60],[-51,28],[-20,-42],[-50,-29],[-21,9],[-14,-50],[-28,-11],[3,-51],[-33,-46],[14,-50],[-9,-20],[8,-51],[-33,-50],[13,-18],[4,-59],[22,-21],[30,-84],[-10,-47],[-19,-8],[-29,-50],[-33,-78],[-43,13],[-4,-30],[-25,-10],[-44,-58],[10,-35],[-9,-64],[33,-17],[-19,-37],[29,-19],[0,-32],[-38,10],[-6,-32],[-52,-2],[-28,18],[-48,-10],[-7,37],[-43,45],[-12,-17],[-34,-1],[-71,-56],[-11,36],[-35,33],[-41,16],[-7,-12],[14,-53],[-34,-52],[-25,-20],[20,-28],[-3,-27],[-46,4],[-35,-18],[-36,23],[-144,-42],[-30,12],[-27,-75],[8,-46],[-13,-8],[-62,11],[-73,-30],[-14,-38],[-67,-19],[-2,-25],[-40,1],[-10,-21],[21,-54],[-7,-72],[-10,-13],[-71,-10],[-27,-22],[-43,33],[-39,-2],[-26,-32],[7,-29],[-37,-90],[-2,-36],[-28,-54],[-7,-73],[-40,-14],[-16,-19],[-45,18],[-22,21],[-58,5],[-13,-39],[-21,-24],[-55,-12],[-56,-63],[-20,-10],[-37,29],[-34,-47],[4,-41],[-15,-33],[-61,-40],[-34,-45],[-38,-16],[-52,-38],[-35,-37],[-12,3],[10,54],[-35,31],[-39,-26],[-40,-13],[-20,-51],[-39,-9],[-33,12],[-16,220],[207,360],[0,9],[-97,337],[-52,171],[-25,9],[-83,4],[-44,23],[-91,6],[-191,35],[-5,-211],[-13,-57],[-175,14],[-108,18],[-27,33],[-285,304],[-42,259],[-143,36],[-130,18],[-155,53],[-105,15],[-150,34],[-23,1],[-181,146],[-30,28],[-37,15],[-101,30],[-94,22],[-44,51],[-37,25],[-169,195],[-20,59],[-28,24],[-10,-26],[-21,5],[23,56],[-26,-5],[5,24],[-44,18],[1,48],[28,0],[31,49],[15,132],[17,41],[-16,13],[-42,2],[-39,37],[-46,2],[1,31],[19,17],[-30,6],[-14,-18],[-13,33],[-62,65],[25,91],[-36,16],[-23,-17],[-6,16],[23,45],[4,73],[-9,29],[10,57],[-25,40],[34,38],[-7,38],[-26,6],[-7,47],[39,144],[-13,23],[15,32],[-1,65],[-36,61],[29,22],[-10,79],[25,40],[17,54],[-22,16],[-10,73],[28,38],[15,101],[22,87],[-27,16],[-17,64],[17,53],[25,35],[5,29],[28,-2],[-1,67],[-22,64],[34,-2],[35,26],[-22,20],[5,42],[-24,19],[21,59],[37,13],[14,27],[27,7],[-54,159],[-16,55],[-47,129],[85,437],[19,118],[36,243],[-7,185],[-7,295],[-64,81],[-66,112],[4,147],[-105,204],[-59,126],[-119,105],[-36,25],[-127,118],[-91,89],[-242,131],[-304,187],[-361,118],[-295,90],[-158,56],[-162,493],[-13,34],[-230,40],[-10,-3],[-353,-435],[-35,-28],[-299,-173],[-93,-50],[-48,-40],[-23,10],[9,37],[-9,37],[36,61],[-59,120],[1,34],[-27,17],[-45,-33],[-7,-34],[-43,1],[-6,54],[5,33],[-33,-2],[-5,25],[-24,19],[-72,-114],[-55,-158],[-76,-269],[-8,-16],[-178,85],[-87,-258],[-6,-11],[-201,96],[-27,17],[-13,-23],[-330,-423],[-45,-64],[-122,-154],[-270,66],[-71,-38],[-51,-18],[-20,-33],[-27,-3],[-14,-30],[-30,-8],[21,-46],[-39,-23],[21,-44],[-19,-76],[0,-53],[-14,-36],[-20,-16],[30,-59],[-29,-58],[-232,94],[-102,45],[-31,-13],[-8,-97],[6,-96],[-20,-58],[-34,-31],[-60,-41],[-133,-39],[-26,1],[-22,-23],[-6,18],[-29,-8],[-35,-38],[-83,-52],[17,-26],[-78,-34],[-21,-29],[-24,-10],[-8,26],[-28,-32],[-181,103],[-14,15],[-232,127],[-39,-76],[-39,-32],[-37,-7],[-66,2],[-42,29],[-42,44],[-59,47],[-28,1],[-194,23],[-4,-19],[-36,-49],[-22,-84],[-47,-80],[-62,-74],[-48,-47],[-106,-79],[-18,-9],[-173,-32],[-67,-143],[-20,-24],[-46,-99],[-24,-63],[-12,1],[-29,-46],[-29,-2],[-62,-54],[-37,-11],[-90,32],[-45,36],[-36,66],[-96,-61],[-43,-17],[-163,-180],[-276,-319],[-22,-22],[-201,100],[-31,7],[-16,-15],[-20,13],[-5,38],[-22,14],[-33,49],[-42,12],[-48,0],[-29,22],[-47,7],[-64,29],[-27,-2],[-15,21],[-236,13],[-125,13],[-246,10],[-91,13],[-130,12],[-59,10],[-139,15],[-66,32],[-70,51],[-58,28],[-60,18],[-21,14],[-120,26],[-46,16],[-72,6],[-56,13],[-64,-9],[-121,-34],[-76,-25],[-74,-38],[-31,0],[-131,-24],[-79,58],[-50,42],[-38,47],[-51,93],[-29,64],[-66,18],[-16,46],[-113,303],[42,12],[28,50],[-2,39],[-36,78],[6,55],[-29,25],[-66,-1],[-54,-14],[-11,31],[18,53],[-1,30],[-19,15],[-40,-22],[-39,-3],[-38,19],[-27,76],[66,51],[0,25],[-105,202],[-20,43],[5,151],[173,198],[44,98],[47,40],[48,110],[9,119],[25,91],[-11,29],[-34,201],[7,142],[37,258],[3,39],[-5,104],[-23,60],[-37,33],[-153,-7],[-327,-37],[-55,2],[-129,22],[-130,35],[-301,15],[-82,-46],[-25,-46],[-22,-1],[-84,24],[-114,42],[-31,32],[-276,31],[-8,-30],[-42,-6],[-74,10],[-16,-19],[-116,7],[-75,-112],[-72,13],[-43,19],[-13,25],[-27,-49],[-32,-9],[-20,10],[-19,-23],[-3,-55],[44,-72],[28,-18],[10,-34],[-10,-22],[-18,10],[-32,-24],[17,-24],[0,-32],[-39,-12],[-29,-24],[4,-13],[64,-25],[2,-30],[-71,14],[-26,18],[-6,33],[13,35],[-26,-4],[8,-16],[-33,-9],[9,43],[-35,-16],[-29,28],[-8,34],[-26,-5],[5,-38],[27,-17],[-7,-22],[-24,-3],[-1,35],[-14,-29],[-44,2],[-44,-23],[-27,5],[3,-24],[-61,-3],[-46,-11],[-18,-19],[8,-52],[-13,-27],[-32,-21],[-25,3],[-13,64],[-13,24],[2,36],[44,41],[26,14],[-28,24],[-20,-23],[-7,17],[24,23],[-18,13],[-39,-40],[34,-33],[-29,-43],[-24,-2],[-32,19],[-2,29],[-24,-5],[8,-36],[-23,-32],[16,-53],[21,-36],[-22,-18],[-306,50],[-50,17],[-176,39],[-104,29],[-142,23],[4,38],[92,49],[4,24],[38,-2],[10,14],[4,86],[-34,13],[-17,101],[10,23],[63,3],[6,13],[-19,34],[-28,26],[-4,31],[21,49],[2,51],[33,12],[25,-23],[29,16],[28,-10],[59,22],[12,17],[-14,37],[15,19],[19,-11],[26,-67],[31,-20],[26,18],[-17,57],[31,59],[38,14],[21,-35],[40,19],[61,16],[39,22],[17,35],[-15,18],[-45,-7],[-36,54],[4,25],[21,2],[14,-50],[21,-4],[26,42],[24,5],[23,-18],[9,-69],[26,-4],[55,60],[43,56],[-1,28],[-20,6],[0,-39],[-26,-12],[-85,46],[-55,-21],[-15,26],[19,35],[27,18],[-213,42],[-168,24],[-151,13],[-141,-4],[-31,10],[-15,23],[-63,14],[-269,34],[-32,11],[-46,56],[-178,150],[-19,7],[3,70],[63,37],[16,-4],[27,-46],[57,-9],[40,-31],[4,36],[-13,29],[-23,11],[8,42],[-12,33],[26,28],[-49,64],[-163,33],[-90,7],[-117,26],[-241,29],[-87,16],[27,21],[38,4],[5,26],[-14,75],[34,45],[-53,73],[3,16],[33,5],[17,23],[-37,67],[42,19],[29,52],[21,15],[49,-1],[7,51],[29,55],[-13,32],[-50,44],[-12,26],[15,14],[61,6],[-158,273],[-87,156],[-29,22],[2,49],[-21,-11],[-32,20],[-18,46],[-31,12],[-105,5],[-17,-30],[-57,-1],[-43,35],[-79,34],[-308,153],[-93,24],[-48,-23],[-51,9],[-16,-17],[-149,39],[-161,-28],[-182,64],[-49,-12],[-63,79],[-20,7],[-78,-18],[-5,-29],[18,-34],[-27,-6],[-28,43],[14,77],[-7,25],[-39,25],[-2,42],[-231,66],[-19,18],[-32,1],[-150,63],[2,33],[-32,2],[0,-25],[-62,29],[-63,80],[-67,24],[6,31],[-50,-47],[-5,-26],[-18,9],[-10,41],[43,54],[-53,65],[31,17],[20,-23],[13,15],[0,79],[-22,24],[16,37],[-60,11],[-22,13],[-14,-19],[-45,-4],[-22,9],[38,34],[-2,33],[19,30],[-24,3],[-7,32],[43,93],[42,13],[-9,37],[-44,18],[-144,68],[-168,76],[-132,88],[-60,63],[-43,8],[-48,31],[-43,-3],[-22,14],[-66,-22],[-63,8],[-26,-19],[-44,-52],[-15,60],[-28,-6],[15,-47],[5,-64],[-29,-9],[-12,22],[-1,46],[-43,-6],[-38,-94],[6,-26],[53,37],[24,-13],[0,-53],[-19,-50],[-47,30],[-22,-47],[3,-54],[32,-15],[-46,-23],[-14,-20],[-63,-29],[-29,-23],[0,-37],[-19,-59],[-21,5],[-11,67],[-43,18],[-9,-40],[-19,-5],[17,-26],[-4,-30],[-36,-40],[-8,-53],[-13,-34],[-57,26],[-15,16],[22,50],[-14,10],[-23,-17],[1,-48],[-33,0],[1,43],[-47,-8],[33,145],[-19,46],[25,17],[1,35],[15,45],[-49,6],[-7,49],[-19,-11],[-1,-62],[-28,-4],[-34,95],[2,72],[-204,98],[-52,-14],[-41,-38],[-40,-52],[-20,0],[-37,-27],[-23,-71],[-30,-40],[-31,-95],[-22,-30],[-68,-44],[-196,111],[-325,191],[-87,33],[-33,-40],[-40,11],[-52,-6],[-81,41],[-14,22],[8,28],[-12,16],[-40,4],[2,36],[-17,26],[-41,0],[-10,43],[-30,10],[-20,-16],[-48,5],[-180,154],[-332,97],[-140,48],[-332,162],[-189,88],[-91,49],[-61,25],[-142,69],[-2,58],[37,15],[-22,20],[-6,31],[27,18],[43,-5],[-22,82],[2,30],[-18,36],[25,44],[-31,6],[-29,24],[2,20],[31,43],[-6,31],[23,36],[-22,17],[-18,36],[27,16],[24,65],[6,39],[30,23],[-26,54],[13,49],[-11,20],[30,20],[-2,-20],[23,-24],[1,44],[24,29],[19,-4],[32,33],[14,-21],[14,14],[-20,63],[12,8],[35,-28],[43,-14],[29,34],[19,0],[-76,44],[-26,-2],[-4,22],[35,45],[30,-47],[20,-2],[27,58],[59,16],[33,45],[24,-22],[11,15],[-26,23],[-13,35],[13,20],[57,-47],[6,77],[32,-17],[25,4],[30,31],[-4,14],[-84,38],[-44,-14],[-7,19],[14,39],[62,-29],[11,26],[30,29],[4,60],[24,4],[59,-54],[17,-5],[12,53],[-8,52],[23,52],[3,50],[-9,31],[-30,26],[-2,48],[23,41],[-12,17],[-73,-51],[-13,25],[-6,65],[30,23],[24,69],[48,5],[51,32],[1,110],[-39,46],[8,74],[45,34],[-12,17],[28,25],[-11,15],[22,18],[-18,26],[-5,33],[29,90],[-36,-2],[3,39],[23,31],[23,8],[37,121],[47,103],[-14,52],[-5,73],[11,51],[-55,33],[-2,31],[33,5],[3,45],[37,34],[23,54],[39,35],[-7,20],[-46,44],[-15,0],[-47,-43],[-47,56],[-47,27],[-11,23],[13,46],[-2,41],[21,22],[49,14],[9,41],[-18,31],[-26,6],[-56,-21],[-21,21],[3,32],[117,103],[33,63],[28,20],[-29,9],[-17,41],[29,15],[39,-13],[18,20],[-42,44],[21,18],[-19,34],[-48,-23],[-13,25],[17,41],[-36,-24],[-10,39],[51,52],[18,75],[0,53],[20,117],[-12,32],[-41,31],[-11,43],[58,64],[19,39],[3,33],[21,3],[15,25],[-2,43],[33,19],[-10,46],[-17,-3],[-32,57],[48,16],[19,50],[68,-6],[-8,48],[-17,28],[-5,47],[4,116],[-50,11],[-45,71],[10,71],[-23,60],[-31,46],[-7,48],[-22,58],[-17,8],[-32,99],[-12,20],[-59,146],[-20,35],[-80,199],[-75,174],[-70,155],[-271,616],[-109,244],[-110,231],[-137,272],[-102,196],[-206,344],[-9,22],[-78,41],[-17,0],[-205,-39],[-13,-27],[-83,41],[-20,33],[-40,17],[-40,-5],[-55,27],[-83,28],[-36,-5],[-55,26],[-63,1],[-35,29],[-40,13],[-38,-3],[-73,39],[-61,8],[-74,33],[-45,12],[-52,26],[-53,16],[-59,-3],[-47,17],[-41,1],[-33,16],[-74,12],[-56,-11],[-32,7],[-39,-9],[-61,19],[-73,2],[-73,30],[-62,0],[-41,-9],[-14,14],[-81,21],[-22,-12],[-44,31],[-71,6],[-49,38],[-22,-1],[-36,-28],[-79,6],[-41,10],[-43,35],[-19,-4],[-56,15],[-79,-5],[-29,30],[-36,9],[-42,-7],[-22,13],[-57,5],[-78,28],[-35,-3],[-62,28],[-31,4],[-84,54],[-52,16],[-28,22],[-44,18],[-22,-11],[-8,-34],[-48,-74],[-3,-53],[-19,-30],[-49,-1],[-81,49],[3,26],[-29,51],[-44,-11],[-30,6],[-24,29],[-36,8],[-20,34],[-124,27],[-84,5],[-40,13],[-32,26],[-22,69],[1,34],[-42,41],[-38,9],[-101,-19],[-47,12],[-70,34],[-55,-8],[-27,20],[-55,10],[-39,-13],[-47,-45],[-53,-4],[-48,30],[-49,-8],[-30,-38],[-43,-18],[-90,52],[-54,-11],[-68,6],[-34,-21],[-36,23],[-40,-7],[-63,-50],[-34,8],[-65,99],[-79,28],[-106,47],[-90,20],[-61,31],[-26,-38],[-91,-19],[-244,-31],[-184,20],[-51,28],[-84,24],[-69,42],[-34,7],[-55,-18],[-65,17],[-23,42],[-61,30],[-73,-2],[-59,35],[-45,-2],[-51,18],[-25,32],[-48,32],[-10,21],[-70,42],[-117,26],[-103,76],[-19,-24],[-34,-9],[-16,-19],[-9,-39],[-36,-65],[-24,-14],[-65,27],[-54,68],[-38,75],[-28,15],[-20,30],[-16,78],[-22,13],[-27,38],[-62,-13],[-57,-22],[-13,65],[-10,91],[39,50],[39,112],[-26,47],[-7,43],[16,65],[-6,94],[-71,99],[-27,52],[-2,49],[-26,75],[7,83],[-68,49],[-42,41],[-31,62],[-94,33],[-72,90],[-10,28],[6,68],[23,60],[-1,40],[-15,22],[-67,50],[-35,56],[0,48],[-39,23],[-66,15],[-36,-16],[-45,7],[-19,35],[-21,6],[-43,-20],[-40,-38],[-46,7],[-23,22],[-47,9],[-68,64],[-16,-8],[-39,-72],[-57,-72],[-57,-11],[-72,-91],[8,-97],[-14,-60],[-36,-29],[-51,32],[-87,-9],[-47,16],[-45,25],[-33,83],[3,44],[19,97],[-3,33],[13,32],[-20,27],[10,47],[-13,34],[-69,54],[-5,17],[36,61],[70,86],[2,17],[-57,106],[-15,13],[-68,18],[-56,41],[-60,13],[-34,-11],[-31,32],[-27,-39],[-33,-67],[-10,-1],[-32,61],[-18,16],[-66,11],[-24,-5],[-41,29],[-47,18],[-17,21],[-22,-23],[-51,-4],[-25,9],[-41,38],[-43,6],[0,69],[-13,28],[-69,10],[-11,9],[-8,58],[-74,51],[-37,3],[-54,18],[-38,-26],[-44,17],[-48,-3],[-27,46],[-19,11],[-52,-9],[-8,15],[2,72],[-71,95],[-2,35],[18,43],[-42,46],[3,8],[92,83],[25,28],[-33,46],[23,45],[-16,35],[20,33],[-10,34],[9,39],[38,21],[-21,22],[9,16],[-17,28],[13,24],[8,91],[-32,-4],[-48,15],[-30,42],[-56,-47],[-38,24],[-61,-5],[-28,-20],[-12,-26],[-23,-8],[-24,-30],[-26,6],[-33,-29],[-13,-31],[-42,-25],[-93,-8],[-36,-15],[-26,27],[-78,19],[-6,20],[-28,6],[-4,117],[-16,38],[-61,1],[-26,21],[-39,-17],[-29,25],[-15,36],[-92,-29],[-32,-36],[-71,-52],[-48,-5],[-4,-47],[30,-55],[6,-74],[10,-13],[-10,-46],[-17,-19],[4,-69],[-32,-9],[29,-66],[-16,-77],[-5,-81],[-24,-71],[-19,-131],[-43,-34],[-37,7],[-25,-15],[2,-59],[-26,2],[-40,-31],[-65,-31],[-21,-23],[-42,-6],[-41,29],[-55,-4],[-20,-33],[-41,-6],[-12,-37],[-36,-19],[-28,7],[-1,25],[-19,-1],[-33,-59],[-20,-89],[5,-79],[-26,-32],[-10,-67],[-28,-33],[-59,-29],[-20,-26],[6,-40],[-38,-95],[-32,2],[-11,-18],[26,-86],[33,-20],[15,-25],[-12,-40],[-65,-41],[3,-42],[-30,-39],[-54,-35],[-18,-69],[-16,-18],[-30,-100],[-113,14],[-70,3],[0,-23],[-25,8],[-75,0],[-36,-18],[-8,-21],[-44,-10],[-14,18],[-22,-13],[-37,12],[-2,-48],[-15,-24],[-48,23],[-36,-8],[-27,-39],[33,-55],[8,-44],[-16,-25],[-40,6],[-19,-17],[-32,-4],[-36,18],[-27,46],[-27,19],[-39,-39],[-24,3],[-44,47],[-23,49],[-25,19],[-35,-37],[-23,3],[-26,75],[-19,2],[-21,-26],[-16,9],[18,41],[-26,23],[-23,-23],[-24,25],[-22,-53],[-52,49],[-27,-40],[-4,36],[-19,48],[7,40],[-12,25],[-48,2],[-57,-49],[-38,-2],[-65,-21],[-47,13],[-27,-3],[-29,-20],[-49,-61],[-42,-39],[-28,-2],[15,47],[-3,36],[-62,13],[-36,-22],[-19,1],[-61,71],[-52,25],[-27,27],[-19,-2],[-58,-71],[-50,8],[-55,-33],[-84,-17],[-85,-6],[-81,-30],[-50,29],[-21,36],[-1,23],[23,46],[-44,48],[-57,30],[-61,-12],[-60,2],[-64,31],[-54,-36],[-104,-58],[-163,-100],[-172,-73],[-78,-21],[-264,-50],[-238,-62],[-48,-18],[-80,-39],[-157,-95],[-26,-26],[-19,-41],[2,-71],[62,-181],[22,-143],[53,-116],[41,-80],[-5,-77],[-29,-175],[-29,-112],[11,-19],[124,-24],[142,-8],[114,-23],[131,-15],[72,-1],[122,6],[22,-96],[-1,-120],[-26,-58],[-7,-37],[-26,-56],[-41,-45],[-51,-79],[-44,-51],[-108,-60],[-4,-39],[-27,-90],[8,-17],[-16,-32],[-36,-27],[-26,-37],[-4,-28],[-66,-12],[-35,-45],[-39,-27],[-96,-47],[-120,-48],[-48,-41],[-71,-72],[-71,-29],[-661,604],[-59,51],[-862,497],[-546,321],[-384,221],[-118,74],[-167,99],[-549,318],[-355,209],[-11,3],[-337,195],[-323,190],[-332,198],[-326,190],[-417,234],[-227,12],[-534,29],[-95,7],[-627,37],[-132,9],[-525,32],[-216,6],[-604,35],[-301,15],[-419,24],[-4,1],[-424,27],[-153,11],[-703,36],[24,-37],[43,-15],[10,-37],[-12,-30],[-38,-20],[-2,-30],[-23,-12],[-11,-36],[4,-32],[44,13],[75,-44],[38,-4],[-10,-47],[4,-26],[55,-34],[31,4],[36,43],[16,2],[18,-30],[-12,-26],[-32,-19],[-18,-28],[3,-101],[13,-31],[31,-33],[-35,-97],[-36,-141],[-72,-74],[-84,11],[-31,-47],[-24,-18],[-62,-20],[-51,-37],[3,-42],[28,-1],[23,-42],[-9,-39],[-26,-6],[-12,-42],[25,-51],[44,-54],[26,-11],[36,-48],[35,-14],[-4,-53],[35,-87],[34,-17],[23,-43],[96,-31],[23,-30],[-40,-15],[19,-20],[32,16],[51,-7],[33,-16],[11,-46],[28,-57],[29,11],[16,-15],[5,-64],[-30,-12],[-25,7],[-23,-43],[12,-46],[-16,-48],[-7,-56],[-29,-36],[-17,-58],[-23,-33],[-47,-37],[-8,-25],[-53,-18],[-16,-49],[-16,-14],[-75,-1],[-78,-98],[-31,-22],[-46,-9],[-21,-42],[5,-79],[14,-33],[46,-31],[10,-27],[-35,-79],[14,-58],[25,-59],[-39,-48],[-23,-50],[-46,-43],[-55,-28],[-90,-11],[-42,4],[-43,-82],[-10,-91],[28,-50],[11,-90],[-22,-48],[-28,26],[-48,8],[-23,-56],[-56,-25],[-33,15],[-21,-41],[-73,-71],[-46,-20],[-9,-26],[32,-54],[-5,-32],[9,-77],[-5,-26],[-32,27],[-49,9],[-96,-54],[-5,-26],[40,-29],[-34,-28],[-50,4],[-48,-37],[-45,1],[-20,-19],[2,-36],[-30,-51],[-46,-4],[-63,-47],[-24,2],[-32,23],[-72,-28],[-53,44],[-51,-6],[-12,25],[-25,5],[-18,46],[-27,-12],[-35,4],[-76,25],[-10,-9],[19,-32],[-45,-34],[-24,-52],[7,-20],[45,-39],[-15,-14],[-21,28],[-54,19],[-34,2],[-102,43],[-21,-30],[-40,-29],[-70,67],[-38,20],[-78,-28],[-35,-4],[-8,42],[-60,3],[21,38],[-282,294],[-153,157],[-19,39],[-138,318],[146,492],[0,9],[-87,78],[-248,217],[-284,260],[-87,77],[-267,129],[-40,16],[-104,80],[-84,76],[-36,42],[-120,153],[-92,169],[-24,38],[-124,232],[-79,164],[-25,36],[-115,142],[-39,53],[-214,17],[-58,9],[-145,53],[-96,10],[-206,-12],[-169,-18],[-559,-37],[-166,-14],[-44,-7],[-213,-13],[-573,-33],[-40,-1],[-142,-40],[-351,-34],[-401,-34],[-313,137],[-84,20],[-379,98],[-271,72],[-5,5],[-431,94],[-273,102],[-208,252],[-49,178],[-65,218],[-222,273],[-94,4],[-260,0],[-337,-33],[-94,-8],[-305,-33],[-208,-1],[-235,11],[-15,-2],[-218,15],[-91,17],[-262,55],[-264,-62],[-418,-92],[-215,58],[-150,44],[-90,3],[-339,17],[-552,37],[-107,8],[-14,11],[-4,89],[7,68],[34,-9],[15,18],[-20,20],[12,28],[2,47],[-12,24],[12,24],[-24,36],[14,38],[-1,35],[43,20],[48,-22],[7,-24],[44,-9],[3,17],[-27,23],[5,44],[-12,20],[29,25],[9,-22],[63,10],[15,-39],[52,90],[-42,10],[7,27],[30,10],[-16,61],[-17,12],[-11,-26],[-20,-3],[14,46],[-38,27],[47,58],[-10,23],[-16,-33],[-37,-19],[-6,15],[26,32],[-19,27],[-18,-19],[-10,20],[-27,-5],[22,44],[28,-4],[-6,51],[-27,23],[-22,-19],[-29,40],[29,0],[10,50],[-15,31],[33,41],[-27,-9],[-14,44],[23,2],[-34,52],[29,36],[-21,11],[-41,-31],[-29,30],[9,47],[42,23],[9,40],[-32,-5],[-21,15],[13,36],[23,-12],[26,16],[-1,36],[35,24],[38,-7],[50,14],[4,36],[-37,34],[-22,37],[-12,59],[9,27],[39,24],[18,-3],[57,24],[28,23],[22,43],[-9,49],[-54,69],[-17,38],[8,45],[21,28],[-8,50],[14,24],[33,6],[-1,84],[15,45],[20,94],[12,19],[51,20],[12,41],[-23,44],[-54,55],[-56,70],[-33,18],[-74,23],[-5,26],[18,87],[-2,25],[-39,44],[-27,72],[-64,39],[-76,60],[-25,44],[30,49],[-37,91],[13,38],[-16,44],[-25,13],[-2,36],[19,29],[44,13],[5,39],[-49,9],[-63,21],[-9,16],[19,18],[68,-7],[42,52],[-60,46],[-2,33],[75,44],[21,35],[-35,31],[-10,35],[-25,38],[54,36],[7,72],[-40,102],[-59,-16],[-12,47],[23,41],[-26,15],[-35,-36],[-55,2],[-11,20],[14,54],[48,0],[12,25],[-22,55],[6,41],[-41,68],[-35,20],[-36,82],[-36,20],[-66,-49],[-32,12],[-6,52],[29,40],[-15,20],[-75,7],[-72,28],[-31,55],[5,23],[49,-1],[27,27],[10,34],[-10,27],[-41,18],[-7,34],[60,45],[7,74],[-44,54],[17,34],[4,36],[-9,37],[76,177],[-27,46],[-30,75],[-107,77],[-35,48],[-47,81],[-3,38],[-23,63],[-14,81],[8,66],[0,84],[9,59],[35,112],[8,124],[-9,-12],[-52,-133],[-72,-8],[-55,152],[-11,0],[-80,-96],[-133,-90],[-188,-38],[-198,14],[-114,39],[-45,174],[-5,4],[-154,-193],[-43,-50],[-367,-116],[-235,66],[-7,-64],[-101,-121],[-90,-71],[-25,15],[-278,87],[-109,-48],[-58,-101],[-82,-101],[-56,-2],[-137,48],[-180,-75],[-326,-113],[-161,-91],[-112,9],[-131,-49],[-52,-37],[-48,52],[-175,-29],[-91,36],[-73,12],[-155,58],[-138,-56],[-217,-93],[-48,-10],[-124,-13],[-53,-82],[-78,-13],[-55,1],[-37,53],[-13,-2],[-187,-170],[-34,-2],[-504,64],[-256,176],[-215,89],[-316,275],[-244,127],[-194,195],[-237,297],[-197,377],[-5,-3],[-128,238],[-124,62],[-547,275],[-214,147],[-413,282],[-92,64],[-344,316],[-214,193],[-210,198],[-271,252],[-84,81],[-100,65],[-3,7],[-386,223],[-56,75],[-242,303],[-185,236],[-321,146],[-105,52],[-265,128],[-497,314],[-12,1],[-83,-223],[-45,3],[-190,50],[-149,58],[-204,83],[-25,22],[-179,329],[-289,234],[-209,236],[-29,131],[-209,269],[-209,374],[-184,-24],[-386,77],[-430,16],[-602,90],[-153,24],[-295,-19],[-209,12],[-143,-160],[-53,-188],[-184,-171],[-70,-186],[-212,-270],[-1,-161],[-176,-147],[-106,-198],[14,-62],[5,-146],[2,-227],[-29,-14],[-101,-28],[-87,-37],[-46,-3],[-153,-46],[-36,1],[-76,-40],[-56,2],[-39,26],[-109,35],[-162,27],[-56,51],[-43,60],[-66,127],[-96,106],[-98,84],[-68,69],[-93,61],[-143,116],[-169,163],[-40,30],[-104,60],[-41,35],[-38,53],[-43,44],[-42,65],[-58,39],[-120,44],[-24,37],[-71,43],[-16,-4],[-102,15],[-48,20],[-44,-13],[-51,-25],[-86,1],[-14,19],[-168,170],[-37,34],[-427,429],[-179,175],[-310,312],[-122,119],[-208,210],[-297,293],[-589,593],[-111,35],[-270,29],[-395,40],[-430,52],[-61,48],[-31,43],[-71,9],[-177,115],[-27,2],[-22,-15],[-36,12],[-107,195],[-47,50],[-79,36],[-96,65],[-37,30],[-195,133],[-224,112],[-38,23],[-247,175],[-356,308],[-262,193],[-370,212],[-308,180],[-214,130],[-235,137],[-174,108],[-212,157],[1,242],[14,284],[8,85],[7,152],[94,226],[-69,62],[-181,142],[-88,31],[-22,13],[-214,202],[-175,177],[4,271],[-92,147],[24,53],[-2,67],[-24,28],[-167,99],[-204,116],[-54,44],[-119,43],[-105,48],[-33,9],[-117,10],[-122,-13],[-121,-2],[-187,-9],[-167,43],[-157,46],[-38,-41],[15,-55],[-36,-15],[-18,-42],[-50,-38],[-55,-131],[16,-27],[-14,-43],[31,-51],[68,-28],[124,-35],[1,-37],[26,-52],[-20,-22],[9,-54],[-27,-32],[1,-52],[-34,-29],[-6,-31],[-32,-64],[-31,-35],[-15,-44],[-30,-15],[-64,-12],[-52,5],[-342,-43],[-153,-13],[-169,17],[-302,-176],[-59,-8],[-57,95],[65,229],[210,84],[-171,332],[-209,-130],[-20,142],[-28,25],[-97,26],[-45,52],[-2,74],[7,20],[49,20],[74,-16],[84,-8],[58,0],[153,32],[77,173],[-140,203],[30,316],[19,96],[-143,209],[-318,417],[-12,9],[-157,75],[-128,157],[-124,173],[-101,138],[-299,411],[-225,319],[-181,266],[-107,160],[-136,207],[16,257],[16,452],[-1,28],[10,252],[-121,211],[-209,349],[-135,371],[-61,64],[-158,40],[-228,53],[-391,94],[-197,45],[-389,66],[-220,45],[-337,77],[-277,65],[-155,38],[-312,73],[-210,79],[-203,197],[-294,269],[-247,229],[-244,93],[-35,-261],[-20,-144],[-144,184],[-105,137],[-94,150],[220,200],[154,137],[-92,295],[-227,-191],[-117,151],[-17,47],[95,355],[-390,66],[-32,-41],[-199,-302],[-245,26],[-4,-2],[27,-226],[-128,39],[-177,56],[63,142],[-71,51],[301,262],[29,29],[-281,48],[-66,-205],[-271,-57],[0,221],[-3,3],[-151,-24],[-273,107],[1,3],[284,206],[-60,64],[-223,-150],[-39,-150],[-286,59],[43,111],[-111,112],[-3,-8],[28,-274],[-108,96],[-110,130],[-58,319],[-27,172],[-8,65],[118,105],[7,17],[32,203],[-195,81],[-80,143],[-227,42],[-218,71],[-314,-155],[88,-404],[-226,209],[-237,-47],[-21,119],[-158,156],[-140,177],[-217,168],[-102,79],[-345,13],[-236,90],[-98,136],[104,365],[0,31],[-144,89],[-290,81],[-33,439],[-1,2],[-400,143],[-33,17],[-206,77],[-11,1],[6,-189],[-1,-42],[-304,242],[-19,-1],[-201,-186],[-238,302],[-198,151],[-102,80],[118,446],[-1,7],[-292,16],[-108,9],[47,447],[-114,117],[-68,77],[-11,24],[-69,375],[-12,-9],[-348,-212],[-49,58],[-164,201],[-181,-164],[-477,54],[-117,362],[-41,-18],[-322,-110],[173,228],[-33,11],[-350,136],[20,42],[205,470],[-477,226],[-394,97],[-15,5],[-225,-26],[-200,-143],[-310,-228],[-230,-173],[-58,-161],[29,-196],[123,-787],[19,-97],[1,-68],[76,-217],[63,-449],[10,-53],[25,-207],[44,-328],[10,-49],[86,-96],[94,45],[18,-73],[-4,-17],[-118,-350],[-53,-172],[-63,41],[-26,-61],[-29,-1],[-27,96],[-16,41],[-68,106],[-34,40],[-40,83],[-34,52],[-53,52],[-36,11],[-79,8],[-27,51],[-65,89],[-86,85],[-64,52],[-110,66],[-50,84],[-52,11],[-26,-14],[-48,-51],[-91,-14],[-61,5],[-8,32],[56,17],[3,88],[13,68],[-7,27],[-37,54],[-19,42],[-36,118],[-23,51],[-72,287],[-8,39],[-23,7],[-26,28],[8,22],[36,22],[23,-27],[20,19],[-22,46],[-17,12],[-53,0],[-10,23],[46,17],[-26,83],[-21,18],[-73,36],[-52,91],[-50,49],[-51,12],[-108,-21],[-51,14],[-47,60],[-9,54],[-32,58],[-33,22],[-91,40],[-49,10],[-85,1],[-51,-15],[-18,14],[-63,5],[-41,34],[-82,4],[-221,-120],[-71,-20],[-316,-97],[-6,-19],[-34,-6],[-39,26],[-92,-26],[-63,-39],[-23,4],[-7,31],[-27,12],[-34,-28],[-20,3],[-12,27],[4,63],[-24,38],[-50,42],[-27,4],[-93,-11],[-30,15],[-33,40],[-43,93],[7,58],[32,42],[37,28],[-47,36],[-52,8],[-39,34],[-24,70],[-133,112],[-221,176],[-249,157],[1,96],[-21,74],[-22,38],[-12,59],[-49,146],[24,72],[8,72],[-17,137],[-27,98],[-30,67],[-44,69],[-33,26],[-163,102],[-64,28],[-144,26],[-20,55],[-25,37],[-71,44],[-70,6],[-145,-31],[-128,-18],[-62,38],[-182,269],[-55,43],[-54,70],[-126,123],[79,50],[54,59],[26,47],[24,79],[11,82],[1,75],[-32,97],[-90,129],[-78,78],[-118,92],[-39,-5],[-65,-44],[-36,-4],[-61,7],[-94,25],[-35,25],[-18,35],[-51,-2],[-154,-52],[-95,-11],[-111,-41],[-270,209],[-125,91],[-511,384],[-77,56],[-34,36],[-240,293],[-288,355],[-24,33],[-136,163],[-177,160],[-136,130],[-134,124],[-367,-44],[-117,-22],[-173,-21],[-189,-26],[-101,-10],[-225,360],[-25,370],[-21,342],[-24,443],[-12,155],[-39,653],[-17,227],[104,206],[282,550],[203,403],[173,347],[64,125],[92,310],[388,-133],[119,414],[27,82],[49,179],[193,34],[15,64],[-257,97],[149,480],[-108,36],[142,491],[79,262],[-176,61],[35,107],[200,671],[74,257],[40,127],[17,23],[106,62],[48,61],[80,79],[59,47],[119,114],[30,44],[14,43],[14,124],[27,33],[38,25],[34,8],[59,-8],[56,18],[40,34],[24,44],[8,42],[42,104],[16,27],[52,26],[43,-19],[66,-65],[104,-72],[51,-26],[93,-11],[57,-28],[18,-27],[34,-92],[55,-65],[31,-23],[94,-5],[62,-10],[71,-23],[81,-8],[63,-25],[59,-4],[53,-19],[35,0],[42,17],[67,64],[49,80],[85,78],[43,-1],[55,53],[34,59],[22,95],[34,66],[71,61],[87,25],[59,-1],[139,16],[56,42],[25,40],[-2,35],[-19,53],[-31,47],[-91,118],[-31,57],[-38,98],[-80,137],[-25,72],[-6,58],[7,72],[33,51],[14,39],[-2,82],[-14,77],[-28,99],[-14,119],[-38,54],[-55,54],[-29,41],[-34,63],[-28,30],[-85,69],[-83,51],[-24,57],[5,48],[68,149],[8,79],[51,66],[10,39],[-6,85],[13,34],[33,23],[79,3],[47,-24],[48,-75],[8,-44],[5,-117],[17,-75],[26,-42],[47,-41],[53,-7],[128,23],[89,9],[22,-5],[61,-52],[73,-97],[55,-111],[40,-43],[57,-31],[51,10],[61,48],[42,84],[21,77],[31,72],[-4,33],[-68,110],[-1,62],[13,88],[32,105],[-1,42],[-47,111],[-59,103],[-13,36],[2,40],[57,70],[48,86],[80,71],[26,57],[6,37],[-6,56],[-37,97],[3,86],[31,81],[-23,112],[5,88],[13,32],[37,32],[23,122],[29,108],[11,131],[-10,117],[5,97],[40,102],[42,29],[39,1],[26,29],[72,132],[28,65],[15,53],[38,42],[12,63],[-6,21],[-45,72],[-6,45],[24,111],[-2,52],[-11,24],[-67,64],[-23,43],[-59,71],[-35,24],[-30,7],[-74,-1],[-73,22],[-57,-7],[-26,15],[-76,123],[-40,55],[-7,54],[15,60],[-4,29],[-30,45],[-84,59],[-56,62],[-71,123],[-15,38],[-6,77],[13,105],[-7,60],[2,59],[-18,44],[-42,16],[-33,26],[-72,37],[-20,44],[17,165],[-17,75],[31,51],[39,42],[45,30],[47,13],[10,21],[-18,44],[-67,67],[-47,92],[0,47],[17,37],[31,34],[10,29],[-39,67],[-45,36],[-57,9],[-111,46],[-75,70],[-68,33],[-59,70],[-42,30],[-111,51],[-64,50],[-40,65],[-34,30],[29,53],[45,29],[20,43],[-41,117],[-2,87],[15,57],[43,119],[16,72],[-1,123],[-45,76],[-49,42],[-2,74],[18,47],[50,35],[118,7],[93,29],[17,31],[7,42],[16,27],[40,1],[58,-47],[98,-38],[17,0],[49,52],[20,5],[77,-33],[21,11],[5,31],[-12,33],[-30,28],[-69,17],[-17,34],[46,51],[92,43],[80,2],[31,-25],[2,-23],[-21,-35],[-14,-44],[21,-75],[24,-10],[110,22],[31,-40],[20,-4],[30,19],[50,54],[39,28],[32,1],[24,-15],[21,-67],[47,9],[67,55],[8,38],[-37,74],[-55,42],[-47,49],[-39,85],[-60,84],[-36,98],[-52,55],[-31,83],[8,65],[37,23],[76,0],[21,18],[35,77],[37,50],[3,20],[-11,102],[50,66],[57,9],[51,-99],[30,-27],[33,-11],[71,-4],[84,-26],[24,54],[10,94],[-4,76],[-33,98],[1,40],[19,40],[28,27],[152,83],[88,42],[58,22],[47,78],[7,69],[20,59],[28,10],[46,-13],[72,-60],[56,-14],[90,102],[32,60],[62,85],[5,28],[-31,83],[1,34],[16,22],[129,71],[21,26],[34,68],[9,46],[-32,56],[-54,21],[-54,42],[-35,67],[-23,27],[-56,21],[-49,-27],[-52,9],[-11,37],[16,52],[27,32],[50,101],[-11,40],[-52,55],[-1,32],[26,20],[35,3],[41,29],[44,15],[28,-6],[74,4],[72,-6],[55,26],[60,3],[34,14],[0,55],[-34,45],[-2,70],[34,38],[63,-33],[35,-7],[78,6],[88,-45],[66,6],[5,73],[-9,60],[0,112],[18,39],[83,-13],[100,14],[51,78],[11,75],[2,83],[14,37],[110,84],[35,63],[49,27],[64,46],[30,42],[35,67],[35,38],[9,29],[19,204],[-2,40],[-25,101],[-3,56],[-38,46],[-5,22],[18,31],[32,24],[6,19],[-5,125],[11,39],[47,99],[31,23],[39,9],[73,-1],[38,23],[49,89],[-1,39],[-34,44],[2,69],[12,49],[-2,52],[-92,64],[-36,59],[-6,25],[11,49],[-2,42],[45,70],[-12,56],[-30,41],[-17,7],[-59,-21],[-39,30],[-4,54],[-20,23],[-24,50],[-50,25],[-84,-42],[-32,-4],[-32,13],[-9,26],[36,60],[-35,31],[-40,11],[-101,12],[-33,46],[-11,52],[16,73],[-11,43],[-92,51],[-25,43],[-19,95],[5,55],[33,94],[3,35],[-99,82],[-13,46],[1,125],[-19,148],[15,29],[-17,28],[-46,23],[-25,92],[-31,85],[-9,58],[9,41],[-13,29],[-23,13],[-20,39],[7,26],[66,53],[7,19],[-19,58],[-37,19],[-89,-3],[-31,19],[-28,49],[-10,63],[1,77],[19,62],[58,61],[4,26],[-20,32],[-73,77],[-29,50],[23,67],[-4,65],[18,79],[49,80],[41,0],[30,-37],[37,-4],[125,16],[56,25],[101,-7],[14,27],[-17,47],[-17,86],[7,65],[23,22],[73,28],[32,1],[54,-49],[56,-8],[33,27],[1,29],[-28,78],[2,54],[47,86],[14,54],[3,49],[18,63],[37,45],[45,34],[17,63],[-21,48],[19,46],[51,26],[7,41],[-16,61],[-4,59],[28,49],[3,35],[-17,54],[22,3],[64,-74],[51,-1],[19,20],[5,43],[38,44],[45,12],[87,-2],[81,31],[41,10],[57,40],[11,49],[49,62],[35,80],[45,0],[29,-31],[44,-85],[41,-43],[55,-28],[59,-7],[66,18],[77,74],[48,10],[53,-2],[63,-11],[86,3],[53,-21],[99,-58],[54,-16],[78,-41],[41,-44],[34,1],[39,18],[130,-13],[79,-15],[21,4],[23,36],[-3,69],[-35,60],[1,16],[49,4],[7,59],[28,37],[51,36],[30,61],[-51,22],[-11,45],[20,17],[36,60],[18,64],[20,33],[68,32],[21,34],[7,34],[27,45],[58,32],[115,30],[47,-6],[98,53],[48,60],[3,37],[-12,32],[43,32],[32,2],[31,23],[1,22],[39,49],[23,53],[16,13],[66,-14],[20,13],[14,50],[3,58],[26,48],[2,37],[18,38],[21,10],[88,-30],[15,6],[108,105],[44,-12],[29,12],[18,37],[1,48],[-43,52],[-2,30],[66,91],[-2,54],[61,55],[97,72],[-22,38],[-40,10],[-43,48],[3,29],[79,116],[45,28],[52,59],[34,63],[30,105],[7,57],[38,101],[9,47],[29,52],[24,72],[-27,101],[-9,79],[7,54],[-5,33],[-31,96],[25,117],[12,86],[37,73],[26,125],[18,40],[46,46],[23,45],[12,55],[1,50],[27,41],[29,79],[90,119],[9,25],[53,78],[6,23],[41,90],[95,102],[11,23],[111,94],[58,58],[30,17],[45,0],[41,-13],[68,19],[30,28],[79,24],[47,45],[89,42],[59,-14],[42,27],[70,12],[63,-12],[106,-52],[27,-21],[33,-66],[34,-12],[95,-76],[45,-17],[93,-14],[87,-6],[44,26],[56,-4],[43,19],[95,12],[31,8],[50,-1],[40,-13],[105,55],[27,46],[65,53],[13,19],[11,83],[25,39],[27,23],[41,52],[6,32],[64,90],[64,58],[51,34],[26,42],[76,14],[50,102],[39,57],[33,25],[36,4],[36,66],[66,28],[39,78],[19,20],[25,75],[76,108],[51,6],[30,-15],[50,-4],[36,16],[170,-28],[80,7],[48,46],[26,46],[50,18],[76,81],[43,73],[15,55],[27,39],[3,29],[26,70],[29,118],[19,31],[49,50],[19,129],[-54,80],[-4,22],[12,71],[-7,106],[5,55],[49,50],[26,46],[-21,42],[51,65],[6,48],[101,79],[92,30],[29,4],[32,24],[53,1],[54,25],[44,46],[57,101],[42,36],[29,85],[20,43],[35,39],[34,62],[-7,46],[18,44],[41,13],[56,78],[17,40],[44,48],[54,36],[48,131],[101,121],[75,24],[67,57],[27,2],[7,59],[26,35],[38,20],[38,-6],[29,34],[5,27],[28,20],[61,-6],[38,13],[47,-70],[37,-10],[60,18],[72,-16],[102,61],[40,47],[60,33],[19,119],[-34,26],[-60,80],[27,97],[27,44],[49,37],[44,17],[125,38],[13,37],[37,5],[53,26],[45,-13],[34,3],[51,42],[69,80],[65,22],[67,2],[63,45],[24,39],[1,45],[15,44],[-35,90],[-18,18],[7,37],[-12,31],[1,63],[-55,87],[-11,51],[1,53],[-16,22],[-5,50],[-28,74],[14,32],[4,105],[-12,27],[6,42],[-30,51],[-37,41],[-31,72],[-59,7],[-20,22],[-11,37],[12,32],[40,53],[1,15],[63,87],[68,3],[12,20],[51,32],[25,35],[46,21],[60,43],[21,46],[96,148],[-18,62],[-4,68],[-10,39],[57,55],[34,72],[25,24],[14,48],[23,33],[-2,18],[74,76],[19,68],[29,76],[34,42],[88,30],[22,32],[18,56],[54,62],[29,50],[31,21],[27,36],[82,17],[32,17],[70,69],[22,31],[35,99],[22,13],[24,35],[58,45],[43,23],[25,-12],[51,17],[28,-3],[52,-30],[37,2],[45,17],[78,1],[23,20],[80,-20],[123,24],[21,21],[72,-2],[61,17],[64,5],[34,-12],[47,5],[23,15],[51,2],[38,-11],[40,10],[42,-10],[41,9],[52,82],[26,16],[38,65],[34,11],[37,48],[74,17],[18,-13],[118,-27],[51,3],[19,-8],[74,-63],[73,-31],[11,-29],[56,-18],[48,0],[32,-23],[21,6],[29,-14],[10,-27],[66,-39],[42,-6],[35,-43],[54,8],[45,-15],[25,5],[55,-48],[-55,-107],[-11,-65],[31,-16],[41,-3],[17,-53],[-23,-111],[39,-31],[61,-10],[63,-67],[38,-18],[44,-5],[57,-102],[46,-18],[5,-62],[16,-34],[-5,-22],[-45,-60],[-45,-29],[-61,-27],[-34,1],[-48,-21],[-18,-20],[24,-65],[-2,-26],[-30,-29],[51,-19],[70,-52],[73,-21],[2,-92],[16,-43],[9,-93],[-18,-66],[31,-81],[28,-14],[70,-7],[29,14],[23,-8],[26,-44],[9,-42],[17,-28],[30,-18],[35,-56],[5,-66],[46,-50],[61,-20],[19,-49],[10,-118],[24,-48],[2,-33],[46,-40],[84,-12],[22,-20],[129,-31],[29,-32],[12,-55],[34,-41],[25,-17],[38,-51],[-21,-36],[-4,-50],[12,-32],[-16,-69],[0,-83],[22,-71],[-24,-46],[-7,-62],[-60,-133],[-7,-76],[20,-33],[57,-40],[25,-40],[33,-89],[2,-109],[-7,-47],[1,-139],[-20,-30],[-48,-132],[9,-17],[52,-18],[102,-7],[119,47],[28,3],[65,-23],[46,-39],[35,-40],[5,-49],[25,-38],[28,-78],[68,-66],[22,-74],[-8,-56],[-42,-102],[-6,-44],[23,-29],[-35,-11],[-98,-61],[-12,-24],[5,-51],[-13,-42],[-6,-70],[-25,-108],[-70,-79],[-28,-61],[-5,-47],[-66,-98],[69,-44],[87,-95],[21,-43],[43,-20],[53,-40],[65,-29],[27,-80],[-5,-40],[13,-33],[36,-43],[22,-49],[40,-27],[34,-8],[79,2],[22,-30],[22,-66],[48,-59],[30,-178],[13,-59],[122,-57],[25,-25],[61,-36],[72,3],[27,13],[71,5],[32,-4],[52,-23],[70,-102],[24,-15],[122,7],[32,16],[56,-32],[95,-22],[37,7],[28,30],[33,9],[75,63],[79,-2],[64,21],[34,-9],[32,-22],[48,-67],[30,-22],[39,29],[36,71],[68,83],[28,67],[23,17],[43,68],[81,-30],[74,-7],[44,14],[42,-13],[43,-31],[30,-49],[35,-85],[45,-35],[32,-9],[15,-49],[57,-137],[190,20],[36,-15],[85,5],[61,47],[41,46],[77,41],[46,3],[48,-22],[23,-20],[57,61],[49,80],[24,12],[15,39],[43,46],[-9,109],[-78,58],[-32,34],[-65,38],[-56,20],[-116,70],[59,36],[56,23],[29,39],[56,41],[47,19],[29,37],[26,9],[51,-3],[101,20],[58,3],[49,21],[22,81],[147,40],[28,14],[-2,72],[-9,100],[38,63],[22,24],[9,123],[86,44],[-4,45],[31,104],[53,21],[16,19],[56,26],[45,39],[7,93],[31,19],[7,19],[-39,32],[-39,76],[66,134],[-12,62],[-28,77],[30,73],[-1,54],[16,52],[-14,106],[-67,124],[-7,57],[68,46],[9,31],[-4,51],[43,77],[-67,34],[-61,77],[-25,62],[-11,86],[-11,32],[-46,36],[-38,11],[-46,76],[-54,57],[-33,65],[-6,41],[-49,25],[-124,53],[-41,41],[-34,71],[-53,74],[-33,25],[-20,77],[21,90],[20,41],[56,18],[30,-5],[61,11],[50,33],[68,13],[55,40],[34,-19],[213,4],[79,12],[72,70],[51,15],[73,11],[56,-3],[119,31],[-19,99],[29,30],[36,-4],[16,-33],[36,-30],[12,-31],[-5,-50],[7,-59],[46,-47],[22,-12],[91,-75],[36,-3],[52,27],[30,3],[73,-10],[86,14],[61,4],[15,31],[5,90],[23,78],[86,106],[72,70],[30,38],[72,109],[31,35],[25,53],[48,78],[106,46],[38,22],[40,64],[26,15],[82,23],[138,67],[14,58],[2,67],[54,82],[17,61],[28,30],[49,9],[101,82],[40,21],[51,45],[113,72],[77,27],[30,66],[-2,43],[-24,105],[37,112],[-57,163],[0,45],[-11,33],[-37,34],[-28,62],[-13,87],[68,114],[44,58],[23,52],[-14,117],[-13,32],[-57,63],[-14,31],[72,24],[30,48],[75,74],[43,21],[33,43],[41,37],[40,22],[34,37],[6,57],[37,130],[47,59],[15,51],[36,79],[2,71],[30,109],[-16,61],[-14,8],[-97,-18],[-22,-11],[-53,3],[-65,-43],[-58,6],[-43,-10],[4,22],[44,22],[28,41],[5,43],[-24,71],[-14,67],[5,60],[65,28],[73,-1],[44,22],[26,66],[37,43],[50,43],[32,58],[51,14],[71,30],[17,25],[-73,92],[-13,72],[-37,67],[-45,46],[-19,36],[-59,-4],[-74,9],[-47,-17],[-26,4],[-59,85],[-45,49],[-94,73],[42,68],[18,84],[36,33],[8,31],[102,139],[2,76],[-10,28],[-31,25],[-31,71],[18,101],[29,100],[26,48],[-1,31],[-51,43],[-26,2],[-13,21],[-47,34],[3,116],[6,60],[-8,32],[-87,71],[1,46],[37,43],[37,15],[28,-1],[44,-21],[113,26],[53,-10],[24,26],[25,1],[49,-28],[41,-7],[85,-2],[28,28],[21,56],[6,74],[48,47],[20,57],[28,39],[49,43],[2,23],[-23,18],[-47,-11],[-30,13],[-89,23],[-1,80],[-27,28],[-62,-8],[-52,45],[-51,83],[-25,6],[-37,-12],[-44,56],[-37,9],[-45,-11],[-42,7],[-24,40],[8,39],[58,82],[33,96],[4,40],[-12,36],[-25,21],[-9,56],[29,48],[51,51],[10,40],[-22,78],[7,22],[43,62],[121,-26],[88,7],[73,-6],[104,9],[39,34],[22,-21],[28,-71],[51,-50],[-3,-62],[24,-41],[38,-9],[21,10],[34,73],[26,82],[95,-63],[52,-20],[40,-63],[37,-23],[70,-27],[46,-65],[28,-66],[48,-25],[76,-9],[98,-34],[65,-50],[65,-95],[27,-130],[12,-36],[41,-64],[15,-49],[33,-28],[99,-54],[68,-54],[66,-61],[36,-21],[69,-3],[33,12],[20,23],[36,-1],[92,-36],[69,0],[63,-11],[43,-16],[77,-16],[57,-21],[98,-46],[142,-79],[164,-69],[98,-20],[47,2],[145,29],[35,-9],[67,-53],[36,10],[40,50],[23,53],[-10,35],[-94,85],[-25,74],[-2,101],[16,126],[6,85],[-6,65],[6,107],[-1,78],[9,74],[20,46],[45,34],[116,12],[5,14],[-39,226],[2,98],[16,115],[15,50],[37,75],[36,26],[49,20],[28,-22],[90,-36],[90,-29],[72,-57],[86,-24],[46,-36],[37,-46],[49,-84],[138,-69],[112,-31],[78,-2],[59,-43],[38,-10],[45,19],[65,41],[34,41],[50,88],[26,53],[54,27],[43,41],[15,29],[2,35],[-17,63],[-18,32],[-31,128],[-8,97],[-29,141],[3,72],[10,28],[49,38],[79,-30],[56,-9]]],"transform":{"scale":[0.000045518020598329425,0.000036092307275801076],"translate":[80.05846710800012,26.347762022000154]},"objects":{"npl_admin0":{"type":"GeometryCollection","geometries":[{"arcs":[[0]],"type":"Polygon","properties":{"id":"NP","name":"Nepal","parent_id":null,"parent_name":null,"area_sqkm":147652.72382934,"center_lat":28.3976335,"center_lon":83.09334715},"id":"NP"}]}}}